name,branch,address,city,zip,state,phone,url
Ulta Beauty,595,482 Stillwater Avenue,Bangor,04401,ME,+1 207-941-1406,https://www.ulta.com/stores/bangor-me-595
Ulta Beauty,412,10 Stephen King Drive,Augusta,04330,ME,+1 207-629-5422,https://www.ulta.com/stores/augusta-me-412
Ulta Beauty,411,366 Maine Mall Road,South Portland,04106,PORTLAND,+1 207-773-7786,https://www.ulta.com/stores/south-portland-me-411
Ulta Beauty,1285,"120 Marketplace Boulevard, Unit 5",Rochester,03867,NH,+1 603-330-0058,https://www.ulta.com/stores/rochester-nh-1285
Ulta Beauty,599,45 Gosling Road,Newington,03801,NH,+1 603-431-4498,https://www.ulta.com/stores/newington-nh-599
Ulta Beauty,788,"700 Lafayette Road, Unit 120",Seabrook,03874,NH,+1 603-474-0831,https://www.ulta.com/stores/seabrook-nh-788
Ulta Beauty,773,"11 Brickyard Square, Ste 21",Epping,03042,NH,+1 603-679-1397,https://www.ulta.com/stores/epping-nh-773
Ulta Beauty,1486,41 Hawthorne Street,Williston,05495,VT,+1 802-662-0046,https://www.ulta.com/stores/williston-vt-1486
Ulta Beauty,1516,59 Consumer Square,Plattsburgh,12901,NY,+1 518-314-1758,https://www.ulta.com/stores/plattsburgh-ny-1516
Ulta Beauty,450,1500 South Willow Street,Manchester,03103,NH,+1 603-623-9147,https://www.ulta.com/stores/manchester-nh-450
Ulta Beauty,1640,"6 South Village Drive, STE 240",Salem,03079,NH,+1 978-620-5236,https://www.ulta.com/stores/salem-nh-1640
Ulta Beauty,458,210 Andover Street,Peabody,01960,MA,+1 978-531-0246,https://www.ulta.com/stores/peabody-ma-458
Ulta Beauty,1744,"425 Washington Street, Ste 5",Woburn,01801,MA,+1 339-645-7557,https://www.ulta.com/stores/woburn-ma-1744
Ulta Beauty,495,"258 Daniel Webster Highway, Unit 9",Nashua,03060,NH,+1 603-888-5698,https://www.ulta.com/stores/nashua-nh-495
Ulta Beauty,321,15 Mystic View Road,Everett,02149,MA,+1 617-381-0040,https://www.ulta.com/stores/everett-ma-321
Ulta Beauty,1483,6 Shipyard Drive,Hingham,02043,MA,+1 781-875-8556,https://www.ulta.com/stores/hingham-ma-1483
Ulta Beauty,1392,32 District Avenue,Dorchester,02125,MA,+1 617-740-0680,https://www.ulta.com/stores/dorchester-ma-1392
Ulta Beauty,1026,790 Iyannough Road,Hyannis,02601,MA,+1 508-775-3840,https://www.ulta.com/stores/hyannis-ma-1026
Ulta Beauty,1492,114 Arsenal Yards Boulevard,Watertown,02472,MA,+1 857-760-4388,https://www.ulta.com/stores/watertown-ma-1492
Ulta Beauty,526,380 Grossman Drive,Braintree,02184,MA,+1 781-356-1792,https://www.ulta.com/stores/braintree-ma-526
Ulta Beauty,289,188 Colony Place,Plymouth,02360,MA,+1 508-746-4811,https://www.ulta.com/stores/plymouth-ma-289
Ulta Beauty,750,237 University Avenue,Westwood,02090,MA,+1 781-326-6486,https://www.ulta.com/stores/westwood-ma-750
Ulta Beauty,1699,1352 Park Street,Stoughton,02072,MA,+1 781-847-1235,https://www.ulta.com/stores/stoughton-ma-1699
Ulta Beauty,1555,"2421 Cranberry Highway, Ste 461",Wareham,02571,MA,+1 774-326-1254,https://www.ulta.com/stores/wareham-ma-1555
Ulta Beauty,1549,"1 Worcester Road, Ste 515B",Framingham,01701,MA,+1 508-655-1535,https://www.ulta.com/stores/framingham-ma-1549
Ulta Beauty,1747,14 Water Tower Plaza,Leominster,01453,MA,+1 351-356-1314,https://www.ulta.com/stores/leominster-ma-1747
Ulta Beauty,1102,16 Highland Common East,Hudson,01749,MA,+1 978-567-5812,https://www.ulta.com/stores/hudson-ma-1102
Ulta Beauty,1013,30 Ash Brook Road,Keene,03431,NH,+1 603-352-3711,https://www.ulta.com/stores/keene-nh-1013
Ulta Beauty,660,386 Patriot Place,Foxborough,02035,MA,+1 508-698-5293,https://www.ulta.com/stores/foxborough-ma-660
Ulta Beauty,1298,9 Mozzone Boulevard,Taunton,02780,MA,+1 508-821-5931,https://www.ulta.com/stores/taunton-ma-1298
Ulta Beauty,451,8106 Shops Way,Northborough,01532,MA,+1 508-393-2813,https://www.ulta.com/stores/northborough-ma-451
Ulta Beauty,1244,"249 Hartford Avenue, Ste A-199",Bellingham,02019,MA,+1 508-966-0798,https://www.ulta.com/stores/bellingham-ma-1244
Ulta Beauty,1714,"1250 South Washington Street, Ste 4",North Attleborough,02760,ATTLEBORO,+1 508-695-0512,https://www.ulta.com/stores/north-attleboro-ma-1714
Ulta Beauty,1796,200 North Dartmouth Mall,Dartmouth,02747,MA,+1 508-979-6604,https://www.ulta.com/stores/dartmouth-ma-1796
Ulta Beauty,1551,"70 Worcester-Providence Turnpike, Ste 250",Millbury,01527,MA,+1 508-581-5060,https://www.ulta.com/stores/millbury-ma-1551
Ulta Beauty,1813,622 George Washington Highway,Lincoln,02865,RI,+1 888-888-8888,https://www.ulta.com/stores/lincoln-ri-1813
Ulta Beauty,1420,570 William S Canning Boulevard,Fall River,02721,RIVER,+1 774-357-1237,https://www.ulta.com/stores/fall-river-ma-1420
Ulta Beauty,1512,7 Commerce Way,Seekonk,02771,MA,+1 508-618-5942,https://www.ulta.com/stores/seekonk-ma-1512
Ulta Beauty,724,"371 Putnam Pike, Ste 8340",Smithfield,02917,RI,+1 401-233-8960,https://www.ulta.com/stores/smithfield-ri-724
Ulta Beauty,1576,158 Hillside Road,Cranston,02920,RI,+1 401-270-1526,https://www.ulta.com/stores/cranston-ri-1576
Ulta Beauty,1792,"1245 Bald Hill Road, Unit 2",Warwick,02886,RI,+1 401-586-7301,https://www.ulta.com/stores/warwick-ri-1792
Ulta Beauty,320,1350 Bald Hill Road,Warwick,02886,RI,+1 401-826-3295,https://www.ulta.com/stores/warwick-ri-320
Ulta Beauty,1359,"1307 West Main Road, Spc 6B",Middletown,02842,RI,+1 401-847-0705,https://www.ulta.com/stores/middletown-ri-1359
Ulta Beauty,1672,"351 Russell Street, Ste 40",Hadley,01035,MA,+1 413-923-6792,https://www.ulta.com/stores/hadley-ma-1672
Ulta Beauty,1025,"3065 50, Spc B100",Saratoga Springs,12866,SPRINGS,+1 518-581-8026,https://www.ulta.com/stores/saratoga-springs-ny-1025
Ulta Beauty,770,15 Holyoke Street,Holyoke,01040,MA,+1 413-533-3519,https://www.ulta.com/stores/holyoke-ma-770
Ulta Beauty,619,"160 River Road, Ste A-140",Lisbon,06351,CT,+1 860-376-4288,https://www.ulta.com/stores/lisbon-ct-619
Ulta Beauty,1571,25 Hazard Avenue,Enfield,06082,CT,+1 860-962-6541,https://www.ulta.com/stores/enfield-ct-1571
Ulta Beauty,772,"555 Hubbard Avenue, Ste 12",Pittsfield,01201,MA,+1 413-442-1378,https://www.ulta.com/stores/pittsfield-ma-772
Ulta Beauty,435,1464 Pleasant Valley Road,Manchester,06042,CT,+1 860-648-9260,https://www.ulta.com/stores/manchester-ct-435
Ulta Beauty,1220,221 Wade Road Extension,Latham,12110,NY,+1 518-313-4089,https://www.ulta.com/stores/latham-ny-1220
Ulta Beauty,1522,"102 Van Rensselaer Square, Suite 1",Rensselaer,12144,NY,+1 518-960-3123,https://www.ulta.com/stores/rensselaer-ny-1522
Ulta Beauty,1135,"903 Hartford Turnpike, Spc 26",Waterford,06385,CT,+1 860-437-3297,https://www.ulta.com/stores/waterforoad-ct-1135
Ulta Beauty,1120,"400 Balltown Road, Spc 3",Schenectady,12304,NY,+1 518-344-7023,https://www.ulta.com/stores/schenectady-ny-1120
Ulta Beauty,1313,112 Colonie Center,Albany,12205,NY,+1 518-438-1642,https://www.ulta.com/stores/albany-ny-1313
Ulta Beauty,1440,1053 Silas Deane Highway,Wethersfield,06109,CT,+1 860-952-2937,https://www.ulta.com/stores/wethersfield-ct-1440
Ulta Beauty,421,380 West Main Street,Avon,06001,CT,+1 860-674-1835,https://www.ulta.com/stores/avon-ct-421
Ulta Beauty,1637,1555 New Britain Avenue,West Hartford,06110,HARTFORD,+1 959-777-7179,https://www.ulta.com/stores/west-hartford-ct-1637
Ulta Beauty,768,240 New Britain Avenue,Plainville,06062,CT,+1 860-747-5140,https://www.ulta.com/stores/plainville-ct-768
Ulta Beauty,720,34 Spencer Plain Road,Old Saybrook,06475,SAYBROOK,+1 860-399-1203,https://www.ulta.com/stores/old-saybrook-ct-720
Ulta Beauty,1700,"533 South Broad Street, 1D",Meriden,06450,CT,+1 475-343-5739,https://www.ulta.com/stores/meriden-ct-1700
Ulta Beauty,511,21835 Towne Center Drive,Watertown,13601,NY,+1 315-785-1013,https://www.ulta.com/stores/watertown-ny-511
Ulta Beauty,1074,"1919 Boston Post Road, Ste 255",Guilford,06437,COMMONS,+1 203-453-0544,https://www.ulta.com/stores/guilford-commons-ct-1074
Ulta Beauty,1343,255 Union Street,Waterbury,06706,CT,+1 203-346-0952,https://www.ulta.com/stores/waterbury-ct-1343
Ulta Beauty,1524,"2044 Montauk Highway, Ste 54",Water Mill,11976,NY,+1 631-613-4041,https://www.ulta.com/stores/bridgehampton-ny-1524
Ulta Beauty,1578,"2335 Dixwell Avenue, Ste D2",Hamden,06514,CT,+1 203-234-1489,https://www.ulta.com/stores/hamden-ct-1578
Ulta Beauty,1624,100 Main Street North,Southbury,06488,CT,+1 475-473-2417,https://www.ulta.com/stores/southbury-ct-1624
Ulta Beauty,309,4733 Commercial Drive,New Hartford,13413,HARTFORD,+1 315-768-7864,https://www.ulta.com/stores/new-hartford-ny-309
Ulta Beauty,1752,550 Boston Post Road,Orange,06477,CT,+1 203-876-4766,https://www.ulta.com/stores/orange-ct-1752
Ulta Beauty,1187,"400 Kings Mall Court, Ste 440",Kingston,12401,NY,+1 845-336-5120,https://www.ulta.com/stores/kingston-ny-1187
Ulta Beauty,1241,1738 Old Country Road,Riverhead,11901,NY,+1 631-296-1071,https://www.ulta.com/stores/riverhead-ny-1241
Ulta Beauty,1510,"5065 Main Street, Spc 306",Trumbull,06611,CT,+1 203-601-7138,https://www.ulta.com/stores/trumbull-ct-1510
Ulta Beauty,1282,"7 Backus Avenue, Spc A205",Danbury,06810,CT,+1 203-205-2132,https://www.ulta.com/stores/danbury-ct-1282
Ulta Beauty,1103,2532 South Road,Poughkeepsie,12601,NY,+1 845-432-3608,https://www.ulta.com/stores/poughkeepsie-ny-1103
Ulta Beauty,1557,"1017 Montauk Highway, Ste 2",Shirley,11967,NY,+1 631-657-2432,https://www.ulta.com/stores/shirley-ny-1557
Ulta Beauty,1421,1365 Post Road East,Westport,06880,CT,+1 203-480-0454,https://www.ulta.com/stores/westport-ct-1421
Ulta Beauty,1227,650 Main Avenue,Norwalk,06851,CT,+1 203-229-9142,https://www.ulta.com/stores/norwalk-ct-1227
Ulta Beauty,55,2005 Burr Lane,Lake Grove,11755,GROVE,+1 631-979-3473,https://www.ulta.com/stores/lake-grove-ny-55
Ulta Beauty,66,499 Sunrise Highway,Patchogue,11772,NY,+1 631-758-4603,https://www.ulta.com/stores/patchogue-ny-66
Ulta Beauty,1283,"650 Lee Boulevard, Ste C12",Yorktown Heights,10598,HEIGHTS,+1 914-962-2635,https://www.ulta.com/stores/yorktown-heights-ny-1283
Ulta Beauty,1728,3853 Hwy 31,Clay,13090,NY,+1 315-636-3592,https://www.ulta.com/stores/liverpool-ny-1728
Ulta Beauty,1369,"3409 Erie Boulevard East, Ste 130",Syracuse,13214,NY,+1 315-446-2686,https://www.ulta.com/stores/dewitt-ny-1369
Ulta Beauty,68,78 Veterans Memorial Highway,Commack,11725,NY,+1 631-499-2639,https://www.ulta.com/stores/commack-ny-68
Ulta Beauty,1014,"1 Destiny USA Drive, Spc M103",Syracuse,13204,NY,+1 315-476-1237,https://www.ulta.com/stores/syracuse-ny-1014
Ulta Beauty,714,1701 Sunrise Highway,Bay Shore,11706,SHORE,+1 631-666-0706,https://www.ulta.com/stores/bay-shore-ny-714
Ulta Beauty,396,3541 West Genesee Street,Syracuse,13219,NY,+1 315-468-2156,https://www.ulta.com/stores/syracuse-ny-396
Ulta Beauty,569,350 Walt Whitman Road,Huntington Station,11746,STATION,+1 631-271-2817,https://www.ulta.com/stores/huntington-station-ny-569
Ulta Beauty,594,445 Boston Post Road,Port Chester,10573,CHESTER,+1 914-937-1430,https://www.ulta.com/stores/port-chester-ny-594
Ulta Beauty,1563,9 Centre Drive,Woodbury,10917,VALLEY,+1 845-783-3544,https://www.ulta.com/stores/central-valley-ny-1563
Ulta Beauty,1793,427 Jericho Turnpike,Syosset,11791,NY,+1 516-990-7034,https://www.ulta.com/stores/syosset-ny-1793
Ulta Beauty,1770,895 Montauk Highway,West Babylon,11704,BABYLON,+1 888-888-8888,https://www.ulta.com/stores/west-babylon-ny-1770
Ulta Beauty,1626,206 Airport Plaza Boulevard,Farmingdale,11735,NY,+1 631-927-4517,https://www.ulta.com/stores/farmingdale-ny-1626
Ulta Beauty,1708,383 North Central Avenue,Hartsdale,10530,NY,+1 914-297-9389,https://www.ulta.com/stores/hartsdale-ny-1708
Ulta Beauty,214,"444 Rte 211, New York 211",Middletown,10940,NY,+1 845-344-1997,https://www.ulta.com/stores/middletown-ny-214
Ulta Beauty,694,5252 Sunrise Highway,Massapequa Park,11762,PARK,+1 516-541-4670,https://www.ulta.com/stores/massapequa-park-ny-694
Ulta Beauty,616,Lawrence Street,Dobbs Ferry,10522,FERRY,+1 914-591-4539,https://www.ulta.com/stores/dobbs-ferry-ny-616
Ulta Beauty,54,3377 Hempstead Turnpike,Levittown,11756,NY,+1 516-579-5163,https://www.ulta.com/stores/levittown-ny-54
Ulta Beauty,1709,"76 Rockland Plaza, Space 26",Nanuet,10954,NY,+1 845-450-6575,https://www.ulta.com/stores/nanuet-ny-1709
Ulta Beauty,544,990 Old Country Road,Garden City,11530,CITY,+1 516-794-7416,https://www.ulta.com/stores/garden-city-ny-544
Ulta Beauty,1379,5160 Xavier Drive,Yonkers,10704,NY,+1 914-965-1396,https://www.ulta.com/stores/yonkers-ny-1379
Ulta Beauty,1072,32 Farm View,Montvale,07645,NJ,+1 201-930-8523,https://www.ulta.com/stores/montvale-nj-1072
Ulta Beauty,510,1255 17,Ramsey,07446,NJ,+1 201-327-3018,https://www.ulta.com/stores/ramsey-nj-510
Ulta Beauty,1448,13305 20th Avenue,College Point,11356,POINT,+1 929-410-6667,https://www.ulta.com/stores/college-point-ny-1448
Ulta Beauty,1587,1266 Paramus Park,Paramus,07652,NJ,+1 201-740-1914,https://www.ulta.com/stores/paramus-nj-1587
Ulta Beauty,1209,"750 Sunrise Highway, Unit 125",Valley Stream,11581,STREAM,+1 516-825-1340,https://www.ulta.com/stores/valley-stream-ny-1209
Ulta Beauty,399,45 West Spring Valley Avenue,Maywood,07607,NJ,+1 201-368-0496,https://www.ulta.com/stores/maywood-nj-399
Ulta Beauty,123,82 The Promenade,Edgewater,07020,NJ,+1 201-313-0049,https://www.ulta.com/stores/edgewater-nj-123
Ulta Beauty,1402,188 East 86th Street,New York,10028,YORK,+1 212-828-3180,https://www.ulta.com/stores/new-york-ny-1402
Ulta Beauty,718,71-03 80th Street,Queens,11385,NY,+1 718-326-4968,https://www.ulta.com/stores/glendale-ny-718
Ulta Beauty,1301,224 Passaic Street,Garfield,07026,NJ,+1 973-365-0274,https://www.ulta.com/stores/garfield-nj-1301
Ulta Beauty,1641,914 Hamburg Turnpike,Wayne,07470,NJ,+1 862-684-4313,https://www.ulta.com/stores/wayne-nj-1641
Ulta Beauty,1638,51 West 34th Street,New York,10001,YORK,+1 332-205-8802,https://www.ulta.com/stores/new-york-ny-1638
Ulta Beauty,1546,"1 American Dream Way, C339",East Rutherford,07073,RUTHERFORD,+1 551-213-5248,https://www.ulta.com/stores/east-rutherford-nj-1546
Ulta Beauty,623,225 Allwood Road,Clifton,07012,NJ,+1 973-777-1066,https://www.ulta.com/stores/clifton-nj-623
Ulta Beauty,1197,181 23,Wayne,07470,NJ,+1 973-339-5046,https://www.ulta.com/stores/wayne-nj-1197
Ulta Beauty,1381,"5100 Kings Plaza, Ste 140",Brooklyn,11234,NY,+1 718-377-2191,https://www.ulta.com/stores/brooklyn-ny-1381
Ulta Beauty,1428,"175 Passaic Avenue, Ste 9",Kearny,07032,NJ,+1 551-253-0340,https://www.ulta.com/stores/kearney-nj-1428
Ulta Beauty,324,913 Holt Road,Webster,14580,NY,+1 585-872-0750,https://www.ulta.com/stores/webster-ny-324
Ulta Beauty,1497,46 Waterview Boulevard,Parsippany,07054,NJ,+1 973-658-7289,https://www.ulta.com/stores/parsippany-nj-1497
Ulta Beauty,1122,"530 West Mount Pleasant Avenue, # B1",Livingston,07039,NJ,+1 973-992-6403,https://www.ulta.com/stores/livingston-nj-1122
Ulta Beauty,543,2417 Vestal Parkway East,Vestal,13850,NY,+1 607-797-3069,https://www.ulta.com/stores/vestal-ny-543
Ulta Beauty,1340,"2656 Hylan Boulevard, Ste 210",Staten Island,10306,ISLAND,+1 929-202-2229,https://www.ulta.com/stores/staten-island-ny-1340
Ulta Beauty,1503,"744 South Meadow Street, Ste 400",Ithaca,14850,NY,+1 607-257-2361,https://www.ulta.com/stores/ithaca-ny-1503
Ulta Beauty,186,"395 Mount Hope Avenue, Ste 450",Rockaway,07866,NJ,+1 973-361-4644,https://www.ulta.com/stores/rockaway-nj-186
Ulta Beauty,1432,"2655 Richmond Avenue, Ste 1405",Staten Island,10314,ISLAND,+1 929-314-1830,https://www.ulta.com/stores/staten-island-ny-1432
Ulta Beauty,1316,"110 East Hanover Avenue, Ste C2",Cedar Knolls,07927,KNOLLS,+1 973-326-7924,https://www.ulta.com/stores/cedar-knolls-nj-1316
Ulta Beauty,782,"1255 Raritan Road, Unit 240",Clark,07066,NJ,+1 732-499-0239,https://www.ulta.com/stores/clark-nj-782
Ulta Beauty,1537,"461 State Route 10, B400",Ledgewood,07852,NJ,+1 862-259-5300,https://www.ulta.com/stores/ledgewood-nj-1537
Ulta Beauty,735,417 Commerce Drive,Victor,14564,NY,+1 585-924-8098,https://www.ulta.com/stores/victor-ny-735
Ulta Beauty,1286,462 Greece Ridge Center Drive,Rochester,14626,NY,+1 585-371-5445,https://www.ulta.com/stores/rochester-ny-1286
Ulta Beauty,617,245 Bricktown Way,Staten Island,10309,ISLAND,+1 718-554-4634,https://www.ulta.com/stores/staten-island-ny-617
Ulta Beauty,1674,889 Saint Georges Avenue,Woodbridge Township,07095,NJ,+1 732-582-5893,https://www.ulta.com/stores/woodbridge-nj-1674
Ulta Beauty,1463,"1630 US-22, Building A",Watchung,07069,NJ,+1 908-561-4499,https://www.ulta.com/stores/watchung-nj-1463
Ulta Beauty,125,2130 Route 35,Holmdel,07733,NJ,+1 732-796-9300,https://www.ulta.com/stores/holmdel-nj-125
Ulta Beauty,319,"720 Jefferson Road, Ste 100",Rochester,14623,NY,+1 585-292-1250,https://www.ulta.com/stores/rochester-ny-319
Ulta Beauty,1124,"310 36, Suite 801",West Long Branch,07764,LONG,+1 732-460-0478,https://www.ulta.com/stores/west-long-branch-nj-1124
Ulta Beauty,1609,"213 Route 206, Ste 380",Chester,07930,NJ,+1 908-955-3077,https://www.ulta.com/stores/chester-nj-1609
Ulta Beauty,1523,"5016 Hadley Center Drive, Spc 30",South Plainfield,07080,PLAINFIELD,+1 908-941-0852,https://www.ulta.com/stores/south-plainfield-nj-1523
Ulta Beauty,1069,"100 Viewmont Mall, Ste 810",Scranton,18508,PA,+1 570-344-5607,https://www.ulta.com/stores/scranton-pa-1069
Ulta Beauty,1266,352 Chimney Rock Road,Bound Brook,08805,BROOK,+1 908-332-0036,https://www.ulta.com/stores/bound-brook-nj-1266
Ulta Beauty,518,601 18,East Brunswick,08816,BRUNSWICK,+1 732-432-0459,https://www.ulta.com/stores/east-brunswick-nj-518
Ulta Beauty,1430,"1933 River Road, New Jersey 35",Wall Township,07719,TOWNSHIP,+1 732-655-6957,https://www.ulta.com/stores/wall-township-nj-1430
Ulta Beauty,795,103 9,Marlboro,07751,TOWNSHIP,+1 732-617-0105,https://www.ulta.com/stores/marlboro-township-nj-795
Ulta Beauty,1467,875 U.S. Rte 1,North Brunswick Township,08902,BRUNSWICK,+1 732-447-2980,https://www.ulta.com/stores/north-brunswick-nj-1467
Ulta Beauty,659,"3710 9, Ste B100",Freehold,07728,NJ,+1 732-577-8373,https://www.ulta.com/stores/freehold-nj-659
Ulta Beauty,793,"300 Commerce Boulevard, Ste 170",Stroudsburg,18360,PA,+1 570-421-7836,https://www.ulta.com/stores/stroudsburg-pa-793
Ulta Beauty,661,4787 9,Howell,07731,NJ,+1 732-370-0481,https://www.ulta.com/stores/howell-nj-661
Ulta Beauty,1204,70 Brick Plaza,Brick Township,08723,TOWNSHIP,+1 732-262-1671,https://www.ulta.com/stores/brick-township-nj-1204
Ulta Beauty,393,"1520 Big Flats Road, County Road 64",Horseheads,14845,NY,+1 607-796-2769,https://www.ulta.com/stores/horseheads-ny-393
Ulta Beauty,1568,"1203 Hooper Avenue, Ste A",Toms River,08753,RIVER,+1 848-251-8610,https://www.ulta.com/stores/toms-river-nj-1568
Ulta Beauty,1045,"100 Reaville Avenue, Ste 247",Flemington,08822,NJ,+1 908-237-0687,https://www.ulta.com/stores/flemington-nj-1045
Ulta Beauty,416,493 Arena Hub Plaza,Wilkes-Barre Township,18702,BARRE,+1 570-820-6267,https://www.ulta.com/stores/wilkes-barre-pa-416
Ulta Beauty,1288,1240 U.S. 22,Phillipsburg,08865,NJ,+1 908-213-7005,https://www.ulta.com/stores/phillipsburg-nj-1288
Ulta Beauty,1631,4192 Veterans Memorial Drive,Batavia,14020,NY,+1 585-815-2668,https://www.ulta.com/stores/batavia-ny-1631
Ulta Beauty,109,540 Nassau Park Boulevard,Princeton,08540,NJ,+1 609-452-1266,https://www.ulta.com/stores/princeton-nj-109
Ulta Beauty,1400,540 Spirit of 76 Boulevard,Hamilton Township,08691,TOWNSHIP,+1 609-528-7405,https://www.ulta.com/stores/hamilton-township-nj-1400
Ulta Beauty,369,940 Airport Center Road,Allentown,18109,PA,+1 610-264-1065,https://www.ulta.com/stores/allentown-pa-369
Ulta Beauty,1701,"2424 Lincoln Highway, STE 150",Langhorne,19047,PA,+1 267-585-6200,https://www.ulta.com/stores/langhorne-pa-1701
Ulta Beauty,1649,2914 South Eagle Road,Newtown,18940,PA,+1 267-753-7253,https://www.ulta.com/stores/newtown-pa-1649
Ulta Beauty,378,227 Stafford Park Boulevard,Stafford Township,08050,NJ,+1 609-489-0103,https://www.ulta.com/stores/manahawkin-nj-378
Ulta Beauty,427,622 North West End Boulevard,Quakertown,18951,PA,+1 215-536-3845,https://www.ulta.com/stores/quakertown-pa-427
Ulta Beauty,1602,5043 Transit Road,Buffalo,14221,NY,+1 716-929-6557,https://www.ulta.com/stores/williamsville-ny-1602
Ulta Beauty,1144,"833 North Krocks Road, Ste 103",Allentown,18106,PA,+1 610-398-1846,https://www.ulta.com/stores/allentown-pa-1144
Ulta Beauty,1134,1561 North Main Street,Warrington,18976,PA,+1 215-491-7534,https://www.ulta.com/stores/warrington-pa-1134
Ulta Beauty,332,"1701 Niagara Falls Boulevard, Ste 100",Buffalo,14228,NY,+1 716-836-0658,https://www.ulta.com/stores/amherst-ny-332
Ulta Beauty,1192,"1520 Military Road, Ste 180",Niagara Falls,14304,FALLS,+1 716-297-3432,https://www.ulta.com/stores/niagara-falls-ny-1192
Ulta Beauty,1461,10 Airport Square,North Wales,19454,WALES,+1 215-616-4601,https://www.ulta.com/stores/north-wales-pa-1461
Ulta Beauty,1390,"9173 Roosevelt Boulevard, Spc 10",Philadelphia,19114,PA,+1 215-969-1453,https://www.ulta.com/stores/philadelphia-pa-1390
Ulta Beauty,265,"100 Welsh Road, Ste 102",Horsham,19044,PA,+1 215-659-1816,https://www.ulta.com/stores/horsham-pa-265
Ulta Beauty,104,1470 Nixon Drive,Mt Laurel Township,08054,LAUREL,+1 856-642-7390,https://www.ulta.com/stores/mt-laurel-nj-104
Ulta Beauty,106,720 Route 73,Evesham,08053,NJ,+1 856-596-9484,https://www.ulta.com/stores/marlton-nj-106
Ulta Beauty,1462,3489 Amelia Drive,Orchard Park,14127,PARK,+1 716-826-2152,https://www.ulta.com/stores/orchard-park-ny-1462
Ulta Beauty,284,907 Haddonfield Road,Cherry Hill,08002,HILL,+1 856-662-2947,https://www.ulta.com/stores/cherry-hill-nj-284
Ulta Beauty,101,2540 Chemical Road,Plymouth Meeting,19462,MEETING,+1 610-834-8323,https://www.ulta.com/stores/plymouth-meeting-pa-101
Ulta Beauty,1530,"1021 Market Street, # 1175",Philadelphia,19107,PA,+1 267-214-1627,https://www.ulta.com/stores/philadelphia-pa-1530
Ulta Beauty,473,350 South Lycoming Mall Road,Muncy,17756,PA,+1 570-546-2361,https://www.ulta.com/stores/muncy-pa-473
Ulta Beauty,1477,"1851 South Christopher Columbus Boulevard, Ste 7",Philadelphia,19148,PA,+1 267-831-4370,https://www.ulta.com/stores/philadelphia-pa-1477
Ulta Beauty,362,40 Town Center Drive,Collegeville,19426,PA,+1 610-489-8232,https://www.ulta.com/stores/collegeville-pa-362
Ulta Beauty,1067,"131 Town Square Place, Ste 2A",King of Prussia,19406,OF,+1 610-563-2389,https://www.ulta.com/stores/king-of-prussia-pa-1067
Ulta Beauty,1395,290 Upland Square Drive,Pottstown,19464,PA,+1 484-644-2066,https://www.ulta.com/stores/pottstown-pa-1395
Ulta Beauty,732,"1555 Almonesson Road, Ste B",Deptford,08096,NJ,+1 856-227-7630,https://www.ulta.com/stores/deptford-nj-732
Ulta Beauty,1410,260 Consumer Square,Mays Landing,08330,LANDING,+1 609-677-8278,https://www.ulta.com/stores/mays-landing-nj-1410
Ulta Beauty,1338,"3501 East Black Horse Pike, Ste 100, New Jersey 42",Turnersville,08012,NJ,+1 856-728-0324,https://www.ulta.com/stores/turnersville-nj-1338
Ulta Beauty,1247,"3735 West Chester Pike, Ste 200",Newtown Square,19073,SQUARE,+1 610-353-3987,https://www.ulta.com/stores/newton-square-pa-1247
Ulta Beauty,556,1250 Baltimore Pike,Springfield,19064,PA,+1 610-328-1657,https://www.ulta.com/stores/springfield-pa-556
Ulta Beauty,1782,771 Delsea Drive,Glassboro,08028,NJ,+1 856-618-4556,https://www.ulta.com/stores/glassboro-nj-1782
Ulta Beauty,96,2755 Papermill Road,Reading,19610,PA,+1 610-372-9939,https://www.ulta.com/stores/wyomissing-pa-96
Ulta Beauty,755,131 Swedesford Road,Exton,19341,PA,+1 610-594-2528,https://www.ulta.com/stores/exton-pa-755
Ulta Beauty,1136,422 Marketplace Boulevard,Selinsgrove,17870,PA,+1 570-743-8434,https://www.ulta.com/stores/selinsgrove-pa-1136
Ulta Beauty,86,4803 Concord Pike,Wilmington,19803,DE,+1 302-479-9917,https://www.ulta.com/stores/wilmington-de-86
Ulta Beauty,1362,861 East Baltimore Pike,Kennett Square,19348,SQUARE,+1 484-739-1901,https://www.ulta.com/stores/kennett-square-pa-1362
Ulta Beauty,1356,"1301 Quentin Road, Ste 100",Lebanon,17042,PA,+1 717-273-3273,https://www.ulta.com/stores/lebanon-pa-1356
Ulta Beauty,1036,2130 Fashion Center Boulevard,Newark,19702,DE,+1 302-738-5302,https://www.ulta.com/stores/newark-de-1036
Ulta Beauty,1547,"3201 Route 9 South, Unit G",Rio Grande,08242,GRANDE,+1 609-780-8401,https://www.ulta.com/stores/rio-grande-nj-1547
Ulta Beauty,1170,"1575 Fruitville Pike, Ste 4",Lancaster,17601,PA,+1 717-390-1937,https://www.ulta.com/stores/lancaster-pa-1170
Ulta Beauty,787,5112 Jonestown Road,Harrisburg,17112,PA,+1 717-545-1960,https://www.ulta.com/stores/harrisburg-pa-787
Ulta Beauty,1030,"1574 North Dupont Highway, Ste 600",Dover,19901,DE,+1 302-735-7913,https://www.ulta.com/stores/dover-de-1030
Ulta Beauty,246,"6416 Carlisle Pike, Ste 2400",Mechanicsburg,17050,PA,+1 717-766-7100,https://www.ulta.com/stores/mechanicsburg-pa-246
Ulta Beauty,209,2835 Concord Road,York,17402,PA,+1 717-751-0422,https://www.ulta.com/stores/york-pa-209
Ulta Beauty,1691,"36496 Seaside Outlet Drive, Ste 1300",Rehoboth Beach,19971,BEACH,+1 302-403-0933,https://www.ulta.com/stores/rehoboth-beach-de-1691
Ulta Beauty,689,263 Patriot Lane,State College,16803,COLLEGE,+1 814-867-1805,https://www.ulta.com/stores/state-college-pa-689
Ulta Beauty,1173,"615 Baltimore Pike, Bldg E",Bel Air,21014,AIR,+1 410-836-9435,https://www.ulta.com/stores/bel-air-md-1173
Ulta Beauty,548,411 Eisenhower Drive,Hanover,17331,PA,+1 717-632-0920,https://www.ulta.com/stores/hanover-pa-548
Ulta Beauty,1303,"12641-216 Ocean Gateway, Ste 216",Ocean City,21842,CITY,+1 410-213-1680,https://www.ulta.com/stores/ocean-city-md-1303
Ulta Beauty,213,"8165 Honeygo Boulevard, Ste C",Nottingham,21236,MD,+1 410-931-4902,https://www.ulta.com/stores/baltimore-md-213
Ulta Beauty,1686,"118 Shawan Road, STE Y",Cockeysville,21030,MD,+1 410-527-9960,https://www.ulta.com/stores/cockeysville-md-1686
Ulta Beauty,747,"2088 Interchange Road, Unit 24",Erie,16565,PA,+1 814-868-5190,https://www.ulta.com/stores/erie-pa-747
Ulta Beauty,1305,"803 Goucher Boulevard, Ste 301",Towson,21286,MD,+1 410-296-0319,https://www.ulta.com/stores/towson-md-1305
Ulta Beauty,696,3541 Boston Street,Baltimore,21224,MD,+1 410-327-0891,https://www.ulta.com/stores/baltimore-md-696
Ulta Beauty,1479,"200 Clifton Boulevard, Ste E",Westminster,21157,MD,+1 410-871-8856,https://www.ulta.com/stores/westminster-md-1479
Ulta Beauty,751,10020 Reisterstown Road,Owings Mills,21117,MILLS,+1 410-363-0237,https://www.ulta.com/stores/owings-mills-md-751
Ulta Beauty,657,2721 North Salisbury Boulevard,Salisbury,21801,MD,+1 443-260-1725,https://www.ulta.com/stores/salisbury-md-657
Ulta Beauty,1608,"219 Marlboro Avenue, Unit 4A",Easton,21601,MD,+1 443-496-3759,https://www.ulta.com/stores/easton-md-1608
Ulta Beauty,1205,"6400 A Ridge Road, Ste A-3",Eldersburg,21784,MD,+1 410-795-0417,https://www.ulta.com/stores/eldersburg-md-1205
Ulta Beauty,1237,1320 Lincoln Way,Chambersburg,17202,PA,+1 717-263-7220,https://www.ulta.com/stores/chambersburg-pa-1237
Ulta Beauty,1582,"8048 Ritchie Highway, Ste 6A",Pasadena,21122,MD,+1 410-553-5049,https://www.ulta.com/stores/pasadena-md-1582
Ulta Beauty,204,205 Falon Lane,Altoona,16602,PA,+1 814-942-8571,https://www.ulta.com/stores/altoona-pa-204
Ulta Beauty,692,2440 32,Gaylord,49735,MI,+1 989-705-2127,https://www.ulta.com/stores/gaylor-mi-692
Ulta Beauty,1533,"7000 Arundel Mills Circle, Spc 435",Hanover,21076,MD,+1 667-701-1317,https://www.ulta.com/stores/hanover-md-1533
Ulta Beauty,235,8241 Gateway Overlook Drive,Elkridge,21075,MD,+1 410-290-0022,https://www.ulta.com/stores/elkridge-md-235
Ulta Beauty,367,2566 Solomons Island Road,Annapolis,21401,MD,+1 410-571-1575,https://www.ulta.com/stores/annapolis-md-367
Ulta Beauty,602,"1410 South Main Chapel Way, Ste 108",Gambrills,21054,MD,+1 410-451-0758,https://www.ulta.com/stores/gambrills-md-602
Ulta Beauty,1121,"14710 Baltimore Avenue, Unit 104",Laurel,20707,MD,+1 240-456-0763,https://www.ulta.com/stores/laurel-md-1121
Ulta Beauty,705,3570 U.S. 41,Marquette,49855,MI,+1 906-225-0166,https://www.ulta.com/stores/marquette-mi-705
Ulta Beauty,360,17758 Garland Groh Boulevard,Hagerstown,21740,MD,+1 301-797-5843,https://www.ulta.com/stores/hagerstown-md-360
Ulta Beauty,489,7310 Guilford Drive,Frederick,21704,MD,+1 301-662-0852,https://www.ulta.com/stores/frederick-md-489
Ulta Beauty,1617,20938 Frederick Road,Germantown,20874,MD,+1 240-474-9615,https://www.ulta.com/stores/germantown-md-1617
Ulta Beauty,523,"4715 24th Avenue, Ste 300",Fort Gratiot Township,48059,GRATIOT,+1 810-385-6209,https://www.ulta.com/stores/fort-gratiot-mi-523
Ulta Beauty,1339,"3500 East-West Highway, Ste 1442",Hyattsville,20782,MD,+1 240-623-0200,https://www.ulta.com/stores/hyattsville-md-1339
Ulta Beauty,1198,1671 Ritchie Station Court,Capitol Heights,20743,HEIGHTS,+1 240-532-3200,https://www.ulta.com/stores/capitol-heights-md-1198
Ulta Beauty,1618,8510 Fenton Street,Silver Spring,20910,SPRING,+1 301-588-8744,https://www.ulta.com/stores/silver-spring-md-1618
Ulta Beauty,167,1631 Rockville Pike,Rockville,20852,MD,+1 301-231-5386,https://www.ulta.com/stores/rockville-md-167
Ulta Beauty,1622,340 Town Centre Drive,Johnstown,15904,PA,+1 814-999-6818,https://www.ulta.com/stores/johnstown-pa-1622
Ulta Beauty,1527,845 Solomons Island Road North,Prince Frederick,20678,FREDERICK,+1 443-295-3924,https://www.ulta.com/stores/prince-frederick-md-1527
Ulta Beauty,1398,"1101 South Joyce Street, Ste B01",Arlington,22202,VA,+1 703-258-3371,https://www.ulta.com/stores/arlington-va-1398
Ulta Beauty,669,5860 Leesburg Pike,Falls Church,22041,CHURCH,+1 703-379-3827,https://www.ulta.com/stores/falls-church-va-669
Ulta Beauty,1675,8387A Leesburg Pike,Tysons,22182,VA,+1 571-765-4296,https://www.ulta.com/stores/vienna-va-1675
Ulta Beauty,527,2945 Festival Way,Waldorf,20601,MD,+1 301-396-4579,https://www.ulta.com/stores/waldorf-md-527
Ulta Beauty,555,"1606 Village Market Boulevard Southeast, Ste 130",Leesburg,20175,VA,+1 571-258-1027,https://www.ulta.com/stores/leesburg-va-555
Ulta Beauty,633,316 Retail Commons Parkway,Martinsburg,25403,WV,+1 304-267-9578,https://www.ulta.com/stores/martinsburg-wv-633
Ulta Beauty,366,"22000 Dulles Retail Plaza, Ste 136",Sterling,20166,VA,+1 703-444-4081,https://www.ulta.com/stores/sterling-va-366
Ulta Beauty,1186,714 Butler Crossing,Butler,16001,PA,+1 724-285-0022,https://www.ulta.com/stores/butler-pa-1186
Ulta Beauty,1507,"23415 Three Notch Road, Ste 2035",California,20619,MD,+1 240-718-6880,https://www.ulta.com/stores/california-md-1507
Ulta Beauty,142,6575 Frontier Drive,Springfield,22150,VA,+1 703-971-7900,https://www.ulta.com/stores/springfield-va-142
Ulta Beauty,178,"9600 Main Street, Ste U",Fairfax,22031,VA,+1 703-426-5313,https://www.ulta.com/stores/fairfax-va-178
Ulta Beauty,239,"13048 Fair Lakes Shopping Center, Ste A",Fairfax,22033,VA,+1 703-222-6060,https://www.ulta.com/stores/fairfax-va-239
Ulta Beauty,1160,"24630 Dulles Landing Drive, Unit 160",Sterling,20166,VA,+1 703-327-1401,https://www.ulta.com/stores/dulles-va-1160
Ulta Beauty,584,2556 Crossing Circle,Traverse City,49684,CITY,+1 231-941-7280,https://www.ulta.com/stores/traverse-city-mi-584
Ulta Beauty,304,9623 Mentor Avenue,Mentor,44060,OH,+1 440-354-6277,https://www.ulta.com/stores/mentor-oh-304
Ulta Beauty,695,2106 Niles Cortland Road Southeast,Warren,44484,OH,+1 330-505-9751,https://www.ulta.com/stores/warren-oh-695
Ulta Beauty,629,"15000 Potomac Town Place, Ste 130",Woodbridge,22191,VA,+1 703-878-1107,https://www.ulta.com/stores/woodbridge-va-629
Ulta Beauty,1296,1750 Demille Road,Lapeer,48446,MI,+1 810-245-7792,https://www.ulta.com/stores/lapeer-mi-1296
Ulta Beauty,766,10640 Sudley Manor Drive,Manassas,20109,VA,+1 703-530-6176,https://www.ulta.com/stores/manassas-va-766
Ulta Beauty,734,913 Joe Mann Boulevard,Midland,48642,MI,+1 989-832-2210,https://www.ulta.com/stores/midland-mi-734
Ulta Beauty,522,3279 Tittabawassee Road,Saginaw,48604,MI,+1 989-799-1465,https://www.ulta.com/stores/saginaw-mi-522
Ulta Beauty,261,50523 Waterside Drive,New Baltimore,48051,TOWNSHIP,+1 586-949-4617,https://www.ulta.com/stores/chesterfield-township-mi-261
Ulta Beauty,1614,"4100 William Penn Highway, Ste 40",Monroeville,15146,PA,+1 412-374-1318,https://www.ulta.com/stores/monroeville-pa-1614
Ulta Beauty,1011,"20111 Perry Hwy, Ste 110, Route 19",Cranberry Township,16066,TOWNSHIP,+1 724-776-3975,https://www.ulta.com/stores/cranberry-township-pa-1011
Ulta Beauty,1797,13261 Gateway Center Drive,Gainesville,20155,VA,+1 888-888-8888,https://www.ulta.com/stores/gainesville-va-1797
Ulta Beauty,479,403 Boardman Poland Road,Boardman,44512,OH,+1 330-629-6276,https://www.ulta.com/stores/boardman-oh-479
Ulta Beauty,1177,6240 Northway Mall Drive,Pittsburgh,15237,PA,+1 412-366-0492,https://www.ulta.com/stores/pittsburgh-pa-1177
Ulta Beauty,1240,7728 26 Mile Road,Shelby Township,48316,TOWNSHIP,+1 586-781-3110,https://www.ulta.com/stores/shelby-township-mi-1240
Ulta Beauty,496,2430 South Pleasant Valley Road,Winchester,22601,VA,+1 540-662-1450,https://www.ulta.com/stores/winchester-va-496
Ulta Beauty,1504,"1262 Vocke Road, Ste 220",La Vale,21502,MD,+1 240-860-1050,https://www.ulta.com/stores/cumberland-md-1504
Ulta Beauty,480,1405 Som Center Road,Mayfield Heights,44124,HEIGHTS,+1 440-683-9015,https://www.ulta.com/stores/mayfield-heights-oh-480
Ulta Beauty,116,105 West Bridge Street,Homestead,15120,PA,+1 412-461-4913,https://www.ulta.com/stores/homestead-pa-116
Ulta Beauty,505,13955 Hall Road,Shelby Township,48315,TOWNSHIP,+1 586-566-1548,https://www.ulta.com/stores/shelby-township-mi-505
Ulta Beauty,1082,"32295 Gratiot Avenue, Spc 680",Roseville,48066,MI,+1 586-296-2559,https://www.ulta.com/stores/roseville-mi-1082
Ulta Beauty,1603,"1150 Stafford Market Place, STE 101",Stafford,22556,VA,+1 540-779-5844,https://www.ulta.com/stores/stafford-va-1603
Ulta Beauty,351,2813 South Rochester Road,Rochester Hills,48307,HILLS,+1 248-853-1538,https://www.ulta.com/stores/rochester-hills-mi-351
Ulta Beauty,1650,"141 West Lee Highway, Ste 137",Warrenton,20186,VA,+1 540-216-5009,https://www.ulta.com/stores/warrenton-va-1650
Ulta Beauty,1601,9925 Mountain View Drive,West Mifflin,15236,MIFFLIN,+1 412-693-0394,https://www.ulta.com/stores/west-mifflin-pa-1601
Ulta Beauty,1732,4031 Richmond Road,Warrensville Heights,44128,HEIGHTS,+1 216-488-2034,https://www.ulta.com/stores/warrensville-heights-oh-1732
Ulta Beauty,573,"6025 Kruse Drive, Ste 160",Solon,44139,OH,+1 440-248-5618,https://www.ulta.com/stores/solon-oh-573
Ulta Beauty,484,1310 Settlers Ridge Center Dr,Pittsburgh,15205,PA,+1 412-787-8780,https://www.ulta.com/stores/pittsburgh-pa-484
Ulta Beauty,257,4830 South Baldwin Road,Lake Orion,48359,TOWNSHIP,+1 248-393-2769,https://www.ulta.com/stores/orion-township-mi-257
Ulta Beauty,1214,8325 Twelve Mile Road,Warren,48093,MI,+1 586-558-8095,https://www.ulta.com/stores/warren-mi-1214
Ulta Beauty,442,560 John R Road,Troy,48083,MI,+1 248-581-0524,https://www.ulta.com/stores/troy-mi-442
Ulta Beauty,1043,301 South Hills Village,Upper Saint Clair,15241,PA,+1 412-835-2957,https://www.ulta.com/stores/pittsburgh-pa-1043
Ulta Beauty,541,4067 Miller Road,Flint,48507,MI,+1 810-230-0010,https://www.ulta.com/stores/flint-mi-541
Ulta Beauty,1566,1349 Coolidge Highway,Troy,48084,MI,+1 248-581-9096,https://www.ulta.com/stores/troy-mi-1566
Ulta Beauty,516,2161 South Telegraph Road,Bloomfield Hills,48302,HILLS,+1 248-858-2611,https://www.ulta.com/stores/bloomfield-hills-mi-516
Ulta Beauty,658,27844 Woodward Avenue,Royal Oak,48067,OAK,+1 248-399-1081,https://www.ulta.com/stores/royal-oak-mi-658
Ulta Beauty,1004,"8210 Macedonia Commons Boulevard, Unit 28",Macedonia,44056,OH,+1 330-467-9195,https://www.ulta.com/stores/macedonia-oh-1004
Ulta Beauty,1656,2123 South Mission Street,Mount Pleasant,48858,PLEASANT,+1 989-933-3148,https://www.ulta.com/stores/mount-pleasant-mi-1656
Ulta Beauty,164,1696 Carl D. Silver Parkway,Fredericksburg,22401,VA,+1 540-786-3338,https://www.ulta.com/stores/fredericksburg-va-164
Ulta Beauty,1592,28538 Telegraph Road,Southfield,48034,MI,+1 947-282-7520,https://www.ulta.com/stores/southfield-mi-1592
Ulta Beauty,1394,10805 Highland Road,White Lake,48386,LAKE,+1 248-698-0040,https://www.ulta.com/stores/white-lake-mi-1394
Ulta Beauty,565,4286 Kent Road,Stow,44224,OH,+1 330-686-2465,https://www.ulta.com/stores/stow-oh-565
Ulta Beauty,1184,7735 West Ridgewood Drive,Parma,44129,OH,+1 440-888-1283,https://www.ulta.com/stores/parma-oh-1184
Ulta Beauty,291,3181 Westgate Mall,Fairview Park,44126,PARK,+1 440-331-4078,https://www.ulta.com/stores/fairview-park-oh-291
Ulta Beauty,217,30837 Orchard Lake Road,Farmington Hills,48334,HILLS,+1 248-539-5819,https://www.ulta.com/stores/farmington-hills-mi-217
Ulta Beauty,1193,"3259 Owen Road, Ste 200",Fenton,48430,MI,+1 810-714-5445,https://www.ulta.com/stores/fenton-mi-1193
Ulta Beauty,1423,"30014 Detroit Road, Ste 220",Westlake,44145,OH,+1 440-899-5243,https://www.ulta.com/stores/westlake-oh-1423
Ulta Beauty,653,"25907 Brookpark Road, Unit 16",North Olmsted,44070,OLMSTED,+1 440-716-1025,https://www.ulta.com/stores/north-olmsted-oh-653
Ulta Beauty,1687,351 Washington Road,Washington,15301,PA,+1 724-225-8349,https://www.ulta.com/stores/washington-pa-1687
Ulta Beauty,1275,6730 Fox Centre Parkway,Gloucester,23061,VA,+1 804-693-4290,https://www.ulta.com/stores/gloucester-va-1275
Ulta Beauty,274,16640 Royalton Road,Strongsville,44136,OH,+1 440-238-0371,https://www.ulta.com/stores/strongsville-oh-274
Ulta Beauty,485,26110 Ingersol Drive,Novi,48375,MI,+1 248-449-5221,https://www.ulta.com/stores/novi-mi-485
Ulta Beauty,621,13224 Middlebelt Road,Livonia,48150,MI,+1 734-425-2460,https://www.ulta.com/stores/livonia-mi-621
Ulta Beauty,342,3150 Fairlane Drive,Allen Park,48101,PARK,+1 313-749-1470,https://www.ulta.com/stores/allen-park-mi-342
Ulta Beauty,441,3879 Medina Road,Akron,44333,OH,+1 330-665-5341,https://www.ulta.com/stores/akron-oh-441
Ulta Beauty,563,17615 Haggerty Road,Northville,48168,MI,+1 248-449-5367,https://www.ulta.com/stores/northville-mi-563
Ulta Beauty,1029,23000 Eureka Road,Taylor,48180,MI,+1 734-287-0084,https://www.ulta.com/stores/taylor-mi-1029
Ulta Beauty,1505,511 Hilltop Plaza,Virginia Beach,23454,BEACH,+1 757-937-7988,https://www.ulta.com/stores/virginia-beach-va-1505
Ulta Beauty,713,5522 Dressler Road Northwest,Canton,44720,OH,+1 330-244-8752,https://www.ulta.com/stores/canton-oh-713
Ulta Beauty,1207,44540 Ford Road,Canton,48187,MI,+1 734-451-0640,https://www.ulta.com/stores/canton-mi-1207
Ulta Beauty,475,19255 West Road,Woodhaven,48183,MI,+1 734-676-4357,https://www.ulta.com/stores/woodhaven-mi-475
Ulta Beauty,238,9830 Village Place Boulevard,Brighton,48116,MI,+1 810-225-0365,https://www.ulta.com/stores/brighton-mi-238
Ulta Beauty,677,"4485 Virginia Beach Boulevard, Ste B5",Virginia Beach,23462,BEACH,+1 757-499-4681,https://www.ulta.com/stores/virginia-beach-va-677
Ulta Beauty,1086,"12080 Jefferson Avenue, Ste 600",Newport News,23606,NEWS,+1 757-249-4139,https://www.ulta.com/stores/newport-news-va-1086
Ulta Beauty,380,"3300 Princess Anne Road, Ste 31",Virginia Beach,23456,BEACH,+1 757-368-2089,https://www.ulta.com/stores/virginia-beach-va-380
Ulta Beauty,558,"5225 Settlers Market Boulevard, Ste 170",Williamsburg,23188,VA,+1 757-220-8830,https://www.ulta.com/stores/williamsburg-va-558
Ulta Beauty,551,1010 Giant Street,Morgantown,26501,WV,+1 304-284-0005,https://www.ulta.com/stores/morgantown-wv-551
Ulta Beauty,797,"1412 Greenbrier Parkway, Ste 105A",Chesapeake,23320,VA,+1 757-424-0236,https://www.ulta.com/stores/chesapeake-va-797
Ulta Beauty,626,3527 Washtenaw Avenue,Ann Arbor,48104,ARBOR,+1 734-477-0150,https://www.ulta.com/stores/ann-arbor-mi-626
Ulta Beauty,1183,"1011 University Boulevard, Ste 130",Suffolk,23435,VA,+1 757-483-2510,https://www.ulta.com/stores/suffolk-va-1183
Ulta Beauty,549,9930 Brook Road,Glen Allen,23059,ALLEN,+1 804-264-7984,https://www.ulta.com/stores/glen-allen-va-549
Ulta Beauty,349,4886 Marsh Road,Okemos,48864,MI,+1 517-318-0413,https://www.ulta.com/stores/okemos-mi-349
Ulta Beauty,1278,"215 North Maple Road, Ste E",Ann Arbor,48103,ARBOR,+1 734-205-2093,https://www.ulta.com/stores/ann-arbor-mi-1278
Ulta Beauty,1268,"350 Frandor Avenue, # 2",Lansing,48912,MI,+1 517-333-8970,https://www.ulta.com/stores/lansing-mi-1268
Ulta Beauty,438,"4020 Milan Road, Unit 915",Sandusky,44870,OH,+1 419-621-1345,https://www.ulta.com/stores/sandusky-oh-438
Ulta Beauty,1721,"1601 Willow Lawn Drive, STE 404",Richmond,23230,VA,+1 888-888-8888,https://www.ulta.com/stores/richmond-va-1721
Ulta Beauty,404,"11351 West Broad Street, Ste 181",Glen Allen,23060,ALLEN,+1 804-360-1284,https://www.ulta.com/stores/glen-allen-va-404
Ulta Beauty,1158,"4369 Burbank Road, Ste 30",Wooster,44691,OH,+1 330-345-2274,https://www.ulta.com/stores/wooster-oh-1158
Ulta Beauty,1171,"67800 Mall Ring Road, Unit 110",Saint Clairsville,43950,CLAIRSVILLE,+1 740-695-9107,https://www.ulta.com/stores/st-clairsville-oh-1171
Ulta Beauty,1341,"400 Mill Avenue Southeast, Ste 107",New Philadelphia,44663,PHILADELPHIA,+1 330-308-9315,https://www.ulta.com/stores/new-philadelphia-oh-1341
Ulta Beauty,702,"333 North Marketplace Boulevard, Ste A",Lansing,48917,MI,+1 517-622-1521,https://www.ulta.com/stores/lansing-mi-702
Ulta Beauty,171,"11500 Midlothian Turnpike, Ste 800",Bon Air,23235,VA,+1 804-594-7040,https://www.ulta.com/stores/richmond-va-171
Ulta Beauty,1387,12830 Jefferson Davis Highway,Chester,23831,VA,+1 804-930-8031,https://www.ulta.com/stores/chester-va-1387
Ulta Beauty,1176,"1925 East Market Street, Ste 104",Harrisonburg,22801,VA,+1 540-434-1727,https://www.ulta.com/stores/harrisonburg-va-1176
Ulta Beauty,1261,"5150 South Croatan Highway, # 2",Nags Head,27959,HEAD,+1 252-564-3075,https://www.ulta.com/stores/nags-head-nc-1261
Ulta Beauty,783,357 Merhar Avenue,Fairbanks,99701,AK,+1 907-455-4305,https://www.ulta.com/stores/fairbanks-ak-783
Ulta Beauty,721,4632 Commonwealth Centre Parkway,Midlothian,23112,VA,+1 804-744-1131,https://www.ulta.com/stores/midlothian-va-721
Ulta Beauty,440,977 Emmet Street North,Charlottesville,22903,VA,+1 434-293-4958,https://www.ulta.com/stores/charlottesville-va-440
Ulta Beauty,1179,"2399 Meadowbrook Mall Road, Ste 570",Bridgeport,26330,WV,+1 304-842-0538,https://www.ulta.com/stores/bridgeport-wv-1179
Ulta Beauty,688,1136 Jackson Crossing,Jackson,49202,MI,+1 517-789-9353,https://www.ulta.com/stores/jackson-mi-688
Ulta Beauty,352,"5001 Monroe Street, Unit S3",Toledo,43623,OH,+1 419-474-4254,https://www.ulta.com/stores/toledo-oh-352
Ulta Beauty,1525,2080 East Beltline Avenue Northeast,Grand Rapids,49525,RAPIDS,+1 616-369-3481,https://www.ulta.com/stores/grand-rapids-mi-1525
Ulta Beauty,1106,"1651 223, Ste B",Adrian,49221,MI,+1 517-263-4782,https://www.ulta.com/stores/adrian-mi-1106
Ulta Beauty,267,"3165 Alpine Avenue Northwest, Ste B",Grand Rapids,49544,MI,+1 616-784-2410,https://www.ulta.com/stores/walker-mi-267
Ulta Beauty,1354,"9876 Fremont Pike, U.S. 20",Rossford,43460,OH,+1 419-874-6790,https://www.ulta.com/stores/rossford-oh-1354
Ulta Beauty,729,1254 South Holland Sylvania Road,Holland,43528,OH,+1 419-867-8679,https://www.ulta.com/stores/holland-oh-729
Ulta Beauty,580,3541 28th Street Southeast,Grand Rapids,49512,RAPIDS,+1 616-285-7024,https://www.ulta.com/stores/grand-rapids-mi-580
Ulta Beauty,675,"2279 Walker Lake Road, Ste 100",Mansfield,44906,OH,+1 419-747-2065,https://www.ulta.com/stores/ontario-oh-675
Ulta Beauty,418,"803 Pilgrim Way, Ste 5",Green Bay,54304,BAY,+1 920-494-7035,https://www.ulta.com/stores/green-bay-wi-418
Ulta Beauty,601,3160 44th Street Southwest,Grandville,49418,MI,+1 616-534-7739,https://www.ulta.com/stores/grandville-mi-601
Ulta Beauty,507,5711 Harvey Street,Norton Shores,49444,SHORES,+1 231-798-2371,https://www.ulta.com/stores/norton-shores-mi-507
Ulta Beauty,420,"1600 Miller Trunk Highway, Ste 414B",Duluth,55811,MN,+1 218-727-2780,https://www.ulta.com/stores/duluth-mn-420
Ulta Beauty,738,"12765 Harper Village Drive, Ste 150",Battle Creek,49014,CREEK,+1 269-979-1257,https://www.ulta.com/stores/battle-creek-mi-738
Ulta Beauty,432,12635 Felch Street,Holland,49424,MI,+1 616-994-0534,https://www.ulta.com/stores/holland-mi-432
Ulta Beauty,1706,4447 West Wisconsin Avenue,Appleton,54913,WI,+1 920-831-0240,https://www.ulta.com/stores/appleton-wi-1706
Ulta Beauty,443,4073 28,Sheboygan Falls,53085,FALLS,+1 920-459-8487,https://www.ulta.com/stores/sheboygan-falls-wi-443
Ulta Beauty,1433,5220 West Main Street,Kalamazoo,49009,MI,+1 269-888-1424,https://www.ulta.com/stores/kalamazoo-mi-1433
Ulta Beauty,577,3555 Rib Mountain Drive,Wausau,54401,MOUNTAIN,+1 715-241-0089,https://www.ulta.com/stores/rib-mountain-wi-577
Ulta Beauty,656,"771 South 30th Street, #353",Heath,43056,OH,+1 740-522-8167,https://www.ulta.com/stores/heath-oh-656
Ulta Beauty,348,6142 South Westnedge Avenue,Portage,49002,MI,+1 269-321-0326,https://www.ulta.com/stores/portage-mi-348
Ulta Beauty,1321,100 Grand Central Mall,Vienna,26105,WV,+1 304-440-5097,https://www.ulta.com/stores/vienna-wv-1321
Ulta Beauty,1271,1514 South Koeller Street,Oshkosh,54902,WI,+1 920-235-0348,https://www.ulta.com/stores/oshkosh-wi-1271
Ulta Beauty,1761,"3405 Candlers Mountain Road, Space J-100",Lynchburg,24502,VA,+1 434-810-0116,https://www.ulta.com/stores/lynchburg-va-1761
Ulta Beauty,424,1285 Polaris Parkway,Columbus,43240,OH,+1 614-785-0594,https://www.ulta.com/stores/columbus-oh-424
Ulta Beauty,422,3720 Easton Market,Columbus,43230,OH,+1 614-473-9146,https://www.ulta.com/stores/columbus-oh-422
Ulta Beauty,1363,200 Crossroads Drive,Plover,54467,WI,+1 715-343-0512,https://www.ulta.com/stores/plover-wi-1363
Ulta Beauty,1048,"10701 Blacklick-Eastern Road Northwest, Ste 300",Pickerington,43147,OH,+1 614-866-0138,https://www.ulta.com/stores/pickerington-oh-1048
Ulta Beauty,1606,135 Graceland Boulevard,Columbus,43214,OH,+1 614-505-5784,https://www.ulta.com/stores/columbus-oh-1606
Ulta Beauty,1080,3632 West Dublin Granville Road,Columbus,43235,OH,+1 614-717-9046,https://www.ulta.com/stores/columbus-oh-1080
Ulta Beauty,542,"1635 River Valley Circle South, Ste 101",Lancaster,43130,OH,+1 740-654-2704,https://www.ulta.com/stores/lancaster-oh-542
Ulta Beauty,1091,1645 West Lane Avenue,Columbus,43221,ARLINGTON,+1 614-485-9193,https://www.ulta.com/stores/upper-arlington-oh-1091
Ulta Beauty,673,"2720 Elida Road, Ste 180",Lima,45805,OH,+1 419-223-1053,https://www.ulta.com/stores/lima-oh-673
Ulta Beauty,1070,968 Port Washington Road,Grafton,53024,WI,+1 262-375-1126,https://www.ulta.com/stores/grafton-wi-1070
Ulta Beauty,1498,1768 Hilliard Rome Road,Hilliard,43026,OH,+1 614-710-4050,https://www.ulta.com/stores/hilliard-oh-1498
Ulta Beauty,1172,1711 Stringtown Road,Grove City,43123,CITY,+1 614-539-0104,https://www.ulta.com/stores/grove-city-oh-1172
Ulta Beauty,1681,1472 Jeffreys Road,Rocky Mount,27804,MOUNT,+1 252-822-7869,https://www.ulta.com/stores/rocky-mount-nc-1681
Ulta Beauty,646,"5654 North Bayshore Drive, Ste F-118",Glendale,53217,WI,+1 414-332-3150,https://www.ulta.com/stores/glendale-wi-646
Ulta Beauty,368,"3120 Evans Street, Ste 105",Greenville,27834,NC,+1 252-215-1090,https://www.ulta.com/stores/greenville-nc-368
Ulta Beauty,552,1000 Fairplain Drive,Benton Harbor,49022,HARBOR,+1 269-934-9261,https://www.ulta.com/stores/benton-harbor-mi-552
Ulta Beauty,1200,N91W16051 Falls Parkway,Menomonee Falls,53051,WI,+1 262-250-0309,https://www.ulta.com/stores/menomonee-wi-1200
Ulta Beauty,1008,"705 East Coliseum Boulevard, Ste B",Fort Wayne,46805,WAYNE,+1 260-483-0003,https://www.ulta.com/stores/fort-wayne-in-1008
Ulta Beauty,605,"11500 West Burleigh Street, Spc C",Wauwatosa,53222,WI,+1 414-258-6581,https://www.ulta.com/stores/wauwatosa-wi-605
Ulta Beauty,1272,3818 Midway Road,Goshen,46526,IN,+1 574-875-9046,https://www.ulta.com/stores/goshen-in-1272
Ulta Beauty,177,16970 West Bluemound Road,Brookfield,53005,WI,+1 262-785-0980,https://www.ulta.com/stores/brookfield-wi-177
Ulta Beauty,1682,1750 Apple Glen Boulevard,Fort Wayne,46804,WAYNE,+1 260-459-0041,https://www.ulta.com/stores/fort-wayne-in-1682
Ulta Beauty,1291,8500 Sura Lane,Greenfield,53228,WI,+1 414-425-6750,https://www.ulta.com/stores/greenfield-wi-1291
Ulta Beauty,608,"4802 Valley View Boulevard Northwest, Ste LF248",Roanoke,24012,VA,+1 540-561-0809,https://www.ulta.com/stores/roanoke-va-608
Ulta Beauty,1469,5628 Grape Road,Mishawaka,46545,IN,+1 574-247-1541,https://www.ulta.com/stores/mishawaka-in-1469
Ulta Beauty,1223,3563 Doctor Martin Luther King Junior Boulevard,New Bern,28562,BERN,+1 252-631-6882,https://www.ulta.com/stores/new-bern-nc-1223
Ulta Beauty,1725,"3401 Raleigh Road Parkway West, #2E",Wilson,27896,NC,+1 252-479-6670,https://www.ulta.com/stores/wilson-nc-1725
Ulta Beauty,591,"1160 West Sunset Drive, Ste 134",Waukesha,53189,WI,+1 262-574-0387,https://www.ulta.com/stores/waukesha-wi-591
Ulta Beauty,1148,"5630 Washington Avenue, Unit 131",Mt Pleasant,53406,PLEASANT,+1 262-634-0067,https://www.ulta.com/stores/mount-pleasant-wi-1148
Ulta Beauty,1108,"1251 North Bridge Street, Ste B",Chillicothe,45601,OH,+1 740-774-4744,https://www.ulta.com/stores/chillicothe-oh-1108
Ulta Beauty,684,"5160 Highway 70 West, Ste 100A",Morehead City,28557,CITY,+1 252-222-4301,https://www.ulta.com/stores/morehead-city-nc-684
Ulta Beauty,559,600 West 300 North,Warsaw,46582,IN,+1 574-267-5630,https://www.ulta.com/stores/warsaw-in-559
Ulta Beauty,561,216 RHL Boulevard,Charleston,25309,WV,+1 304-744-5459,https://www.ulta.com/stores/charleston-wv-561
Ulta Beauty,345,"10033 77th Street, Ste 420",Pleasant Prairie,53158,PRAIRIE,+1 262-697-0379,https://www.ulta.com/stores/pleasant-prairie-wi-345
Ulta Beauty,611,"4800 Golf Road, Ste 213",Eau Claire,54701,CLAIRE,+1 715-831-0973,https://www.ulta.com/stores/eau-claire-wi-611
Ulta Beauty,749,1058 North Eisenhower Drive,Beckley,25801,WV,+1 304-253-5345,https://www.ulta.com/stores/beckley-wv-749
Ulta Beauty,741,"5900 Poyner Anchor Lane, Ste 157",Raleigh,27616,NC,+1 919-872-5597,https://www.ulta.com/stores/raleigh-nc-741
Ulta Beauty,1659,"613 North Berkeley Boulevard, Ste J",Goldsboro,27534,NC,+1 984-294-8113,https://www.ulta.com/stores/goldsboro-nc-1659
Ulta Beauty,1564,3070 Wake Forest Road,Raleigh,27609,NC,+1 984-238-0130,https://www.ulta.com/stores/raleigh-nc-1564
Ulta Beauty,1532,"782 New River Road Northwest, Ste 602",Christiansburg,24073,VA,+1 540-251-7244,https://www.ulta.com/stores/christiansburg-va-1532
Ulta Beauty,498,"2720 Towne Drive, 450",Beavercreek,45431,OH,+1 937-429-9744,https://www.ulta.com/stores/beavercreek-oh-498
Ulta Beauty,1328,"13499 Elmwood Drive, Ste 130",Baxter,56425,MN,+1 218-454-2701,https://www.ulta.com/stores/baxter-mn-1328
Ulta Beauty,1491,"6250 Glenwood Avenue, Ste 104",Raleigh,27612,NC,+1 984-238-9452,https://www.ulta.com/stores/raleigh-nc-1491
Ulta Beauty,1016,120 Dunes Plaza,Michigan City,46360,CITY,+1 219-879-1301,https://www.ulta.com/stores/michigan-city-in-1016
Ulta Beauty,1795,210 North Gasser Road,Baraboo,53913,WI,+1 608-678-5050,https://www.ulta.com/stores/baraboo-wi-1795
Ulta Beauty,67,6517 Grand Avenue,Gurnee,60031,IL,+1 847-856-1002,https://www.ulta.com/stores/gurnee-il-67
Ulta Beauty,1028,810 Mall Road,Barboursville,25504,WV,+1 304-733-0007,https://www.ulta.com/stores/barboursville-wv-1028
Ulta Beauty,461,165 Shenstone Boulevard,Garner,27529,NC,+1 919-662-8268,https://www.ulta.com/stores/garner-nc-461
Ulta Beauty,1645,3721 32nd Avenue South,Grand Forks,58201,FORKS,+1 701-402-5715,https://www.ulta.com/stores/grand-forks-nd-1645
Ulta Beauty,1515,"2001 Marlin Drive, Ste 900",Jacksonville,28546,NC,+1 910-353-0918,https://www.ulta.com/stores/jacksonville-nc-1515
Ulta Beauty,1228,27 Greene Boulevard,Beavercreek,45440,OH,+1 937-426-2693,https://www.ulta.com/stores/beavercreek-oh-1228
Ulta Beauty,126,409 Crossroads Boulevard,Cary,27518,NC,+1 919-859-1970,https://www.ulta.com/stores/cary-nc-126
Ulta Beauty,181,6923 Fayetteville Road,Durham,27713,NC,+1 919-405-2223,https://www.ulta.com/stores/durham-nc-181
Ulta Beauty,680,2116 Village Market Place,Morrisville,27560,NC,+1 919-463-0522,https://www.ulta.com/stores/morrisville-nc-680
Ulta Beauty,1478,135 Skokie Valley Road,Highland Park,60035,PARK,+1 224-707-9936,https://www.ulta.com/stores/highland-park-il-1478
Ulta Beauty,1279,"1800 East Franklin Street, Ste 30",Chapel Hill,27514,HILL,+1 919-960-6843,https://www.ulta.com/stores/chapel-hill-nc-1279
Ulta Beauty,627,2185 Zeier Road,Madison,53704,WI,+1 608-244-3983,https://www.ulta.com/stores/madison-wi-627
Ulta Beauty,672,"700 North Milwaukee Avenue, Ste 117",Vernon Hills,60061,HILLS,+1 847-549-1686,https://www.ulta.com/stores/vernon-hills-il-672
Ulta Beauty,1417,3050 West Illinois-60,Mundelein,60060,IL,+1 847-566-3602,https://www.ulta.com/stores/mundelein-il-1417
Ulta Beauty,1360,"936 Willow Road, Ste C",Northbrook,60062,IL,+1 847-486-9925,https://www.ulta.com/stores/northbrook-il-1360
Ulta Beauty,97,9635 Skokie Boulevard,Skokie,60077,IL,+1 847-675-7320,https://www.ulta.com/stores/skokie-il-97
Ulta Beauty,263,"2700 Miamisburg Centerville Road, # 864",Dayton,45459,OH,+1 937-291-0196,https://www.ulta.com/stores/dayton-oh-263
Ulta Beauty,251,1521 Beaver Creek Commons Drive,Apex,27502,NC,+1 919-362-0415,https://www.ulta.com/stores/apex-nc-251
Ulta Beauty,234,3206 Shoppers Drive,McHenry,60050,IL,+1 815-344-2028,https://www.ulta.com/stores/mchenry-il-234
Ulta Beauty,44,3015 North Clark Street,Chicago,60657,IL,+1 773-348-7315,https://www.ulta.com/stores/chicago-il-44
Ulta Beauty,1444,"500 Winchester Avenue, Ste 142",Ashland,41101,KY,+1 606-385-2671,https://www.ulta.com/stores/ashland-ky-1444
Ulta Beauty,137,5481 West Touhy Avenue,Skokie,60077,IL,+1 847-329-1445,https://www.ulta.com/stores/skokie-il-137
Ulta Beauty,1304,600 Golf Mill Center,Niles,60714,IL,+1 847-635-1089,https://www.ulta.com/stores/niles-il-1304
Ulta Beauty,121,"2754 North Clybourn Avenue, Spc A2",Chicago,60614,IL,+1 773-472-6720,https://www.ulta.com/stores/chicago-il-121
Ulta Beauty,23,"1000 West North Avenue, Ste D103",Chicago,60642,IL,+1 312-664-0230,https://www.ulta.com/stores/chicago-il-23
Ulta Beauty,1357,430 North Michigan Avenue,Chicago,60611,IL,+1 312-527-9045,https://www.ulta.com/stores/chicago-il-1357
Ulta Beauty,589,124 Grand Hill Place,Holly Springs,27540,SPRINGS,+1 919-557-0167,https://www.ulta.com/stores/holly-springs-nc-589
Ulta Beauty,111,"20505 North Rand Road, Ste 220",Kildeer,60047,IL,+1 847-550-9309,https://www.ulta.com/stores/kildeer-il-111
Ulta Beauty,1138,"1300 North Ashland Avenue, Frnt J",Chicago,60622,IL,+1 773-227-7615,https://www.ulta.com/stores/chicago-il-1138
Ulta Beauty,1225,13 West Rand Road,Arlington Heights,60004,HEIGHTS,+1 847-818-8296,https://www.ulta.com/stores/arlington-heights-il-1225
Ulta Beauty,1632,"91 Silhavy Road, Ste 151",Valparaiso,46383,IN,+1 219-707-8005,https://www.ulta.com/stores/valparaiso-in-1632
Ulta Beauty,662,16 South Halsted Street,Chicago,60661,IL,+1 312-243-0411,https://www.ulta.com/stores/chicago-il-662
Ulta Beauty,423,1107 South Delano Court,Chicago,60605,IL,+1 312-583-0554,https://www.ulta.com/stores/chicago-il-423
Ulta Beauty,40,4115 North Harlem Avenue,Norridge,60706,IL,+1 708-457-1708,https://www.ulta.com/stores/norridge-il-40
Ulta Beauty,668,5228 South Lake Park Avenue,Chicago,60615,IL,+1 773-947-9066,https://www.ulta.com/stores/chicago-il-668
Ulta Beauty,628,7323 West Towne Way,Madison,53719,WI,+1 608-828-5883,https://www.ulta.com/stores/madison-wi-628
Ulta Beauty,1805,"5220 Fashion Outlets Way, Ste 1275",Rosemont,60018,IL,+1 888-888-8888,https://www.ulta.com/stores/rosemont-il-1805
Ulta Beauty,1130,"2500 Milton Avenue, Unit 199",Janesville,53545,WI,+1 608-373-7322,https://www.ulta.com/stores/janesville-wi-1130
Ulta Beauty,241,1461b University Drive,Burlington,27215,NC,+1 336-538-2025,https://www.ulta.com/stores/burlington-nc-241
Ulta Beauty,1540,1470 East Golf Road,Schaumburg,60173,IL,+1 847-240-2723,https://www.ulta.com/stores/schaumburg-il-1540
Ulta Beauty,1488,5774 Northwest Highway,Crystal Lake,60014,LAKE,+1 815-301-5798,https://www.ulta.com/stores/crystal-lake-il-1488
Ulta Beauty,400,7231 Lake Street,River Forest,60305,FOREST,+1 708-366-8604,https://www.ulta.com/stores/river-forest-il-400
Ulta Beauty,716,1020 East Princeton Avenue,Muncie,47303,IN,+1 765-282-1344,https://www.ulta.com/stores/muncie-in-716
Ulta Beauty,1287,4140 South Pulaski Road,Chicago,60632,IL,+1 773-650-4899,https://www.ulta.com/stores/chicago-il-1287
Ulta Beauty,1501,1891 Market Drive,Stillwater,55082,MN,+1 651-504-5787,https://www.ulta.com/stores/stillwater-mn-1501
Ulta Beauty,1258,2600 New Sutton Road,Hoffman Estates,60192,ESTATES,+1 847-645-0226,https://www.ulta.com/stores/hoffman-estates-il-1258
Ulta Beauty,41,2395 East 80th Avenue,Merrillville,46410,IN,+1 219-736-5287,https://www.ulta.com/stores/merrillville-in-41
Ulta Beauty,430,2431 West Schaumburg Road,Schaumburg,60194,IL,+1 847-923-1739,https://www.ulta.com/stores/schaumburg-il-430
Ulta Beauty,277,1804 South Randall Road,Algonquin,60102,IL,+1 847-458-0743,https://www.ulta.com/stores/algonquin-il-277
Ulta Beauty,1265,9620 South Western Avenue,Evergreen Park,60805,PARK,+1 708-229-0342,https://www.ulta.com/stores/evergreen-park-il-1265
Ulta Beauty,384,10333 Indianapolis Boulevard,Highland,46322,IN,+1 219-924-1318,https://www.ulta.com/stores/highland-in-384
Ulta Beauty,12,9270 Joliet Road,Hodgkins,60525,IL,+1 708-485-9120,https://www.ulta.com/stores/hodgkins-il-12
Ulta Beauty,1542,"11633 Ulysses Lane Northeast, Ste 300",Blaine,55434,MN,+1 651-364-3418,https://www.ulta.com/stores/blaine-mn-1542
Ulta Beauty,1604,"2155 22nd Street, Unit #18",Oak Brook,60523,BROOK,+1 630-573-9324,https://www.ulta.com/stores/oak-brook-il-1604
Ulta Beauty,453,362 West Army Trail Road,Bloomingdale,60108,IL,+1 630-307-7130,https://www.ulta.com/stores/bloomingdale-il-453
Ulta Beauty,1544,7616 Voice of America Centre Drive,West Chester Township,45069,CHESTER,+1 513-676-4221,https://www.ulta.com/stores/west-chester-oh-1544
Ulta Beauty,331,3350 West Friendly Avenue,Greensboro,27410,NC,+1 336-299-9495,https://www.ulta.com/stores/greensboro-nc-331
Ulta Beauty,122,3583 River Rapids Drive,Coon Rapids,55448,RAPIDS,+1 763-323-0664,https://www.ulta.com/stores/coon-rapids-mn-122
Ulta Beauty,341,5145 Deerfield Boulevard,Mason,45040,OH,+1 513-204-1929,https://www.ulta.com/stores/mason-oh-341
Ulta Beauty,1769,"9366 Wis-16, Ste 100",Onalaska,54650,WI,+1 608-871-4084,https://www.ulta.com/stores/onalaska-wi-1769
Ulta Beauty,173,8290 Tamarack Village,Woodbury,55125,MN,+1 651-738-1654,https://www.ulta.com/stores/woodbury-mn-173
Ulta Beauty,1090,800 Plainfield Road,Willowbrook,60527,IL,+1 630-852-6380,https://www.ulta.com/stores/willowbrook-il-1090
Ulta Beauty,273,3347 Princeton Road,Fairfield Township,45011,OH,+1 513-863-6200,https://www.ulta.com/stores/hamilton-oh-273
Ulta Beauty,8,112 Danada Square West,Wheaton,60189,IL,+1 630-221-0215,https://www.ulta.com/stores/wheaton-il-8
Ulta Beauty,1678,1210-C Bridford Parkway,Greensboro,27407,NC,+1 743-235-6320,https://www.ulta.com/stores/greensboro-nc-1678
Ulta Beauty,255,1655 County Road B2 West,Roseville,55113,MN,+1 651-239-1640,https://www.ulta.com/stores/roseville-mn-255
Ulta Beauty,1465,3627 East Main Street,St. Charles,60174,CHARLES,+1 331-771-7525,https://www.ulta.com/stores/st-charles-il-1465
Ulta Beauty,439,2134 East Boulevard Street,Kokomo,46902,IN,+1 765-236-0681,https://www.ulta.com/stores/kokomo-in-439
Ulta Beauty,7,15754 South La Grange Road,Orland Park,60462,PARK,+1 708-349-8898,https://www.ulta.com/stores/orland-park-il-7
Ulta Beauty,269,"641 East Boughton Road, Ste 100",Bolingbrook,60440,IL,+1 630-783-0018,https://www.ulta.com/stores/bolingbrook-il-269
Ulta Beauty,1757,7240 East Point Douglas Road South,Cottage Grove,55016,GROVE,+1 651-461-6366,https://www.ulta.com/stores/cottage-grove-mn-1757
Ulta Beauty,1355,1033 West Lane Road,Machesney Park,61115,PARK,+1 815-633-2711,https://www.ulta.com/stores/machesney-park-il-1355
Ulta Beauty,210,7350 West 191st Street,Tinley Park,60487,PARK,+1 815-806-2659,https://www.ulta.com/stores/tinley-park-il-210
Ulta Beauty,248,"103 South Washington Street, Ste 109",Naperville,60540,IL,+1 630-718-0609,https://www.ulta.com/stores/naperville-il-248
Ulta Beauty,426,7800 Montgomery Road,Cincinnati,45236,OH,+1 513-793-5100,https://www.ulta.com/stores/cincinnati-oh-426
Ulta Beauty,1529,"4101 West Division Street, Ste 25",Waite Park,56387,CLOUD,+1 320-251-0048,https://www.ulta.com/stores/st-cloud-mn-1529
Ulta Beauty,136,12181 Elm Creek Boulevard North,Maple Grove,55369,GROVE,+1 763-425-5385,https://www.ulta.com/stores/maple-grove-mn-136
Ulta Beauty,69,1560 South Randall Road,Geneva,60134,IL,+1 630-232-1320,https://www.ulta.com/stores/geneva-il-69
Ulta Beauty,1163,"700 Eastgate South Drive, Ste 250",Cincinnati,45245,OH,+1 513-752-1472,https://www.ulta.com/stores/cincinnati-oh-1163
Ulta Beauty,90,"2707 Aurora Avenue, Ste 123",Naperville,60540,IL,+1 630-527-0065,https://www.ulta.com/stores/naperville-il-90
Ulta Beauty,370,6620 East State Street,Rockford,61108,IL,+1 815-394-1248,https://www.ulta.com/stores/rockford-il-370
Ulta Beauty,744,2699 Edmondson Road,Cincinnati,45209,OH,+1 513-351-2835,https://www.ulta.com/stores/cincinnati-oh-744
Ulta Beauty,1257,"1400 Central Park Village Drive, Ste 120",Eagan,55121,MN,+1 651-405-3802,https://www.ulta.com/stores/eagan-mn-1257
Ulta Beauty,598,9651 Colerain Avenue,Cincinnati,45251,OH,+1 513-245-1602,https://www.ulta.com/stores/cincinnati-oh-598
Ulta Beauty,1409,215 East Broadway,Bloomington,55425,MN,+1 952-854-1208,https://www.ulta.com/stores/bloomington-mn-1409
Ulta Beauty,1079,8338 7,St Louis Park,55426,LOUIS,+1 952-938-2079,https://www.ulta.com/stores/st-louis-park-mn-1079
Ulta Beauty,65,13145 Ridgedale Drive,Minnetonka,55305,MN,+1 952-540-1012,https://www.ulta.com/stores/minnetonka-mn-65
Ulta Beauty,1816,"1947 North Peace Haven Road, #1947",Winston-Salem,27106,SALEM,+1 888-888-8888,https://www.ulta.com/stores/winston-salem-nc-1816
Ulta Beauty,607,1050 West 78th Street,Minneapolis,55423,MN,+1 612-869-0150,https://www.ulta.com/stores/richfield-mn-607
Ulta Beauty,193,840 Inspiration Drive,Wilmington,28405,NC,+1 910-509-2122,https://www.ulta.com/stores/wilmington-nc-193
Ulta Beauty,245,"2510 Walter Payton Memorial Hwy, U.S. 34",Oswego,60543,IL,+1 630-554-4625,https://www.ulta.com/stores/oswego-il-245
Ulta Beauty,703,154 Pavilion Parkway,Newport,41071,KY,+1 859-261-0983,https://www.ulta.com/stores/newport-ky-703
Ulta Beauty,1060,"1437 East Dixie Drive, Ste G14",Asheboro,27203,NC,+1 336-636-5274,https://www.ulta.com/stores/asheboro-nc-1060
Ulta Beauty,1224,2801 Plainfield Road,Joliet,60435,IL,+1 815-254-5923,https://www.ulta.com/stores/joliet-il-1224
Ulta Beauty,219,"5075 Morganton Road, Ste 9",Fayetteville,28314,NC,+1 910-487-0281,https://www.ulta.com/stores/fayetteville-nc-219
Ulta Beauty,613,2064 Sycamore Road,DeKalb,60115,IL,+1 815-748-0990,https://www.ulta.com/stores/dekalb-il-613
Ulta Beauty,762,1030 Hanes Mall Boulevard,Winston-Salem,27103,SALEM,+1 336-794-9136,https://www.ulta.com/stores/winston-salem-nc-762
Ulta Beauty,1539,6004 Glenway Avenue,Cincinnati,45211,OH,+1 513-538-4862,https://www.ulta.com/stores/cincinnati-oh-1539
Ulta Beauty,513,"14929 Florence Trail, Ste 100",Apple Valley,55124,VALLEY,+1 952-891-2450,https://www.ulta.com/stores/apple-valley-mn-513
Ulta Beauty,465,4420 13th Avenue South,Fargo,58103,ND,+1 701-281-4831,https://www.ulta.com/stores/fargo-nd-465
Ulta Beauty,1519,"3500 Oleander Drive, Space R060",Wilmington,28403,NC,+1 910-408-2797,https://www.ulta.com/stores/wilmington-nc-1519
Ulta Beauty,1648,12591 Castlemoor Drive,Eden Prairie,55344,PRAIRIE,+1 651-615-5595,https://www.ulta.com/stores/eden-prairie-mn-1648
Ulta Beauty,288,830 County Road 42 West,Burnsville,55337,MN,+1 952-435-0001,https://www.ulta.com/stores/burnsville-mn-288
Ulta Beauty,315,"14002 Hoard Drive, Ste 100",Noblesville,46060,IN,+1 317-770-8531,https://www.ulta.com/stores/noblesville-in-315
Ulta Beauty,1676,2455 Market Center Drive,Clemmons,27012,NC,+1 336-283-3882,https://www.ulta.com/stores/clemmons-nc-1676
Ulta Beauty,359,955 Erica Lane,Yorkville,60560,IL,+1 630-553-4927,https://www.ulta.com/stores/yorkville-il-359
Ulta Beauty,338,"2058 Country Rd E 241 N, Illinois 50",Bourbonnais,60914,IL,+1 815-935-1451,https://www.ulta.com/stores/bourbonnais-il-338
Ulta Beauty,1038,"120 Justice Way, Unit 130",Pikeville,41501,KY,+1 606-432-1092,https://www.ulta.com/stores/pikeville-ky-1038
Ulta Beauty,486,7673 Mall Road,Florence,41042,KY,+1 859-282-8561,https://www.ulta.com/stores/florence-ky-486
Ulta Beauty,642,2009 East Greyhound Pass,Carmel,46033,IN,+1 317-844-5818,https://www.ulta.com/stores/carmel-in-642
Ulta Beauty,683,174 Brucewood Road,Southern Pines,28387,PINES,+1 910-246-2410,https://www.ulta.com/stores/southern-pines-nc-683
Ulta Beauty,1294,"200 South Creasy Lane, Ste 3200",Lafayette,47905,IN,+1 765-446-2035,https://www.ulta.com/stores/lafayette-in-1294
Ulta Beauty,168,"8487 Union Chapel Road, Ste 720",Indianapolis,46240,IN,+1 317-251-0920,https://www.ulta.com/stores/indianapolis-in-168
Ulta Beauty,1393,2238 3rd Avenue Southeast,Rochester,55904,MN,+1 507-516-0064,https://www.ulta.com/stores/rochester-mn-1393
Ulta Beauty,1718,"2902 West 86th Street, Ste 100",Indianapolis,46268,IN,+1 463-348-1340,https://www.ulta.com/stores/indianapolis-in-1718
Ulta Beauty,1437,"6140 Mills Drive, Ste 600",Whitestown,46075,IN,+1 317-396-6651,https://www.ulta.com/stores/whitestown-in-1437
Ulta Beauty,693,1445 Klumac Road,Salisbury,28147,NC,+1 704-638-6068,https://www.ulta.com/stores/salisbury-nc-693
Ulta Beauty,1137,"8811 Hardegan Street, Ste 360",Indianapolis,46227,IN,+1 317-883-1256,https://www.ulta.com/stores/indianapolis-in-1137
Ulta Beauty,1274,"10397 Rockville Road, U.S. 36",Avon,46123,IN,+1 317-273-0061,https://www.ulta.com/stores/avon-in-1274
Ulta Beauty,1590,135-1 Smith Avenue,Shallotte,28470,NC,+1 910-788-2019,https://www.ulta.com/stores/shallotte-nc-1590
Ulta Beauty,211,"301 Marketplace Mile, Ste 120",Plainfield,46168,IN,+1 317-837-9652,https://www.ulta.com/stores/plainfield-in-211
Ulta Beauty,524,"555 John F Kennedy Road, Ste 592",Dubuque,52002,IA,+1 563-582-5087,https://www.ulta.com/stores/dubuque-ia-524
Ulta Beauty,1361,3200 Columbus People Trail,Columbus,47203,IN,+1 812-375-0565,https://www.ulta.com/stores/columbus-in-1361
Ulta Beauty,1597,1180 Blowing Rock Road,Boone,28607,NC,+1 828-616-2057,https://www.ulta.com/stores/boone-nc-1597
Ulta Beauty,231,609 River Highway,Mooresville,28117,NC,+1 704-664-2745,https://www.ulta.com/stores/mooresville-nc-231
Ulta Beauty,756,456 Pinnacle Parkway,Bristol,37620,TN,+1 423-764-0005,https://www.ulta.com/stores/bristol-tn-756
Ulta Beauty,1019,1564 Old Highway 17 North,North Myrtle Beach,29582,MYRTLE,+1 843-249-4075,https://www.ulta.com/stores/north-myrtle-beach-sc-1019
Ulta Beauty,1531,8052 Concord Mills Boulevard,Concord,28027,NC,+1 704-709-5606,https://www.ulta.com/stores/concord-nc-1531
Ulta Beauty,1748,20605 Torrence Chapel Rd,Cornelius,28031,NC,+1 828-598-5368,https://www.ulta.com/stores/cornelius-nc-1748
Ulta Beauty,383,1956 Pavilion Way,Lexington,40509,KY,+1 859-232-8947,https://www.ulta.com/stores/lexington-ky-383
Ulta Beauty,1660,"1901 Madison Avenue, Ste 440",Mankato,56001,MN,+1 507-625-5530,https://www.ulta.com/stores/mankato-mn-1660
Ulta Beauty,1667,1844 Catawba Valley Boulevard Southeast,Hickory,28602,NC,+1 828-999-6257,https://www.ulta.com/stores/hickory-nc-1667
Ulta Beauty,590,"8150 Ikea Boulevard, Ste 5",Charlotte,28262,NC,+1 704-494-4138,https://www.ulta.com/stores/charlotte-nc-590
Ulta Beauty,372,"2626 East Stone Drive, Ste 130",Kingsport,37660,TN,+1 423-245-1076,https://www.ulta.com/stores/kingsport-tn-372
Ulta Beauty,129,"3220 Nicholasville Road, Ste 147",Lexington,40503,KY,+1 859-272-1022,https://www.ulta.com/stores/lexington-ky-129
Ulta Beauty,1147,"2400 10th Street Southwest, Ste 700",Minot,58701,ND,+1 701-838-6120,https://www.ulta.com/stores/minot-nd-1147
Ulta Beauty,794,"7800 John Davis Drive, Ste 800",Frankfort,40601,KY,+1 502-695-5507,https://www.ulta.com/stores/frankfort-ky-794
Ulta Beauty,1800,"10835 Kings Road, Ste 200",Myrtle Beach,29572,BEACH,+1 888-888-8888,https://www.ulta.com/stores/myrtle-beach-sc-1800
Ulta Beauty,1487,2211 Lantern Ridge Drive,Richmond,40475,KY,+1 859-237-8003,https://www.ulta.com/stores/richmond-ky-1487
Ulta Beauty,1541,"2113 Matthews Township Parkway, Ste D",Matthews,28105,NC,+1 704-443-5002,https://www.ulta.com/stores/matthews-nc-1541
Ulta Beauty,1312,"2011 North Roan Street, Ste 25",Johnson City,37601,CITY,+1 423-283-0693,https://www.ulta.com/stores/johnson-city-tn-1312
Ulta Beauty,147,236 South Sharon Amity Road,Charlotte,28211,NC,+1 704-442-8404,https://www.ulta.com/stores/charlotte-nc-147
Ulta Beauty,1081,"2894 East 3rd Street, Ste 120",Bloomington,47401,IN,+1 812-323-6059,https://www.ulta.com/stores/bloomington-in-1081
Ulta Beauty,276,710 Coastal Grand Circle,Myrtle Beach,29577,BEACH,+1 843-448-0900,https://www.ulta.com/stores/myrtle-beach-sc-276
Ulta Beauty,1219,"7211 Waverly Walk Avenue, Ste JR-1",Charlotte,28277,NC,+1 704-844-2000,https://www.ulta.com/stores/charlotte-nc-1219
Ulta Beauty,1075,C126 Morganton Heights Boulevard,Morganton,28655,NC,+1 828-432-9781,https://www.ulta.com/stores/morganton-nc-1075
Ulta Beauty,134,7844 Rea Road,Charlotte,28277,NC,+1 704-540-9090,https://www.ulta.com/stores/charlotte-nc-134
Ulta Beauty,456,"415 Cox Road, Ste 140",Gastonia,28054,NC,+1 704-865-9220,https://www.ulta.com/stores/gastonia-nc-456
Ulta Beauty,1034,120 Sayebrook Parkway,Myrtle Beach,29588,BEACH,+1 843-293-2712,https://www.ulta.com/stores/myrtle-beach-sc-1034
Ulta Beauty,761,"13540 Hoover Creek Boulevard, Ste 100",Charlotte,28273,NC,+1 704-583-0660,https://www.ulta.com/stores/charlotte-nc-761
Ulta Beauty,550,1945 West Palmetto Street,Florence,29501,SC,+1 843-662-3097,https://www.ulta.com/stores/florence-sc-550
Ulta Beauty,1352,"7796 Charlotte Highway, Ste 100",Indian Land,29707,LAND,+1 803-592-3350,https://www.ulta.com/stores/indian-land-sc-1352
Ulta Beauty,466,2023 North Prospect Avenue,Champaign,61822,IL,+1 217-355-5234,https://www.ulta.com/stores/champaign-il-466
Ulta Beauty,113,4292 Summit Plaza Drive,Louisville,40241,KY,+1 502-326-9958,https://www.ulta.com/stores/louisville-ky-113
Ulta Beauty,428,4016 East 53rd Street,Davenport,52807,IA,+1 563-355-2230,https://www.ulta.com/stores/davenport-ia-428
Ulta Beauty,737,544 John Ross Parkway,Rock Hill,29730,HILL,+1 803-329-8582,https://www.ulta.com/stores/rock-hill-sc-737
Ulta Beauty,1408,"5000 Shelbyville Road, Ste D155",Saint Matthews,40207,KY,+1 502-305-4679,https://www.ulta.com/stores/louisville-ky-1408
Ulta Beauty,1554,4231 Town Center Boulevard,Jeffersonville,47130,IN,+1 812-920-4727,https://www.ulta.com/stores/jeffersonville-in-1554
Ulta Beauty,395,1615 East Empire Street,Bloomington,61701,IL,+1 309-664-5929,https://www.ulta.com/stores/bloomington-il-395
Ulta Beauty,726,"3401 South US Highway 41, Ste E1",Terre Haute,47802,HAUTE,+1 812-233-8185,https://www.ulta.com/stores/terre-haute-in-726
Ulta Beauty,1787,434 Indianhead Drive,Mason City,50401,CITY,+1 888-888-8888,https://www.ulta.com/stores/mason-city-ia-1787
Ulta Beauty,1715,"1200 North Muldoon Road, Ste E-1",Anchorage,99504,AK,+1 907-332-4040,https://www.ulta.com/stores/anchorage-ak-1715
Ulta Beauty,1416,"4901 Outer Loop, Ste 105",Louisville,40219,KY,+1 502-901-5189,https://www.ulta.com/stores/louisville-ky-1416
Ulta Beauty,221,"4651 1st Avenue Southeast, Ste 3",Cedar Rapids,52402,RAPIDS,+1 319-294-3100,https://www.ulta.com/stores/cedar-rapids-ia-221
Ulta Beauty,504,2601 West Lake Avenue,Peoria,61615,IL,+1 309-681-4604,https://www.ulta.com/stores/peoria-il-504
Ulta Beauty,1162,"800 East Dimond Boulevard, Ste 190",Anchorage,99515,AK,+1 907-336-7100,https://www.ulta.com/stores/anchorage-ak-1162
Ulta Beauty,649,470 West Washington Street,East Peoria,61611,PEORIA,+1 309-698-7961,https://www.ulta.com/stores/east-peoria-il-649
Ulta Beauty,1018,416 Viking Plaza Drive,Cedar Falls,50613,FALLS,+1 319-266-6448,https://www.ulta.com/stores/cedar-falls-ia-1018
Ulta Beauty,1297,2550 East Morris Boulevard,Morristown,37813,TN,+1 423-585-0645,https://www.ulta.com/stores/morristown-tn-1297
Ulta Beauty,376,3 South Tunnel Road,Asheville,28805,NC,+1 828-298-0399,https://www.ulta.com/stores/asheville-nc-376
Ulta Beauty,1233,"1451 Coral Ridge Avenue, Ste 1950",Coralville,52241,IA,+1 319-625-2002,https://www.ulta.com/stores/coralville-ia-1233
Ulta Beauty,1569,1288 Broad Street,Sumter,29150,SC,+1 803-848-3125,https://www.ulta.com/stores/sumter-sc-1569
Ulta Beauty,1059,"1146 Hickory Point Mall, Ste 1420",Forsyth,62535,IL,+1 217-876-8579,https://www.ulta.com/stores/forsyth-il-1059
Ulta Beauty,1073,4 McKenna Road,Arden,28704,NC,+1 828-214-7742,https://www.ulta.com/stores/arden-nc-1073
Ulta Beauty,1005,1461 East LaSalle Drive,Bismarck,58503,ND,+1 701-223-3243,https://www.ulta.com/stores/bismarck-nd-1005
Ulta Beauty,1763,1944 North Dixie Highway,Elizabethtown,42701,KY,+1 270-900-8112,https://www.ulta.com/stores/elizabethtown-ky-1763
Ulta Beauty,207,214 Forum Drive,Columbia,29229,SC,+1 803-462-1488,https://www.ulta.com/stores/columbia-sc-207
Ulta Beauty,1722,3759 North Newton Street,Jasper,47546,IN,+1 812-559-8192,https://www.ulta.com/stores/jasper-in-1722
Ulta Beauty,609,1506 W. O. Ezell Boulevard,Spartanburg,29301,SC,+1 864-595-3682,https://www.ulta.com/stores/spartanburg-sc-609
Ulta Beauty,1407,"1316 West Wade Hampton Boulevard, Ste B",Greer,29650,SC,+1 864-662-3602,https://www.ulta.com/stores/greer-sc-1407
Ulta Beauty,638,"713 Winfield Dunn Parkway, Ste 4",Sevierville,37876,TN,+1 865-908-9890,https://www.ulta.com/stores/sevierville-tn-638
Ulta Beauty,644,"702 Cross Hill Road, Ste 300C",Columbia,29205,SC,+1 803-790-8009,https://www.ulta.com/stores/columbia-sc-644
Ulta Beauty,462,"320 Harbison Boulevard, Ste D",Columbia,29212,SC,+1 803-749-5757,https://www.ulta.com/stores/columbia-sc-462
Ulta Beauty,192,"1125 Woodruff Road, Ste 1191",Greenville,29607,SC,+1 864-288-7444,https://www.ulta.com/stores/greenville-sc-192
Ulta Beauty,1427,3124 North Pleasantburg Drive,Greenville,29609,SC,+1 864-686-6709,https://www.ulta.com/stores/greenville-sc-1427
Ulta Beauty,1263,"5336 Sunset Boulevard, Ste B",Lexington,29072,SC,+1 803-358-8435,https://www.ulta.com/stores/lexington-sc-1263
Ulta Beauty,760,6710 Papermill Drive Northwest,Knoxville,37919,TN,+1 865-330-9743,https://www.ulta.com/stores/knoxville-tn-760
Ulta Beauty,330,2733 South Veterans Parkway,Springfield,62704,IL,+1 217-726-0849,https://www.ulta.com/stores/springfield-il-330
Ulta Beauty,201,1740 Towne Centre Way,Mt Pleasant,29464,PLEASANT,+1 843-856-8500,https://www.ulta.com/stores/mt-pleasant-sc-201
Ulta Beauty,1621,6101 Calhoun Memorial Highway,Easley,29640,SC,+1 864-644-1124,https://www.ulta.com/stores/easley-sc-1621
Ulta Beauty,425,434 Azalea Square Boulevard,Summerville,29483,SC,+1 843-821-4059,https://www.ulta.com/stores/summerville-sc-425
Ulta Beauty,1145,749 Main Street West,Oak Ridge,37830,RIDGE,+1 865-425-4344,https://www.ulta.com/stores/oak-ridge-tn-1145
Ulta Beauty,631,11233 Parkside Drive,Knoxville,37934,TN,+1 865-966-7222,https://www.ulta.com/stores/knoxville-tn-631
Ulta Beauty,1460,734 Watkins Road,Maryville,37801,TN,+1 865-324-0004,https://www.ulta.com/stores/maryville-tn-1460
Ulta Beauty,1653,"8821 Dorchester Road, STE 104",Summerville,29420,CHARLESTON,+1 843-459-7698,https://www.ulta.com/stores/north-charleston-sc-1653
Ulta Beauty,1435,"1812 Sam Rittenberg Boulevard, Ste 10",Charleston,29407,SC,+1 843-405-9053,https://www.ulta.com/stores/charleston-sc-1435
Ulta Beauty,1575,"1505 Buckeye Avenue, Ste 102",Ames,50010,IA,+1 515-686-4637,https://www.ulta.com/stores/ames-ia-1575
Ulta Beauty,514,"6601 East Lloyd Expressway, Ste 1A",Evansville,47715,IN,+1 812-401-8430,https://www.ulta.com/stores/evansville-in-514
Ulta Beauty,506,5241 Frederica Street,Owensboro,42301,KY,+1 270-683-3760,https://www.ulta.com/stores/owensboro-ky-506
Ulta Beauty,1307,13350 Clemson Boulevard,Seneca,29678,SC,+1 864-633-2316,https://www.ulta.com/stores/seneca-sc-1307
Ulta Beauty,1002,103 Commons Drive,Greenwood,29649,SC,+1 864-942-1829,https://www.ulta.com/stores/greenwood-sc-1002
Ulta Beauty,408,3516 Clemson Boulevard,Anderson,29621,SC,+1 864-226-3357,https://www.ulta.com/stores/anderson-sc-408
Ulta Beauty,1594,621 South Highline Place,Sioux Falls,57110,FALLS,+1 605-961-3889,https://www.ulta.com/stores/sioux-falls-sd-1594
Ulta Beauty,674,"3800 South Louise Avenue, # 304A",Sioux Falls,57106,FALLS,+1 605-362-5765,https://www.ulta.com/stores/sioux-falls-sd-674
Ulta Beauty,490,"2625 Scottsville Road, Ste 340",Bowling Green,42104,GREEN,+1 270-842-3704,https://www.ulta.com/stores/bowling-green-ky-490
Ulta Beauty,334,"3800 Merle Hay Road, Ste 507",Des Moines,50310,MOINES,+1 515-276-0410,https://www.ulta.com/stores/des-moines-ia-334
Ulta Beauty,1451,"4100 University Avenue, Ste 116",West Des Moines,50266,DES,+1 515-207-5536,https://www.ulta.com/stores/west-des-moines-ia-1451
Ulta Beauty,1199,"1265 Interstate Drive, Ste 119",Cookeville,38501,TN,+1 931-371-7204,https://www.ulta.com/stores/cookeville-tn-1199
Ulta Beauty,1683,"6305 Mills Civic Parkway, Suite 2115",West Des Moines,50266,DES,+1 515-224-4717,https://www.ulta.com/stores/west-des-moines-ia-1683
Ulta Beauty,1495,"4217 Washington Road, Ste 2",Evans,30809,GA,+1 706-426-0481,https://www.ulta.com/stores/evans-ga-1495
Ulta Beauty,530,257 Robert C Daniel Junior Parkway,Augusta,30909,GA,+1 706-736-5202,https://www.ulta.com/stores/augusta-ga-530
Ulta Beauty,1366,"300 Paul Huff Parkway, Unit 200",Cleveland,37312,TN,+1 423-250-8002,https://www.ulta.com/stores/cleveland-tn-1366
Ulta Beauty,1711,1435 West Main Street,Lebanon,37087,TN,+1 629-600-4953,https://www.ulta.com/stores/lebanon-tn-1711
Ulta Beauty,624,"1460 Fording Island Road, Ste 160",Bluffton,29910,SC,+1 843-815-2073,https://www.ulta.com/stores/bluffton-sc-624
Ulta Beauty,410,6621 North Illinois Street,Fairview Heights,62208,HEIGHTS,+1 618-398-6274,https://www.ulta.com/stores/fairview-heights-il-410
Ulta Beauty,585,2419 North Highway 67,Florissant,63033,MO,+1 314-921-2834,https://www.ulta.com/stores/florissant-mo-585
Ulta Beauty,482,1032 Glenbrook Way,Hendersonville,37075,TN,+1 615-824-6567,https://www.ulta.com/stores/hendersonville-tn-482
Ulta Beauty,1101,5747 Sunnybrook Drive,Sioux City,51106,CITY,+1 712-276-3361,https://www.ulta.com/stores/sioux-city-ia-1101
Ulta Beauty,1600,"859 Dawsonville Highway, Suite 620",Gainesville,30501,GA,+1 770-535-3636,https://www.ulta.com/stores/gainesville-ga-1600
Ulta Beauty,1327,4859 Fort Campbell Boulevard,Hopkinsville,42240,KY,+1 270-886-9703,https://www.ulta.com/stores/hopkinsville-ky-1327
Ulta Beauty,1821,"191 Alps Road, Ste 138",Athens,30606,GA,+1 888-888-8888,https://www.ulta.com/stores/athens-ga-1821
Ulta Beauty,1371,"136 Marketplace Parkway, Ste 180",Dawsonville,30534,GA,+1 706-265-2289,https://www.ulta.com/stores/dawsonville-ga-1371
Ulta Beauty,640,"1791 Oconee Connector, Ste 1",Athens,30606,GA,+1 706-227-8930,https://www.ulta.com/stores/athens-ga-640
Ulta Beauty,654,10 Brentwood Promenade Court,Brentwood,63144,MO,+1 314-918-1859,https://www.ulta.com/stores/brentwood-mo-654
Ulta Beauty,1329,5232 North Service Road,St Peters,63376,PETERS,+1 636-278-2068,https://www.ulta.com/stores/st-peters-mo-1329
Ulta Beauty,733,2884 Wilma Rudolph Boulevard,Clarksville,37040,TN,+1 931-648-7110,https://www.ulta.com/stores/clarksville-tn-733
Ulta Beauty,1345,12567 Olive Boulevard,Creve Coeur,63141,COEUR,+1 314-878-7653,https://www.ulta.com/stores/creve-coeur-mo-1345
Ulta Beauty,1139,366 Northgate Mall Drive,Chattanooga,37415,TN,+1 423-877-8902,https://www.ulta.com/stores/chattanooga-tn-1139
Ulta Beauty,308,"2220 Hamilton Place Boulevard, Ste 110",Chattanooga,37421,TN,+1 423-893-0598,https://www.ulta.com/stores/chattanooga-tn-308
Ulta Beauty,1375,4120 Elm Park Drive,St. Louis,63123,LOUIS,+1 314-892-8879,https://www.ulta.com/stores/st-louis-mo-1375
Ulta Beauty,1786,4060 Cane Ridge Parkway,Antioch,37013,TN,+1 615-949-3394,https://www.ulta.com/stores/antioch-tn-1786
Ulta Beauty,1201,837 Industrial Boulevard,Smyrna,37167,TN,+1 615-355-9129,https://www.ulta.com/stores/smyrna-tn-1201
Ulta Beauty,375,46 THF Boulevard,Chesterfield,63005,MO,+1 636-534-2828,https://www.ulta.com/stores/chesterfield-mo-375
Ulta Beauty,722,"719 Thompson Lane, Ste 6",Nashville,37204,TN,+1 615-385-2897,https://www.ulta.com/stores/nashville-tn-722
Ulta Beauty,1738,1270 East Main Street,Carbondale,62901,IL,+1 618-351-7072,https://www.ulta.com/stores/carbondale-il-1738
Ulta Beauty,294,121 Highlands Boulevard Drive,Manchester,63011,MO,+1 636-527-6974,https://www.ulta.com/stores/manchester-mo-294
Ulta Beauty,254,"2615 Medical Center Parkway, Ste 800",Murfreesboro,37129,TN,+1 615-849-7454,https://www.ulta.com/stores/murfreesboro-tn-254
Ulta Beauty,1610,"2126 Abbott Martin Road, Ste 177",Nashville,37215,TN,+1 615-622-9940,https://www.ulta.com/stores/nashville-tn-1610
Ulta Beauty,1573,1279 West Pearce Boulevard,Wentzville,63385,MO,+1 636-538-5401,https://www.ulta.com/stores/wentzville-mo-1573
Ulta Beauty,1324,"201 Tanger Outlets Boulevard, Ste 400",Pooler,31322,GA,+1 912-450-1393,https://www.ulta.com/stores/pooler-ga-1324
Ulta Beauty,1511,"916 Loganville Highway, Ste 1300",Bethlehem,30620,GA,+1 470-900-0051,https://www.ulta.com/stores/bethlehem-ga-1511
Ulta Beauty,582,189 Gravois Bluffs Plaza Drive,Fenton,63026,MO,+1 636-326-1486,https://www.ulta.com/stores/fenton-mo-582
Ulta Beauty,220,2295 Market Place Boulevard,Cumming,30040,GA,+1 770-887-2429,https://www.ulta.com/stores/cumming-ga-220
Ulta Beauty,222,"8108 Abercorn Street, Ste 310",Savannah,31406,GA,+1 912-920-3316,https://www.ulta.com/stores/savannah-ga-222
Ulta Beauty,80,"3205 Woodward Crossing Boulevard, Ste 220",Buford,30519,GA,+1 678-482-1887,https://www.ulta.com/stores/buford-ga-80
Ulta Beauty,1449,"1310 West Walnut Avenue, Ste 1",Dalton,30720,GA,+1 706-873-8032,https://www.ulta.com/stores/dalton-ga-1449
Ulta Beauty,1142,379 Henry Boulevard,Statesboro,30458,GA,+1 912-489-3463,https://www.ulta.com/stores/statesboro-ga-1142
Ulta Beauty,1382,8169 Sawyer Brown Road,Nashville,37221,TN,+1 629-206-2419,https://www.ulta.com/stores/nashville-tn-1382
Ulta Beauty,1616,822 Pavilion Parkway,Monroe,30656,GA,+1 470-890-5893,https://www.ulta.com/stores/monroe-ga-1616
Ulta Beauty,1150,"1910 Galleria Boulevard, Ste 100",Franklin,37067,TN,+1 615-771-1850,https://www.ulta.com/stores/franklin-tn-1150
Ulta Beauty,1572,"3630 Peachtree Parkway, Ste 102",Suwanee,30024,CREEK,+1 470-567-3960,https://www.ulta.com/stores/johns-creek-ga-1572
Ulta Beauty,285,"1810 Cumming Highway, Ste 640",Canton,30115,GA,+1 770-479-4656,https://www.ulta.com/stores/canton-ga-285
Ulta Beauty,78,"2059 Scenic Highway North, Ste 107",Snellville,30078,GA,+1 770-979-7151,https://www.ulta.com/stores/snellville-ga-78
Ulta Beauty,771,"3051 New Holt Road, Ste C-2",Paducah,42001,KY,+1 270-442-8089,https://www.ulta.com/stores/paducah-ky-771
Ulta Beauty,1308,"7300 North Point Parkway, Ste 126",Alpharetta,30022,GA,+1 770-619-2591,https://www.ulta.com/stores/alpharetta-ga-1308
Ulta Beauty,528,"5145 Peachtree Parkway, Ste 440",Berkeley Lake,30092,CORNERS,+1 770-368-0277,https://www.ulta.com/stores/peachtree-corners-ga-528
Ulta Beauty,1730,1600 North Jackson Street,Tullahoma,37388,TN,+1 931-450-3040,https://www.ulta.com/stores/tullahoma-tn-1730
Ulta Beauty,742,1956 Charlotte's Way,Washington,63090,MO,+1 636-390-3903,https://www.ulta.com/stores/washington-mo-742
Ulta Beauty,105,124 Woodstock Square Avenue,Woodstock,30189,GA,+1 678-494-0081,https://www.ulta.com/stores/woodstock-ga-105
Ulta Beauty,1151,"120 Perimeter Center West, Ste 200",Dunwoody,30346,GA,+1 770-391-2301,https://www.ulta.com/stores/dunwoody-ga-1151
Ulta Beauty,639,1028 Crossings Boulevard,Spring Hill,37174,HILL,+1 931-486-3356,https://www.ulta.com/stores/spring-hill-tn-639
Ulta Beauty,487,"1311 Johnson Ferry Road, Ste 556",Marietta,30068,GA,+1 770-578-3352,https://www.ulta.com/stores/marietta-ga-487
Ulta Beauty,1364,200 Cherokee Place,Cartersville,30121,GA,+1 770-606-9135,https://www.ulta.com/stores/cartersville-ga-1364
Ulta Beauty,25,680 Ernest W Barrett Parkway Northwest,Kennesaw,30144,GA,+1 770-419-2755,https://www.ulta.com/stores/kennesaw-ga-25
Ulta Beauty,1633,2915 North Druid Hills Road,Atlanta,30329,GA,+1 470-763-2010,https://www.ulta.com/stores/atlanta-ga-1633
Ulta Beauty,72,"3495 Buckhead Loop Northeast, Ste 120",Atlanta,30326,GA,+1 404-266-3559,https://www.ulta.com/stores/atlanta-ga-72
Ulta Beauty,1323,"863 West Oglethorpe Highway, Ste 104",Hinesville,31313,GA,+1 912-369-0654,https://www.ulta.com/stores/hinesville-ga-1323
Ulta Beauty,1577,"3372 Cobb Parkway Northwest, Ste 100",Acworth,30101,GA,+1 470-922-6001,https://www.ulta.com/stores/acworth-ga-1577
Ulta Beauty,43,2540 Cumberland Boulevard Southeast,Smyrna,30080,GA,+1 770-432-4775,https://www.ulta.com/stores/smyrna-ga-43
Ulta Beauty,223,"1801 Howell Mill Road Northwest, Ste 240",Atlanta,30318,GA,+1 404-355-1326,https://www.ulta.com/stores/atlanta-ga-223
Ulta Beauty,1226,"3805 Dallas Highway, Ste 300",Marietta,30064,GA,+1 678-355-9558,https://www.ulta.com/stores/marietta-ga-1226
Ulta Beauty,532,"3502 Metro Drive, Ste 100",Council Bluffs,51501,BLUFFS,+1 712-366-8093,https://www.ulta.com/stores/council-bluffs-ia-532
Ulta Beauty,1679,1438 Turner McCall Boulevard Southwest,Rome,30161,GA,+1 762-254-6054,https://www.ulta.com/stores/rome-ga-1679
Ulta Beauty,1643,13320 West Maple Road,Omaha,68164,NE,+1 402-493-6626,https://www.ulta.com/stores/omaha-ne-1643
Ulta Beauty,1429,5220 Jimmy Lee Smith Parkway,Hiram,30141,GA,+1 678-424-5450,https://www.ulta.com/stores/hiram-ga-1429
Ulta Beauty,503,221 North Stadium Boulevard,Columbia,65203,MO,+1 573-445-5831,https://www.ulta.com/stores/columbia-mo-503
Ulta Beauty,264,12430 K Plaza,Omaha,68137,NE,+1 402-330-1569,https://www.ulta.com/stores/omaha-ne-264
Ulta Beauty,587,"1560 Hampton Road, Georgia 20",McDonough,30253,GA,+1 770-898-9947,https://www.ulta.com/stores/mcdonough-ga-587
Ulta Beauty,292,7701 Towne Center Parkway,Papillion,68046,NE,+1 402-592-1190,https://www.ulta.com/stores/papillion-ne-292
Ulta Beauty,701,"6700 Douglas Boulevard, Ste 1520",Douglasville,30135,GA,+1 770-949-3149,https://www.ulta.com/stores/douglasville-ga-701
Ulta Beauty,350,"5080 Riverside Drive, Ste 1200",Macon,31210,GA,+1 478-471-0171,https://www.ulta.com/stores/macon-ga-350
Ulta Beauty,1270,21417 Nebraska Crossing Drive,Gretna,68028,NE,+1 402-332-2815,https://www.ulta.com/stores/gretna-ne-1270
Ulta Beauty,447,190 Glynn Isle,Brunswick,31525,GA,+1 912-554-2172,https://www.ulta.com/stores/brunswick-ga-447
Ulta Beauty,1024,"3535 Missouri Boulevard, Ste 111",Jefferson City,65109,CITY,+1 573-632-0041,https://www.ulta.com/stores/jefferson-city-mo-1024
Ulta Beauty,1095,202 Line Creek Drive,Peachtree City,30269,CITY,+1 770-486-2514,https://www.ulta.com/stores/peachtree-city-ga-1095
Ulta Beauty,1391,"935 Bob Wallace Avenue Southwest, Ste 109",Huntsville,35801,AL,+1 256-342-9534,https://www.ulta.com/stores/hunstville-al-1391
Ulta Beauty,1246,"2620 Watson Boulevard, Ste 2A",Warner Robins,31093,ROBBINS,+1 478-322-2548,https://www.ulta.com/stores/warner-robbins-ga-1246
Ulta Beauty,1559,593 Bullsboro Drive,Newnan,30265,GA,+1 770-252-2268,https://www.ulta.com/stores/newnan-ga-1559
Ulta Beauty,339,"301 The Bridge Street, Ste 109",Huntsville,35806,AL,+1 256-327-8571,https://www.ulta.com/stores/huntsville-al-339
Ulta Beauty,1613,"8201 Lee Hwy., Highway 72 West",Madison,35758,AL,+1 256-666-8375,https://www.ulta.com/stores/madison-al-1613
Ulta Beauty,1584,"1109 South Park Street, Ste 505",Carrollton,30117,GA,+1 470-868-0055,https://www.ulta.com/stores/carrollton-ga-1584
Ulta Beauty,1635,"7200 Florida Short Route, Ste 200, Us 431",Albertville,35951,AL,+1 256-857-3114,https://www.ulta.com/stores/albertville-al-1635
Ulta Beauty,725,"5201 North Belt Highway, Ste 127",Saint Joseph,64506,JOSEPH,+1 816-279-2889,https://www.ulta.com/stores/st-joseph-mo-725
Ulta Beauty,709,524 East Meighan Boulevard,Gadsden,35903,AL,+1 256-547-8274,https://www.ulta.com/stores/gadsden-al-709
Ulta Beauty,1785,1241 Point Mallard Parkway,Decatur,35601,AL,+1 256-916-2379,https://www.ulta.com/stores/decatur-al-1785
Ulta Beauty,535,"3120 Pine Lake Road, Ste P",Lincoln,68516,NE,+1 402-423-0586,https://www.ulta.com/stores/lincoln-ne-535
Ulta Beauty,1202,463911 E State Road 200,Yulee,32097,FL,+1 904-277-1812,https://www.ulta.com/stores/yulee-fl-1202
Ulta Beauty,1452,797 North Westwood Boulevard,Poplar Bluff,63901,BLUFF,+1 573-727-8460,https://www.ulta.com/stores/poplar-bluff-mo-1452
Ulta Beauty,1174,"50 Commons Way, Ste A",Oxford,36203,AL,+1 256-371-6586,https://www.ulta.com/stores/oxford-al-1174
Ulta Beauty,1644,"384 US Hwy 51 Bypass West, Unit 7",Dyersburg,38024,TN,+1 731-666-8319,https://www.ulta.com/stores/dyersburg-tn-1644
Ulta Beauty,603,388 Cox Creek Parkway,Florence,35630,AL,+1 256-764-9323,https://www.ulta.com/stores/florence-al-603
Ulta Beauty,237,1151 Vann Drive,Jackson,38305,TN,+1 731-512-0419,https://www.ulta.com/stores/jackson-tn-237
Ulta Beauty,1156,249 South Stewart Road,Liberty,64068,MO,+1 816-415-3915,https://www.ulta.com/stores/liberty-mo-1156
Ulta Beauty,719,1717 Eglin Street,Rapid City,57701,CITY,+1 605-342-8453,https://www.ulta.com/stores/rapid-city-sd-719
Ulta Beauty,1480,8520 North Madison Avenue,Kansas City,64155,CITY,+1 816-381-4850,https://www.ulta.com/stores/kansas-city-mo-1480
Ulta Beauty,685,"14964 Max Leggett Parkway, Ste 404",Jacksonville,32218,FL,+1 904-696-6933,https://www.ulta.com/stores/jacksonville-fl-685
Ulta Beauty,501,1260 Northeast Coronado Drive,Blue Springs,64014,SPRINGS,+1 816-228-2268,https://www.ulta.com/stores/blue-springs-mo-501
Ulta Beauty,1115,1108 Cullman Shopping Center Northwest,Cullman,35055,AL,+1 256-734-8874,https://www.ulta.com/stores/cullman-al-1115
Ulta Beauty,343,9120 North Skyview Avenue,Kansas City,64154,CITY,+1 816-741-8779,https://www.ulta.com/stores/kansas-city-mo-343
Ulta Beauty,1010,3928 3rd Street South,Jacksonville Beach,32250,BEACH,+1 904-247-6895,https://www.ulta.com/stores/jacksonville-beach-fl-1010
Ulta Beauty,1734,"18810 E 39th St, Suite B",Independence,64057,MO,+1 888-888-8888,https://www.ulta.com/stores/independence-mo-1734
Ulta Beauty,377,4860 Big Island Drive,Jacksonville,32246,FL,+1 904-641-6032,https://www.ulta.com/stores/jacksonville-fl-377
Ulta Beauty,1749,2835 Dr. John Haynes Drive,Pell City,35125,CITY,+1 659-903-4601,https://www.ulta.com/stores/pell-city-al-1749
Ulta Beauty,553,1664 Northwest Chipman Road,Lee's Summit,64081,SUMMIT,+1 816-524-5427,https://www.ulta.com/stores/lees-summit-mo-553
Ulta Beauty,1481,4397 Roosevelt Boulevard,Jacksonville,32210,FL,+1 904-404-2563,https://www.ulta.com/stores/jacksonville-fl-1481
Ulta Beauty,745,"8600 Ward Parkway, Ste 1015",Kansas City,64114,CITY,+1 816-237-1391,https://www.ulta.com/stores/kansas-city-mo-745
Ulta Beauty,1634,"675 Durbin Pavilion Drive, Ste 108",Saint Johns,32259,JOHNS,+1 904-506-0482,https://www.ulta.com/stores/st-johns-fl-1634
Ulta Beauty,1767,11112 San Jose Boulevard,Jacksonville,32223,FL,+1 904-659-5717,https://www.ulta.com/stores/jacksonville-fl-1767
Ulta Beauty,262,"5550 Whittlesey Boulevard, Ste 600",Columbus,31909,GA,+1 706-660-1858,https://www.ulta.com/stores/columbus-ga-262
Ulta Beauty,641,11860 West 95th Street,Overland Park,66214,PARK,+1 913-888-0397,https://www.ulta.com/stores/overland-park-ks-641
Ulta Beauty,717,"1783 Dixie Hwy, U.S. 1",Florida,32084,AUGUSTINE,+1 904-819-0498,https://www.ulta.com/stores/st-augustine-fl-717
Ulta Beauty,1496,551 Markey Parkway,Belton,64012,MO,+1 816-348-3087,https://www.ulta.com/stores/belton-mo-1496
Ulta Beauty,643,6403 West 135th Street,Overland Park,66223,PARK,+1 913-239-0802,https://www.ulta.com/stores/overland-park-ks-643
Ulta Beauty,295,9625 Crosshill Boulevard,Jacksonville,32222,FL,+1 904-771-1162,https://www.ulta.com/stores/jacksonville-fl-295
Ulta Beauty,1342,"209 Northwest Bypass, Ste 2",Great Falls,59404,FALLS,+1 406-727-0282,https://www.ulta.com/stores/great-falls-mt-1342
Ulta Beauty,1154,5473 Patrick Way,Birmingham,35235,AL,+1 205-655-0767,https://www.ulta.com/stores/birmingham-al-1154
Ulta Beauty,1284,14621 West 119th Street,Olathe,66062,KS,+1 913-390-9938,https://www.ulta.com/stores/olathe-ks-1284
Ulta Beauty,1758,"7860 W 161st St, Unit J-103",Overland Park,66223,PARK,+1 888-888-8888,https://www.ulta.com/stores/overland-park-ks-1758
Ulta Beauty,379,2690 Enterprise Drive,Opelika,36801,AL,+1 334-749-2593,https://www.ulta.com/stores/opelika-al-379
Ulta Beauty,336,5267 U.S. Highway 280,Birmingham,35242,AL,+1 205-991-1012,https://www.ulta.com/stores/birmingham-al-336
Ulta Beauty,1565,317 Summit Blvd,Birmingham,35243,AL,+1 205-440-4333,https://www.ulta.com/stores/birmingham-al-1565
Ulta Beauty,1099,"5224 E Moody Blvd, Unit B,Florida 100",Palm Coast,32164,COAST,+1 386-437-7239,https://www.ulta.com/stores/palm-coast-fl-1099
Ulta Beauty,739,852 North Westover Boulevard,Albany,31707,GA,+1 229-420-0505,https://www.ulta.com/stores/albany-ga-739
Ulta Beauty,1190,"2727 Iowa Street, Ste F",Lawrence,66046,KS,+1 785-841-3790,https://www.ulta.com/stores/lawrence-ks-1190
Ulta Beauty,1396,1721 Montgomery Highway,Birmingham,35244,AL,+1 205-682-2781,https://www.ulta.com/stores/hoover-al-1396
Ulta Beauty,1042,"1700 Norman Drive, Spc 510",Valdosta,31601,GA,+1 229-671-1298,https://www.ulta.com/stores/valdosta-ga-1042
Ulta Beauty,1325,1115 Cornerstone Boulevard,Daytona Beach,32117,BEACH,+1 386-888-5607,https://www.ulta.com/stores/daytona-beach-fl-1325
Ulta Beauty,1702,8699 US Hwy 51 N,Millington,38053,TN,+1 779-260-4703,https://www.ulta.com/stores/millington-tn-1702
Ulta Beauty,364,"5511 South Williamson Boulevard, Ste 201",Port Orange,32128,ORANGE,+1 386-760-0289,https://www.ulta.com/stores/port-orange-fl-364
Ulta Beauty,1443,"1740 Southwest Wanamaker Road, Ste 300",Topeka,66604,KS,+1 785-329-0264,https://www.ulta.com/stores/topeka-ks-1443
Ulta Beauty,1084,"100 South Colonial Drive, Ste 2400",Alabaster,35007,AL,+1 205-664-4985,https://www.ulta.com/stores/alabaster-al-1084
Ulta Beauty,790,3031 East Highland Drive,Jonesboro,72401,AR,+1 870-268-1693,https://www.ulta.com/stores/jonesboro-ar-790
Ulta Beauty,1061,155 Treeline Road,Kalispell,59901,MT,+1 406-756-0907,https://www.ulta.com/stores/kalispell-mt-1061
Ulta Beauty,316,2273 North Germantown Parkway,Memphis,38016,TN,+1 901-377-4819,https://www.ulta.com/stores/cordova-tn-316
Ulta Beauty,1625,"2150 South Douglas Highway, Ste 110",Gillette,82718,WY,+1 307-363-8632,https://www.ulta.com/stores/gillette-wy-1625
Ulta Beauty,691,915 Shiloh Crossing Boulevard,Billings,59102,MT,+1 406-656-2189,https://www.ulta.com/stores/billings-mt-691
Ulta Beauty,1520,3569 South Houston Levee Road,Collierville,38017,TN,+1 901-472-2964,https://www.ulta.com/stores/collierville-tn-1520
Ulta Beauty,1367,7680 Poplar Avenue,Germantown,38138,TN,+1 901-751-9786,https://www.ulta.com/stores/germantown-tn-1367
Ulta Beauty,1292,"4572 Poplar Avenue, Ste 103",Memphis,38117,TN,+1 901-762-1005,https://www.ulta.com/stores/memphis-tn-1292
Ulta Beauty,406,"1001 Barnes Crossing Road, Ste 323",Tupelo,38804,MS,+1 662-842-7074,https://www.ulta.com/stores/tupelo-ms-406
Ulta Beauty,1155,"2430 South Washington Avenue, Ste 101",Titusville,32780,FL,+1 321-607-3748,https://www.ulta.com/stores/titusville-fl-1155
Ulta Beauty,1306,"100 Manhattan Town Ctr, Ste 335",Manhattan,66502,KS,+1 785-539-8491,https://www.ulta.com/stores/manhattan-ks-1306
Ulta Beauty,600,3434 South Glenstone Avenue,Springfield,65804,MO,+1 417-877-0108,https://www.ulta.com/stores/springfield-mo-600
Ulta Beauty,1203,955 Harley Strickland Boulevard,Orange City,32763,CITY,+1 386-774-0245,https://www.ulta.com/stores/orange-city-fl-1203
Ulta Beauty,1657,5010 Goodman Road E,Olive Branch,38654,BRANCH,+1 662-782-5235,https://www.ulta.com/stores/olive-branch-ms-1657
Ulta Beauty,1661,3898 W Washita St,Springfield,65807,MO,+1 417-512-5524,https://www.ulta.com/stores/springfield-mo-1661
Ulta Beauty,298,7981 Eastchase Parkway,Montgomery,36117,AL,+1 334-271-2656,https://www.ulta.com/stores/montgomery-al-298
Ulta Beauty,670,6554 Towne Center Drive,Southaven,38671,MS,+1 662-349-0684,https://www.ulta.com/stores/southaven-ms-670
Ulta Beauty,570,6843 West Newberry Road,Gainesville,32605,FL,+1 352-333-0552,https://www.ulta.com/stores/gainesville-fl-570
Ulta Beauty,752,1466 Cotton Exchange,Prattville,36066,AL,+1 334-285-7717,https://www.ulta.com/stores/prattville-al-752
Ulta Beauty,537,1751 WP Ball Boulevard,Sanford,32771,FL,+1 407-321-0854,https://www.ulta.com/stores/sanford-fl-537
Ulta Beauty,311,"1800 McFarland Boulevard East, Ste 522",Tuscaloosa,35404,AL,+1 205-342-2388,https://www.ulta.com/stores/tuscaloosa-al-311
Ulta Beauty,1482,"1425 Tuskawilla Road, Ste 239",Winter Springs,32708,SPRINGS,+1 321-244-7607,https://www.ulta.com/stores/winter-springs-fl-1482
Ulta Beauty,1012,"2304 Remi Drive, Ste 101",Melbourne,32940,FL,+1 321-631-8613,https://www.ulta.com/stores/viera-fl-1012
Ulta Beauty,152,841 North Alafaya Trail,Orlando,32828,FL,+1 407-384-8488,https://www.ulta.com/stores/orlando-fl-152
Ulta Beauty,753,375 East Altamonte Drive,Altamonte Springs,32701,SPRINGS,+1 407-260-1307,https://www.ulta.com/stores/altamonte-springs-fl-753
Ulta Beauty,215,"520 North Orlando Avenue, Suite 110",Winter Park,32789,PARK,+1 407-643-9129,https://www.ulta.com/stores/winter-park-fl-215
Ulta Beauty,1514,2151 East Semoran Boulevard,Apopka,32703,FL,+1 407-553-6785,https://www.ulta.com/stores/apopka-fl-1514
Ulta Beauty,1020,600 Merchants Drive,Oxford,38655,MS,+1 662-232-8970,https://www.ulta.com/stores/oxford-ms-1020
Ulta Beauty,706,2654 East Colonial Drive,Orlando,32803,FL,+1 407-897-8543,https://www.ulta.com/stores/orlando-fl-706
Ulta Beauty,363,"205 Palm Bay Road Northeast, Ste 121",Melbourne,32904,MELBOURNE,+1 321-953-2642,https://www.ulta.com/stores/west-melbourne-fl-363
Ulta Beauty,329,"4414 Southwest College Road, Unit 1710",Ocala,34474,FL,+1 352-237-0163,https://www.ulta.com/stores/ocala-fl-329
Ulta Beauty,667,"2005 Cromwell Dixon Lane, Ste 103",Helena,59602,MT,+1 406-449-2335,https://www.ulta.com/stores/helena-mt-667
Ulta Beauty,1189,"460 US-441 S, U.S. 27",Lady Lake,32159,LAKE,+1 352-674-0392,https://www.ulta.com/stores/lady-lake-fl-1189
Ulta Beauty,1157,"6775 Eagle Watch Drive, # 150",Orlando,32822,FL,+1 407-855-9548,https://www.ulta.com/stores/orlando-fl-1157
Ulta Beauty,634,1033 Branson Hills Parkway,Branson,65616,MO,+1 417-336-2002,https://www.ulta.com/stores/branson-mo-634
Ulta Beauty,1040,508 North 18th Avenue,Columbus,39705,MS,+1 662-240-8981,https://www.ulta.com/stores/columbus-ms-1040
Ulta Beauty,1598,"1307 US Highway 231 S, Ste 4",Troy,36081,AL,+1 334-635-3824,https://www.ulta.com/stores/troy-al-1598
Ulta Beauty,1654,"4600 Millenia Plaza Way, Ste 11",Orlando,32839,FL,+1 407-351-9894,https://www.ulta.com/stores/orlando-fl-1654
Ulta Beauty,1788,"5295 International Blvd., Ste 100-A",Orlando,32819,FL,+1 689-304-6970,https://www.ulta.com/stores/orlando-fl-1788
Ulta Beauty,754,423 21st Street,Vero Beach,32960,BEACH,+1 772-794-3513,https://www.ulta.com/stores/vero-beach-fl-754
Ulta Beauty,229,3203 Daniels Road,Winter Garden,34787,GARDEN,+1 407-656-0051,https://www.ulta.com/stores/winter-garden-fl-229
Ulta Beauty,1388,7699 West Sand Lake Road,Orlando,32819,FL,+1 321-666-8743,https://www.ulta.com/stores/orlando-fl-1388
Ulta Beauty,679,1554 Governors Square Boulevard,Tallahassee,32301,FL,+1 850-402-9527,https://www.ulta.com/stores/tallahassee-fl-679
Ulta Beauty,290,"4401 Montgomery Highway, Ste 500",Dothan,36303,AL,+1 334-671-7003,https://www.ulta.com/stores/dothan-al-290
Ulta Beauty,335,2609 West Osceola Parkway,Kissimmee,34741,FL,+1 407-846-0149,https://www.ulta.com/stores/kissimmee-fl-335
Ulta Beauty,1326,"2785 East Irlo Bronson Memorial Highway, # 300",Kissimmee,34744,FL,+1 407-846-0268,https://www.ulta.com/stores/kissimmee-fl-1326
Ulta Beauty,1295,3225 Rolling Oaks Boulevard,Reunion,34747,FL,+1 407-239-1814,https://www.ulta.com/stores/kissimmee-fl-1295
Ulta Beauty,1698,621 Mississippi 12 W,Starkville,39759,MS,+1 662-384-5316,https://www.ulta.com/stores/starkville-ms-1698
Ulta Beauty,515,"101 North Rangeline Road, Ste 275",Joplin,64801,MO,+1 417-627-0089,https://www.ulta.com/stores/joplin-mo-515
Ulta Beauty,1712,4718 Marigold Avenue,Poinciana,34758,FL,+1 888-888-8888,https://www.ulta.com/stores/poinciana-fl-1712
Ulta Beauty,538,2455 Northwest Federal Highway,Stuart,34994,FL,+1 772-232-4925,https://www.ulta.com/stores/stuart-fl-538
Ulta Beauty,1262,1307 Janet Drive,Searcy,72143,AR,+1 501-263-2889,https://www.ulta.com/stores/searcy-ar-1262
Ulta Beauty,1526,1181 Posner Boulevard,Davenport,33837,FL,+1 863-695-1044,https://www.ulta.com/stores/davenport-fl-1526
Ulta Beauty,449,"2855 North 19th Avenue, Ste C",Bozeman,59718,MT,+1 406-586-2682,https://www.ulta.com/stores/bozeman-mt-449
Ulta Beauty,272,10740 Southwest Village Parkway,Port St. Lucie,34987,ST,+1 772-345-2740,https://www.ulta.com/stores/port-st-lucie-fl-272
Ulta Beauty,1334,"2450 South 9th Street, Ste 300",Salina,67401,KS,+1 785-825-1808,https://www.ulta.com/stores/salina-ks-1334
Ulta Beauty,764,"3275 North Reserve Street, Ste M",Missoula,59808,MT,+1 406-541-9155,https://www.ulta.com/stores/missoula-mt-764
Ulta Beauty,615,2568 PGA Boulevard,Palm Beach Gardens,33410,BEACH,+1 561-625-9861,https://www.ulta.com/stores/palm-beach-gardens-fl-615
Ulta Beauty,1096,7211 Coastal Boulevard,Brooksville,34613,FL,+1 352-597-9463,https://www.ulta.com/stores/brooksville-fl-1096
Ulta Beauty,781,"1855 Palm Beach Lakes Boulevard, Unit B21",West Palm Beach,33401,PALM,+1 561-471-5122,https://www.ulta.com/stores/west-palm-beach-fl-781
Ulta Beauty,763,"919 Lakeland Park Center Drive, Unit 344",Lakeland,33809,FL,+1 863-853-7403,https://www.ulta.com/stores/lakeland-fl-763
Ulta Beauty,592,450 West Wilbur Avenue,Coeur d'Alene,83815,DALENE,+1 208-762-0776,https://www.ulta.com/stores/coeur-dalene-id-592
Ulta Beauty,746,"3615 Florida Avenue South, Ste 320",Lakeland,33803,FL,+1 863-646-6152,https://www.ulta.com/stores/lakeland-fl-746
Ulta Beauty,247,1020 South State Road 7,Wellington,33414,FL,+1 561-204-2446,https://www.ulta.com/stores/wellington-fl-247
Ulta Beauty,419,"2203 South Promenade Boulevard, Ste 20245",Rogers,72758,AR,+1 479-631-0038,https://www.ulta.com/stores/rogers-ar-419
Ulta Beauty,253,5953 Wesley Grove Boulevard,Wesley Chapel,33544,CHAPEL,+1 813-991-7220,https://www.ulta.com/stores/wesley-chapel-fl-253
Ulta Beauty,1424,363 North Congress Avenue,Boynton Beach,33426,BEACH,+1 561-903-2003,https://www.ulta.com/stores/boynton-beach-fl-1424
Ulta Beauty,1333,243 West Alexander Street,Plant City,33563,CITY,+1 813-659-3792,https://www.ulta.com/stores/plant-city-fl-1333
Ulta Beauty,1078,1736 US Hwy 27 N,Sebring,33870,FL,+1 863-471-0381,https://www.ulta.com/stores/sebring-fl-1078
Ulta Beauty,731,1636 South Federal Highway,Delray Beach,33483,BEACH,+1 561-274-2788,https://www.ulta.com/stores/delray-beach-fl-731
Ulta Beauty,665,1278 South Amity Road,Conway,72032,AR,+1 501-504-2533,https://www.ulta.com/stores/conway-ar-665
Ulta Beauty,1745,21601 Village Lakes Shopping Center Drive,Land O' Lakes,34639,O,+1 656-221-0013,https://www.ulta.com/stores/land-o-lakes-fl-1745
Ulta Beauty,1521,13810 East Indiana Avenue,Spokane Valley,99216,VALLEY,+1 509-960-6384,https://www.ulta.com/stores/spokane-valley-wa-1521
Ulta Beauty,417,"3835 Mall Avenue, Ste 2",Fayetteville,72703,AR,+1 479-575-9298,https://www.ulta.com/stores/fayetteville-ar-417
Ulta Beauty,1545,5504 North Division Street,Spokane,99208,WA,+1 509-489-0125,https://www.ulta.com/stores/spokane-wa-1545
Ulta Beauty,666,465 Newport Road,Casper,82609,WY,+1 307-234-9069,https://www.ulta.com/stores/casper-wy-666
Ulta Beauty,1210,15732 North Dale Mabry Highway,Tampa,33618,FL,+1 813-264-7026,https://www.ulta.com/stores/tampa-fl-1210
Ulta Beauty,1335,8976 Strength Avenue,Trinity,34655,FL,+1 727-842-9036,https://www.ulta.com/stores/trinity-fl-1335
Ulta Beauty,437,2442 West Brandon Boulevard,Brandon,33511,FL,+1 813-651-2768,https://www.ulta.com/stores/brandon-fl-437
Ulta Beauty,780,2743 Lakewood Village Drive,North Little Rock,72116,LITTLE,+1 501-771-0626,https://www.ulta.com/stores/north-little-rock-ar-780
Ulta Beauty,578,9882 Glades Road,Boca Raton,33434,RATON,+1 561-482-9050,https://www.ulta.com/stores/boca-raton-fl-578
Ulta Beauty,1003,3820 West Hillsboro Boulevard,Deerfield Beach,33442,BEACH,+1 954-570-9628,https://www.ulta.com/stores/deerfield-beach-fl-1003
Ulta Beauty,1358,"2431 North Federal Highway, Spc 101",Pompano Beach,33064,BEACH,+1 954-946-3153,https://www.ulta.com/stores/pompano-beach-fl-1358
Ulta Beauty,153,12715 Citrus Plaza Drive,Tampa,33625,FL,+1 813-926-7110,https://www.ulta.com/stores/tampa-fl-153
Ulta Beauty,1612,"133 South Frontage Road, Ste 106",Meridian,39301,MS,+1 601-685-3028,https://www.ulta.com/stores/meridian-ms-1612
Ulta Beauty,1178,40960 19,Tarpon Springs,34689,SPRINGS,+1 727-934-7980,https://www.ulta.com/stores/tarpon-springs-fl-1178
Ulta Beauty,610,"207 North University Avenue, Ste 170",Little Rock,72205,ROCK,+1 501-660-4096,https://www.ulta.com/stores/little-rock-ar-610
Ulta Beauty,576,4601 North University Drive,Coral Springs,33067,SPRINGS,+1 954-757-6981,https://www.ulta.com/stores/coral-springs-fl-576
Ulta Beauty,1627,"1702 North Dale Mabry Highway, Space 1702A",Tampa,33607,FL,+1 813-692-9246,https://www.ulta.com/stores/tampa-fl-1627
Ulta Beauty,1248,2734 Greenwich Court,Wichita,67226,KS,+1 316-636-9016,https://www.ulta.com/stores/wichita-ks-1248
Ulta Beauty,1365,554 Hawkins Avenue,Panama City,32405,CITY,+1 850-740-0027,https://www.ulta.com/stores/panama-city-fl-1365
Ulta Beauty,385,1746 North Federal Highway,Fort Lauderdale,33305,LAUDERDALE,+1 954-390-7458,https://www.ulta.com/stores/fort-lauderdale-fl-385
Ulta Beauty,1378,3142 Tampa Road,Oldsmar,34677,FL,+1 727-205-1736,https://www.ulta.com/stores/oldsmar-fl-1378
Ulta Beauty,1595,12801-C Chenal Parkway,Little Rock,72211,ROCK,+1 501-441-6190,https://www.ulta.com/stores/little-rock-ar-1595
Ulta Beauty,1231,1500 East 11th Avenue,Hutchinson,67501,KS,+1 620-662-2316,https://www.ulta.com/stores/hutchinson-ks-1231
Ulta Beauty,481,"8141 East Kellogg Drive, Ste 138",Wichita,67207,KS,+1 316-684-1116,https://www.ulta.com/stores/wichita-ks-481
Ulta Beauty,1707,"2680 S Ferdon Blvd, Unit 105",Crestview,32539,FL,+1 448-844-6870,https://www.ulta.com/stores/crestview-fl-1707
Ulta Beauty,1349,"15600 Panama City Beach Parkway, Unit 240",Panama City Beach,32413,CITY,+1 850-235-1127,https://www.ulta.com/stores/panama-city-beach-fl-1349
Ulta Beauty,531,2683 Gulf to Bay Boulevard,Clearwater,33759,FL,+1 727-724-6498,https://www.ulta.com/stores/clearwater-fl-531
Ulta Beauty,1372,1760 South Bearing Street,Dania Beach,33004,BEACH,+1 954-342-6439,https://www.ulta.com/stores/dania-beach-fl-1372
Ulta Beauty,581,1950 South University Drive,Davie,33324,FL,+1 954-916-0433,https://www.ulta.com/stores/davie-fl-581
Ulta Beauty,472,"2441 North Maize Road, Ste 2101",Wichita,67205,KS,+1 316-729-5566,https://www.ulta.com/stores/wichita-ks-472
Ulta Beauty,1502,1924 North Rock Road,Derby,67037,KS,+1 316-330-4719,https://www.ulta.com/stores/derby-ks-1502
Ulta Beauty,448,21065 Biscayne Boulevard,Aventura,33180,FL,+1 305-466-1478,https://www.ulta.com/stores/aventura-fl-448
Ulta Beauty,1318,2423 Southeast Adams Boulevard,Bartlesville,74006,OK,+1 918-331-9817,https://www.ulta.com/stores/bartlesville-ok-1318
Ulta Beauty,1260,20420 Interstate 30 Frontage Road,Benton,72019,AR,+1 501-794-5822,https://www.ulta.com/stores/benton-ar-1260
Ulta Beauty,1347,14791 Biscayne Boulevard,North Miami Beach,33181,MIAMI,+1 305-956-3865,https://www.ulta.com/stores/north-miami-beach-fl-1347
Ulta Beauty,1211,7976 113th Street,Seminole,33772,FL,+1 727-319-0094,https://www.ulta.com/stores/seminole-fl-1211
Ulta Beauty,161,11850 Pines Boulevard,Pembroke Pines,33026,PINES,+1 954-438-6330,https://www.ulta.com/stores/pembroke-pines-fl-161
Ulta Beauty,1696,2030 Tyrone Boulevard North,St. Petersburg,33710,PETERSBURG,+1 727-610-2125,https://www.ulta.com/stores/st-petersburg-fl-1696
Ulta Beauty,1373,"15855 Pines Boulevard, Unit 104",Pembroke Pines,33027,PINES,+1 954-342-0929,https://www.ulta.com/stores/pembroke-pines-fl-1373
Ulta Beauty,325,"34940 Emerald Coast Parkway, Unit 120",Destin,32541,FL,+1 850-654-1364,https://www.ulta.com/stores/destin-fl-325
Ulta Beauty,1737,8900 US-301 N,Parrish,34219,FL,+1 941-842-4501,https://www.ulta.com/stores/parrish-fl-1737
Ulta Beauty,1588,3773 West 85th Path,Hialeah,33018,FL,+1 224-310-2156,https://www.ulta.com/stores/hialeah-fl-1588
Ulta Beauty,1458,"99 Eglin Parkway Northeast, Ste 1B",Fort Walton Beach,32548,WALTON,+1 850-533-8010,https://www.ulta.com/stores/fort-walton-beach-fl-1458
Ulta Beauty,1647,"1440 Northwest North River Drive, STE 240",Miami,33125,FL,+1 305-704-6811,https://www.ulta.com/stores/miami-fl-1647
Ulta Beauty,282,103 North Cattlemen Road,Sarasota,34243,FL,+1 941-351-6037,https://www.ulta.com/stores/sarasota-fl-282
Ulta Beauty,1538,7110 Cortez Road West,Bradenton,34210,FL,+1 941-253-3505,https://www.ulta.com/stores/bradenton-fl-1538
Ulta Beauty,1077,"10001 West Flagler Street, Ste 500",Miami,33174,FL,+1 305-227-5728,https://www.ulta.com/stores/miami-fl-1077
Ulta Beauty,1293,1 Bellis Fair Parkway,Bellingham,98226,WA,+1 360-671-6004,https://www.ulta.com/stores/bellingham-wa-1293
Ulta Beauty,1111,"4877 Caroline Street, U.S. 90",Milton,32571,FL,+1 850-889-8042,https://www.ulta.com/stores/pace-fl-1111
Ulta Beauty,1438,"9018 North 121st East Avenue, Ste 500",Owasso,74055,OK,+1 918-973-6449,https://www.ulta.com/stores/owasso-ok-1438
Ulta Beauty,1348,11751 South Dixie Highway,Miami,33156,FL,+1 305-969-8029,https://www.ulta.com/stores/pinecrest-fl-1348
Ulta Beauty,758,18395 Tamiami Trail,North Port,34287,PORT,+1 941-423-3918,https://www.ulta.com/stores/north-port-fl-758
Ulta Beauty,160,12054 Southwest 88th Street,Miami,33186,FL,+1 305-598-2440,https://www.ulta.com/stores/miami-fl-160
Ulta Beauty,1196,8240 South Tamiami Trail,Sarasota,34238,FL,+1 941-966-0275,https://www.ulta.com/stores/sarasota-fl-1196
Ulta Beauty,1235,1730 West Pullman Road,Moscow,83843,ID,+1 208-882-1578,https://www.ulta.com/stores/moscow-id-1235
Ulta Beauty,236,3985 Phoenix Avenue,Fort Smith,72903,SMITH,+1 479-646-7236,https://www.ulta.com/stores/fort-smith-ar-236
Ulta Beauty,1368,231 Cornerstone Boulevard,Hot Springs,71913,SPRINGS,+1 501-520-0617,https://www.ulta.com/stores/hot-springs-ar-1368
Ulta Beauty,1729,1677 U.S. 41 Bypass South,Venice,34293,FL,+1 941-837-5132,https://www.ulta.com/stores/venice-fl-1729
Ulta Beauty,596,1650 Airport Boulevard,Pensacola,32504,FL,+1 850-476-6211,https://www.ulta.com/stores/pensacola-fl-596
Ulta Beauty,1585,"9370 6 Mile Cypress Parkway, Unit #5",Fort Myers,33966,MYERS,+1 239-766-4107,https://www.ulta.com/stores/fort-myers-fl-1585
Ulta Beauty,477,175 Grandview Boulevard,Madison,39110,MS,+1 601-856-8882,https://www.ulta.com/stores/madison-ms-477
Ulta Beauty,1159,"1400 Dell Range Boulevard, Spc 83",Cheyenne,82009,WY,+1 307-634-5282,https://www.ulta.com/stores/cheyenne-wy-1159
Ulta Beauty,1251,1520 East Hillside Drive,Broken Arrow,74012,ARROW,+1 918-355-6834,https://www.ulta.com/stores/broken-arrow-ok-1251
Ulta Beauty,131,"4915 East 41st Street, Ste A",Tulsa,74135,OK,+1 918-664-5916,https://www.ulta.com/stores/tulsa-ok-131
Ulta Beauty,1109,709 West Shawnee Bypass,Muskogee,74401,OK,+1 918-683-1812,https://www.ulta.com/stores/muskogee-ok-1109
Ulta Beauty,1149,"2301 Del Prado Boulevard South, Ste 1070",Cape Coral,33990,CORAL,+1 239-458-3522,https://www.ulta.com/stores/cape-coral-fl-1149
Ulta Beauty,392,748 MacKenzie Lane,Flowood,39232,MS,+1 601-992-7422,https://www.ulta.com/stores/flowood-ms-392
Ulta Beauty,1113,"8722 East 71st Street, Ste 872",Tulsa,74133,OK,+1 918-250-9053,https://www.ulta.com/stores/tulsa-ok-1113
Ulta Beauty,151,"13499 South Cleveland Avenue, Ste 301",Fort Myers,33907,MYERS,+1 239-334-0659,https://www.ulta.com/stores/ft-myers-fl-151
Ulta Beauty,1593,"10002 Gulf Center Drive, Ste 130",Fort Myers,33913,MYERS,+1 239-766-4283,https://www.ulta.com/stores/fort-myers-fl-1593
Ulta Beauty,1401,2601 Northeast 10th Court,Homestead,33033,FL,+1 786-572-1112,https://www.ulta.com/stores/homestead-fl-1401
Ulta Beauty,1403,"10122 South Memorial Drive, Ste C",Tulsa,74133,OK,+1 918-970-4594,https://www.ulta.com/stores/tulsa-ok-1403
Ulta Beauty,390,7505 South Olympia Avenue,Tulsa,74132,OK,+1 918-447-0917,https://www.ulta.com/stores/tulsa-ok-390
Ulta Beauty,200,8054 Mediterranean Drive,Estero,33928,FL,+1 239-992-0361,https://www.ulta.com/stores/estero-fl-200
Ulta Beauty,1570,2638 Nez Perce Drive,Lewiston,83501,ID,+1 208-816-7475,https://www.ulta.com/stores/lewiston-id-1570
Ulta Beauty,508,"6850 90, Ste 11",Daphne,36526,AL,+1 251-621-9512,https://www.ulta.com/stores/daphne-al-508
Ulta Beauty,283,"9100 Strada Place, Ste 2105",Naples,34108,FL,+1 239-514-0151,https://www.ulta.com/stores/naples-fl-283
Ulta Beauty,1370,2334 Pine Ridge Road,Naples,34109,FL,+1 239-430-0353,https://www.ulta.com/stores/naples-fl-1370
Ulta Beauty,1513,1030 North Stratford Road,Moses Lake,98837,LAKE,+1 509-361-5245,https://www.ulta.com/stores/moses-lake-wa-1513
Ulta Beauty,1309,"2551 172nd Street Northeast, Ste 103",Marysville,98271,WA,+1 360-652-0702,https://www.ulta.com/stores/marysville-wa-1309
Ulta Beauty,1337,2532 South McKenzie Street,Foley,36535,AL,+1 251-272-7142,https://www.ulta.com/stores/foley-al-1337
Ulta Beauty,478,"3250 Airport Boulevard, Ste E32",Mobile,36606,AL,+1 251-450-2362,https://www.ulta.com/stores/mobile-al-478
Ulta Beauty,1128,"13100 Tamiami Trail East, Suite 101",Naples,34114,FL,+1 239-530-1210,https://www.ulta.com/stores/naples-fl-1128
Ulta Beauty,1346,1370 North Miller Street,Wenatchee,98801,WA,+1 509-662-1749,https://www.ulta.com/stores/wenatchee-wa-1346
Ulta Beauty,1351,"7765 Airport Boulevard, Ste 801",Mobile,36608,AL,+1 251-639-4728,https://www.ulta.com/stores/mobile-al-1351
Ulta Beauty,1508,621 9th Street Northeast,Lake Stevens,98258,STEVENS,+1 425-905-3238,https://www.ulta.com/stores/lake-stevens-wa-1508
Ulta Beauty,1252,"1000 Turtle Creek Drive, Ste 500",Hattiesburg,39402,MS,+1 601-296-6970,https://www.ulta.com/stores/hattiesburg-ms-1252
Ulta Beauty,625,"1402 Southeast Everett Mall Way, Ste 510",Everett,98208,WA,+1 425-265-7600,https://www.ulta.com/stores/everett-wa-625
Ulta Beauty,1740,"1302 Southeast Everett Mall Way, STE C",Everett,98208,WA,+1 888-888-8888,https://www.ulta.com/stores/everett-wa-1740
Ulta Beauty,564,601 North Main Street,Stillwater,74075,OK,+1 405-372-7142,https://www.ulta.com/stores/stillwater-ok-564
Ulta Beauty,180,"19401 Alderwood Mall Parkway, Ste 130",Lynnwood,98036,WA,+1 425-673-0405,https://www.ulta.com/stores/lynnwood-wa-180
Ulta Beauty,1033,4126 Centerplace Drive,Greeley,80634,CO,+1 970-330-0586,https://www.ulta.com/stores/greeley-co-1033
Ulta Beauty,333,4405 Corbett Drive,Fort Collins,80525,COLLINS,+1 970-266-4949,https://www.ulta.com/stores/fort-collins-co-333
Ulta Beauty,1336,1065 West Washington Street,Sequim,98382,WA,+1 360-809-6226,https://www.ulta.com/stores/sequim-wa-1336
Ulta Beauty,1168,"190 East Foothills Parkway, Unit 110",Fort Collins,80525,COLLINS,+1 970-282-1188,https://www.ulta.com/stores/fort-collins-co-1168
Ulta Beauty,1500,14019 Northeast Woodinville Duvall Road,Woodinville,98072,WA,+1 425-659-2820,https://www.ulta.com/stores/woodinville-wa-1500
Ulta Beauty,1384,"12632 Totem Lake Boulevard Northeast, Ste 144",Kirkland,98034,WA,+1 425-285-7131,https://www.ulta.com/stores/kirkland-wa-1384
Ulta Beauty,502,17170 Redmond Way,Redmond,98052,WA,+1 425-497-9117,https://www.ulta.com/stores/redmond-wa-502
Ulta Beauty,1234,4824 Thompson Parkway,Johnstown,80534,CO,+1 970-203-9663,https://www.ulta.com/stores/johnstown-co-1234
Ulta Beauty,1693,13201 Aurora Avenue North,Seattle,98133,WA,+1 206-367-3462,https://www.ulta.com/stores/seattle-wa-1693
Ulta Beauty,682,1480 Highlands Drive Northeast,Issaquah,98029,WA,+1 425-427-0508,https://www.ulta.com/stores/issaquah-wa-682
Ulta Beauty,1289,"4408 West Owen K Garriott Road, Ste A",Enid,73703,OK,+1 580-234-5804,https://www.ulta.com/stores/enid-ok-1289
Ulta Beauty,1017,4036 Factoria Square Mall Southeast,Bellevue,98006,WA,+1 425-643-2666,https://www.ulta.com/stores/bellevue-wa-1017
Ulta Beauty,525,1670 Lareu Street,Garden City,67846,CITY,+1 620-276-3734,https://www.ulta.com/stores/garden-city-ks-525
Ulta Beauty,1133,"11066 Pacific Crest Place NW, Ste A120",Silverdale,98383,WA,+1 360-204-5169,https://www.ulta.com/stores/silverdale-wa-1133
Ulta Beauty,1180,"815 North 10th Street, Bldg 201",Renton,98056,WA,+1 425-255-0317,https://www.ulta.com/stores/renton-wa-1180
Ulta Beauty,1310,"2600 Southwest Barton Street, Ste B18",Seattle,98126,WA,+1 206-937-0622,https://www.ulta.com/stores/seattle-wa-1310
Ulta Beauty,407,"3869 Promenade Parkway, Ste B",D'Iberville,39540,MS,+1 228-392-1562,https://www.ulta.com/stores/diberville-ms-407
Ulta Beauty,1123,1967 South 25th East,Ammon,83406,ID,+1 208-227-0303,https://www.ulta.com/stores/ammon-id-1123
Ulta Beauty,191,17320 Southcenter Parkway,Tukwila,98188,WA,+1 206-575-1444,https://www.ulta.com/stores/tukwila-wa-191
Ulta Beauty,1222,1634 West Poplar Street,Walla Walla,99362,WALLA,+1 509-956-3167,https://www.ulta.com/stores/walla-walla-wa-1222
Ulta Beauty,252,"210 Ken Pratt Boulevard, Ste 160",Longmont,80501,CO,+1 303-776-0354,https://www.ulta.com/stores/longmont-co-252
Ulta Beauty,1319,"27339 Covington Way Southeast, Bldg A",Covington,98042,WA,+1 253-631-0300,https://www.ulta.com/stores/covington-wa-1319
Ulta Beauty,509,"4429 Pecanland Mall Drive, Ste 8",Monroe,71203,LA,+1 318-361-0984,https://www.ulta.com/stores/monroe-la-509
Ulta Beauty,1320,2287 Prairie Center Parkway,Brighton,80601,CO,+1 303-659-9091,https://www.ulta.com/stores/brighton-co-1320
Ulta Beauty,1194,15224 Crossroads Parkway,Gulfport,39503,MS,+1 228-831-8130,https://www.ulta.com/stores/gulfport-ms-1194
Ulta Beauty,1466,"1101 Outlet Collection Way, Ste 1060",Auburn,98001,WA,+1 253-258-3398,https://www.ulta.com/stores/auburn-wa-1466
Ulta Beauty,1006,1800 South 320th Street,Federal Way,98003,WAY,+1 253-839-1439,https://www.ulta.com/stores/federal-way-wa-1006
Ulta Beauty,1692,1232 North Columbia Center Boulevard,Kennewick,99336,WA,+1 509-783-1083,https://www.ulta.com/stores/kennewick-wa-1692
Ulta Beauty,1317,2911 Queensgate Drive,Richland,99352,WA,+1 509-627-5105,https://www.ulta.com/stores/richland-wa-1317
Ulta Beauty,540,14521 Orchard Parkway,Westminster,80023,CO,+1 303-452-3634,https://www.ulta.com/stores/westminster-co-540
Ulta Beauty,1085,"4850 Marketplace Boulevard, Suite 1100",Shawnee,74804,OK,+1 405-878-8550,https://www.ulta.com/stores/shawnee-ok-1085
Ulta Beauty,1717,"2530 Arapahoe Avenue, Ste 150",Boulder,80302,CO,+1 720-880-6567,https://www.ulta.com/stores/boulder-co-1717
Ulta Beauty,1586,"5500 Olympic Dr NW, Space B102",Gig Harbor,98335,HARBOR,+1 253-265-5053,https://www.ulta.com/stores/gig-harbor-wa-1586
Ulta Beauty,1116,530 Marshall Road,Superior,80027,CO,+1 303-494-1034,https://www.ulta.com/stores/superior-co-1116
Ulta Beauty,1245,310 South Bryant Avenue,Edmond,73034,OK,+1 405-330-3780,https://www.ulta.com/stores/edmond-ok-1245
Ulta Beauty,394,1734 East Washington Avenue,Union Gap,98903,GAP,+1 509-457-7280,https://www.ulta.com/stores/union-gap-wa-394
Ulta Beauty,789,9320 Sheridan Boulevard,Westminster,80031,CO,+1 303-429-1705,https://www.ulta.com/stores/westminster-co-789
Ulta Beauty,1484,"8560 Northfield Boulevard, Unit 1930",Denver,80238,CO,+1 720-710-2901,https://www.ulta.com/stores/denver-co-1484
Ulta Beauty,1032,"3500 South Meridian, Ste 510",Puyallup,98373,WA,+1 253-445-7360,https://www.ulta.com/stores/puyallup-wa-1032
Ulta Beauty,1550,"4502 South Steele Street, Ste 1660",Tacoma,98409,WA,+1 253-317-2978,https://www.ulta.com/stores/tacoma-wa-1550
Ulta Beauty,1027,"1150 South Ironton Street, Unit 110",Aurora,80012,CO,+1 303-745-2640,https://www.ulta.com/stores/aurora-co-1027
Ulta Beauty,128,2340 West Memorial Road,Oklahoma City,73134,CITY,+1 405-302-4900,https://www.ulta.com/stores/oklahoma-city-ok-128
Ulta Beauty,1658,"23901 East Orchard Road, STE F",Aurora,80016,CO,+1 303-627-0060,https://www.ulta.com/stores/aurora-co-1658
Ulta Beauty,1050,3347 Mall Drive,Texarkana,75503,TX,+1 903-831-0043,https://www.ulta.com/stores/texarkana-tx-1050
Ulta Beauty,1518,1222 Woodward Avenue,Ruston,71270,LA,+1 318-257-8445,https://www.ulta.com/stores/ruston-la-1518
Ulta Beauty,554,16908 Meridian Avenue East,South Hill,98375,WA,+1 253-445-6932,https://www.ulta.com/stores/puyallup-wa-554
Ulta Beauty,1419,7420 West 52nd Avenue,Arvada,80002,CO,+1 303-422-1839,https://www.ulta.com/stores/arvada-co-1419
Ulta Beauty,1581,10310 59th Avenue Southwest,Lakewood,98499,WA,+1 253-527-5456,https://www.ulta.com/stores/lakewood-wa-1581
Ulta Beauty,70,"2780 South Colorado Boulevard, Unit 310",Denver,80222,CO,+1 303-756-7989,https://www.ulta.com/stores/denver-co-70
Ulta Beauty,1185,1700 Belle Isle Boulevard,Oklahoma City,73118,CITY,+1 405-840-7807,https://www.ulta.com/stores/oklahoma-city-ok-1185
Ulta Beauty,1267,"3600 Youngfield Street, Ste 120",Wheat Ridge,80033,RIDGE,+1 720-699-9451,https://www.ulta.com/stores/wheat-ridge-co-1267
Ulta Beauty,414,"15800 East Briarwood Circle, Ste A",Aurora,80016,CO,+1 303-680-6033,https://www.ulta.com/stores/aurora-co-414
Ulta Beauty,357,7209 Southeast 29th Street,Midwest City,73110,CITY,+1 405-739-0410,https://www.ulta.com/stores/midwest-city-ok-357
Ulta Beauty,95,489 South Wadsworth Boulevard,Lakewood,80226,CO,+1 303-984-0202,https://www.ulta.com/stores/lakewood-co-95
Ulta Beauty,1731,8337 North Rockwell Avenue,Oklahoma City,73132,CITY,+1 405-956-3402,https://www.ulta.com/stores/oklahoma-city-ok-1731
Ulta Beauty,58,8368 Willow Street,Littleton,80126,CO,+1 303-706-9611,https://www.ulta.com/stores/littleton-co-58
Ulta Beauty,280,6417 Southwest 3rd Street,Oklahoma City,73128,CITY,+1 405-491-6223,https://www.ulta.com/stores/oklahoma-city-ok-280
Ulta Beauty,429,5284 South Wadsworth Boulevard,Littleton,80123,CO,+1 303-973-7244,https://www.ulta.com/stores/littleton-co-429
Ulta Beauty,774,"7301 South Santa Fe Drive, Unit 530",Littleton,80120,CO,+1 303-797-9511,https://www.ulta.com/stores/littleton-co-774
Ulta Beauty,1441,1230 Marvin Road Northeast,Lacey,98516,WA,+1 360-338-6797,https://www.ulta.com/stores/lacey-wa-1441
Ulta Beauty,1264,"12444 Northwest 10th Street, Ste 601",Yukon,73099,OK,+1 405-324-2234,https://www.ulta.com/stores/yukon-ok-1264
Ulta Beauty,1548,"790 Southwest 19th Street, Ste B",Moore,73160,OK,+1 405-977-1166,https://www.ulta.com/stores/moore-ok-1548
Ulta Beauty,1146,"6378 Promenade Parkway, Unit 300",Castle Rock,80108,ROCK,+1 303-663-9166,https://www.ulta.com/stores/castle-rock-co-1146
Ulta Beauty,1689,"2441 Foothill Boulevard, STE 1149",Rock Springs,82901,SPRINGS,+1 307-212-8549,https://www.ulta.com/stores/rock-springs-wy-1689
Ulta Beauty,1031,"2915 Harrison Avenue Northwest, Ste 255",Olympia,98502,WA,+1 360-352-0496,https://www.ulta.com/stores/olympia-wa-1031
Ulta Beauty,444,1620 24th Avenue Northwest,Norman,73069,OK,+1 405-307-9358,https://www.ulta.com/stores/norman-ok-444
Ulta Beauty,312,230 Town Center Parkway,Slidell,70458,LA,+1 985-781-8971,https://www.ulta.com/stores/slidell-la-312
Ulta Beauty,533,69276 21,Covington,70433,LA,+1 985-871-8853,https://www.ulta.com/stores/covington-la-533
Ulta Beauty,727,4150 Yellowstone Avenue,Pocatello,83202,ID,+1 208-238-5777,https://www.ulta.com/stores/pocatello-id-727
Ulta Beauty,373,2026 Hammond Square Drive,Hammond,70403,LA,+1 985-345-2096,https://www.ulta.com/stores/hammond-la-373
Ulta Beauty,468,2745 Beene Boulevard,Bossier City,71111,CITY,+1 318-746-2790,https://www.ulta.com/stores/bossier-city-la-468
Ulta Beauty,1723,3562 Lamar Avenue,Paris,75460,TX,+1 430-228-8608,https://www.ulta.com/stores/paris-tx-1723
Ulta Beauty,133,"1845 Briargate Parkway, Ste 407",Colorado Springs,80920,SPRINGS,+1 719-548-9895,https://www.ulta.com/stores/colorado-springs-co-133
Ulta Beauty,779,3153 Cinema Point,Colorado Springs,80922,SPRINGS,+1 719-574-6042,https://www.ulta.com/stores/colorado-springs-co-779
Ulta Beauty,344,7467 Youree Drive,Shreveport,71105,LA,+1 318-797-2013,https://www.ulta.com/stores/shreveport-la-344
Ulta Beauty,1536,"2120 Southgate Road, Ste 110",Colorado Springs,80906,SPRINGS,+1 719-374-9052,https://www.ulta.com/stores/colorado-springs-co-1536
Ulta Beauty,699,"2900 South Claiborne Avenue, Ste 400",New Orleans,70125,ORLEANS,+1 504-891-4323,https://www.ulta.com/stores/new-orleans-la-699
Ulta Beauty,1762,1500 Westbank Expressway,Harvey,70058,LA,+1 888-888-8888,https://www.ulta.com/stores/harvey-la-1762
Ulta Beauty,463,"10129 Crossing Way, Ste 410",Denham Springs,70726,SPRINGS,+1 225-791-2946,https://www.ulta.com/stores/denham-springs-la-463
Ulta Beauty,529,"1126 South Clearview Parkway, Ste A",Elmwood,70123,LA,+1 504-731-6628,https://www.ulta.com/stores/harahan-la-529
Ulta Beauty,1439,"7445 Corporate Boulevard, Ste 500",Baton Rouge,70809,ROUGE,+1 225-800-3457,https://www.ulta.com/stores/baton-rouge-la-1439
Ulta Beauty,337,"9330 Mall of Louisiana Boulevard, Ste 400",Baton Rouge,70810,ROUGE,+1 225-769-2237,https://www.ulta.com/stores/baton-rouge-la-337
Ulta Beauty,1015,"3435 Masonic Drive, Ste 1236",Alexandria,71301,LA,+1 318-443-7016,https://www.ulta.com/stores/alexandria-la-1015
Ulta Beauty,1556,"115 South Airline Highway, Ste C",Gonzales,70737,LA,+1 225-725-0876,https://www.ulta.com/stores/gonzales-la-1556
Ulta Beauty,1141,1215 12th Avenue Northwest,Ardmore,73401,OK,+1 580-490-3514,https://www.ulta.com/stores/ardmore-ok-1141
Ulta Beauty,1255,5925 North Elizabeth Street,Pueblo,81008,CO,+1 719-253-1968,https://www.ulta.com/stores/pueblo-co-1255
Ulta Beauty,415,"3096 North Eastman Road, Ste 105",Longview,75605,TX,+1 903-663-8693,https://www.ulta.com/stores/longview-tx-415
Ulta Beauty,759,"200 Triangle Shopping Center, Suite 260",Longview,98632,WA,+1 360-425-0169,https://www.ulta.com/stores/longview-wa-759
Ulta Beauty,1208,4115 North Highway 75,Sherman,75090,TX,+1 903-421-0053,https://www.ulta.com/stores/sherman-tx-1208
Ulta Beauty,517,"1050 North Main Street, Ste 110",Logan,84341,UT,+1 435-753-7970,https://www.ulta.com/stores/logan-ut-517
Ulta Beauty,1760,"49 East 400 North, Ste 130",Logan,84321,UT,+1 435-753-7970,https://www.ulta.com/stores/logan-ut-1760
Ulta Beauty,574,542 North Milwaukee Street,Boise,83704,ID,+1 208-375-7472,https://www.ulta.com/stores/boise-id-574
Ulta Beauty,1269,"2330 North Eagle Road, Ste 1003",Meridian,83646,ID,+1 208-895-0988,https://www.ulta.com/stores/meridian-id-1269
Ulta Beauty,1822,244 East 5th Street North,Burley,83318,ID,+1 888-888-8888,https://www.ulta.com/stores/burley-id-1822
Ulta Beauty,1229,135 East Meadows Drive,Glenwood Springs,81601,SPRINGS,+1 970-945-5941,https://www.ulta.com/stores/glenwood-springs-co-1229
Ulta Beauty,678,295 Northwest 2nd Street,Lawton,73507,OK,+1 580-354-9027,https://www.ulta.com/stores/lawton-ok-678
Ulta Beauty,460,16475 North Marketplace Boulevard,Nampa,83687,ID,+1 208-467-0982,https://www.ulta.com/stores/nampa-id-460
Ulta Beauty,1589,"1735 Martin Luther King Jr. Boulevard, Unit #60",Houma,70360,LA,+1 985-872-3753,https://www.ulta.com/stores/houma-la-1589
Ulta Beauty,1076,"2017 U.S. Hwy 191, U.S. 40",Vernal,84078,UT,+1 435-781-8185,https://www.ulta.com/stores/vernal-ut-1076
Ulta Beauty,1044,1951 Fillmore Street,Twin Falls,83301,FALLS,+1 208-733-1622,https://www.ulta.com/stores/twin-falls-id-1044
Ulta Beauty,769,8700 Northeast Vancouver Mall Drive,Vancouver,98662,WA,+1 360-883-5452,https://www.ulta.com/stores/vancouver-wa-769
Ulta Beauty,233,16521 Southeast Mill Plain Boulevard,Vancouver,98684,WA,+1 360-896-4397,https://www.ulta.com/stores/vancouver-wa-233
Ulta Beauty,1404,10245 Northeast Cascades Parkway,Portland,97220,OR,+1 503-288-3620,https://www.ulta.com/stores/portland-or-1404
Ulta Beauty,708,1500 North Tomahawk Island Drive,Portland,97217,OR,+1 503-283-7059,https://www.ulta.com/stores/portland-or-708
Ulta Beauty,765,"3215 Louisiana Avenue, Ste 104",Lafayette,70501,LA,+1 337-232-1252,https://www.ulta.com/stores/lafayette-la-765
Ulta Beauty,230,1751 North Central Expressway,McKinney,75070,TX,+1 972-542-9192,https://www.ulta.com/stores/mckinney-tx-230
Ulta Beauty,322,839 Northwest 12th Street,Gresham,97030,OR,+1 503-665-6838,https://www.ulta.com/stores/gresham-or-322
Ulta Beauty,1330,1031 South Preston Road,Prosper,75078,TX,+1 972-346-5929,https://www.ulta.com/stores/prosper-tx-1330
Ulta Beauty,391,5510 South Broadway Avenue,Tyler,75703,TX,+1 903-581-7318,https://www.ulta.com/stores/tyler-tx-391
Ulta Beauty,1583,"190 East Stacy Road, Ste 2680",Allen,75002,TX,+1 972-886-4180,https://www.ulta.com/stores/allen-tx-1583
Ulta Beauty,1474,"4243 Ambassador Caffery Parkway, Ste 116",Lafayette,70508,LA,+1 337-545-2207,https://www.ulta.com/stores/lafayette-la-1474
Ulta Beauty,493,11040 Northeast Evergreen Parkway,Beaverton,97006,OR,+1 503-466-0206,https://www.ulta.com/stores/beaverton-or-493
Ulta Beauty,1579,"12000 Southeast 82nd Avenue, Spc L121",Happy Valley,97086,OR,+1 971-377-1890,https://www.ulta.com/stores/portland-or-1579
Ulta Beauty,188,"3255 Southwest Cedar Hills Boulevard, Ste 150",Beaverton,97005,OR,+1 503-643-7080,https://www.ulta.com/stores/beaverton-or-188
Ulta Beauty,1126,"4995 Eldorado Parkway, Ste 300",Frisco,75034,TX,+1 469-362-8201,https://www.ulta.com/stores/frisco-tx-1126
Ulta Beauty,1489,"3340 Farm to Market Road 544, Ste 890",Wylie,75098,TX,+1 469-991-5917,https://www.ulta.com/stores/wylie-tx-1489
Ulta Beauty,270,999 East Interstate 30,Rockwall,75087,TX,+1 972-772-5014,https://www.ulta.com/stores/rockwall-tx-270
Ulta Beauty,1053,10206 Southwest Washington Square Road,Tigard,97223,OR,+1 503-431-2227,https://www.ulta.com/stores/tigard-or-1053
Ulta Beauty,371,4249 Riverdale Road,Ogden,84405,UT,+1 801-621-4639,https://www.ulta.com/stores/riverdale-ut-371
Ulta Beauty,98,3333 Preston Road,Frisco,75034,TX,+1 972-668-4171,https://www.ulta.com/stores/frisco-tx-98
Ulta Beauty,491,180 Cedar Sage Drive,Garland,75040,TX,+1 972-495-0100,https://www.ulta.com/stores/garland-tx-491
Ulta Beauty,87,"721 Central Expressway, Ste 300",Plano,75075,TX,+1 972-633-3853,https://www.ulta.com/stores/plano-tx-87
Ulta Beauty,258,7081 Southwest Nyberg Street,Tualatin,97062,OR,+1 503-692-1501,https://www.ulta.com/stores/tualatin-or-258
Ulta Beauty,586,"2400 Preston Road, Ste 300",Plano,75093,TX,+1 972-596-2839,https://www.ulta.com/stores/plano-tx-586
Ulta Beauty,446,"1800 South Loop 288, Ste 300",Denton,76205,TX,+1 940-566-5170,https://www.ulta.com/stores/denton-tx-446
Ulta Beauty,1052,"4750 Highway 121, Ste 100",The Colony,75056,TX,+1 469-362-3602,https://www.ulta.com/stores/lewisville-tx-1052
Ulta Beauty,1704,2314 West University Drive,Denton,76201,TX,+1 940-758-7486,https://www.ulta.com/stores/denton-tx-1704
Ulta Beauty,1471,750 American Way,Terrell,75160,TX,+1 972-703-9001,https://www.ulta.com/stores/terrell-tx-1471
Ulta Beauty,1716,16637 Coit Road,Dallas,75248,TX,+1 469-310-0615,https://www.ulta.com/stores/dallas-tx-1716
Ulta Beauty,187,"5301 Belt Line Road, Ste 114",Dallas,75254,TX,+1 972-788-4071,https://www.ulta.com/stores/dallas-tx-187
Ulta Beauty,521,"2660 North Josey Lane, Ste 250",Carrollton,75007,TX,+1 972-242-2876,https://www.ulta.com/stores/carrollton-tx-521
Ulta Beauty,455,320 Station Parkway,Farmington,84025,UT,+1 801-451-8403,https://www.ulta.com/stores/farmington-ut-455
Ulta Beauty,1383,"1655 North Town East Boulevard, Ste 200",Mesquite,75150,TX,+1 972-270-6622,https://www.ulta.com/stores/mesquite-tx-1383
Ulta Beauty,1611,"13710 Dallas Parkway, Ste D",Dallas,75240,TX,+1 469-906-8745,https://www.ulta.com/stores/dallas-tx-1611
Ulta Beauty,1688,"11700 Preston Road, Ste 737",Dallas,75230,TX,+1 214-739-3091,https://www.ulta.com/stores/dallas-tx-1688
Ulta Beauty,1553,"9440 Garland Road, Ste 210",Dallas,75218,TX,+1 469-498-1740,https://www.ulta.com/stores/dallas-tx-1553
Ulta Beauty,1623,"420 East Round Grove Road, Ste 425",Lewisville,75067,TX,+1 469-455-2402,https://www.ulta.com/stores/lewisville-tx-1623
Ulta Beauty,275,"5801 Long Prairie Road, Ste 120",Flower Mound,75028,MOUND,+1 972-539-3762,https://www.ulta.com/stores/flower-mound-tx-275
Ulta Beauty,397,"8160 Park Lane, Ste 330",Dallas,75231,TX,+1 214-363-0638,https://www.ulta.com/stores/dallas-tx-397
Ulta Beauty,1311,"5550 West Lovers Lane, Ste 148",Dallas,75209,TX,+1 214-654-0852,https://www.ulta.com/stores/dallas-tx-1311
Ulta Beauty,365,"3201 Lawrence Road, Ste 200",Wichita Falls,76308,FALLS,+1 940-692-1163,https://www.ulta.com/stores/wichita-falls-tx-365
Ulta Beauty,402,7757 North MacArthur Boulevard,Irving,75063,TX,+1 972-409-6831,https://www.ulta.com/stores/irving-tx-402
Ulta Beauty,92,2900 East Southlake Boulevard,Southlake,76092,TX,+1 817-749-0582,https://www.ulta.com/stores/southlake-tx-92
Ulta Beauty,1703,"2230 Pacific Hwy W, 99W",McMinnville,97128,OR,+1 971-287-3490,https://www.ulta.com/stores/mcminnville-or-1703
Ulta Beauty,1083,"2901 Rio Grande Boulevard, Ste 600",Euless,76039,TX,+1 817-358-2073,https://www.ulta.com/stores/euless-tx-1083
Ulta Beauty,1056,1202 Brickyard Road,Salt Lake City,84106,LAKE,+1 801-466-9129,https://www.ulta.com/stores/salt-lake-city-ut-1056
Ulta Beauty,1188,4419 South Medford Drive,Lufkin,75901,TX,+1 936-632-5585,https://www.ulta.com/stores/lufkin-tx-1188
Ulta Beauty,305,9561 Sage Meadow Trail,Fort Worth,76177,WORTH,+1 817-750-1400,https://www.ulta.com/stores/fort-worth-tx-305
Ulta Beauty,1062,3579 Constitution Boulevard,West Valley City,84119,VALLEY,+1 801-966-0135,https://www.ulta.com/stores/west-valley-city-ut-1062
Ulta Beauty,94,880 Northeast Mall Boulevard,Hurst,76053,TX,+1 817-590-8057,https://www.ulta.com/stores/hurst-tx-94
Ulta Beauty,313,"632 Market Street, Ste 500",Grand Junction,81505,JUNCTION,+1 970-263-5440,https://www.ulta.com/stores/grand-junction-co-313
Ulta Beauty,557,120 Lincoln Square,Arlington,76011,TX,+1 817-459-2550,https://www.ulta.com/stores/arlington-tx-557
Ulta Beauty,767,"900 Fort Union Boulevard, # 52",Midvale,84047,UT,+1 801-566-0098,https://www.ulta.com/stores/midvale-ut-767
Ulta Beauty,1468,"3166 South State Highway 161, Ste 150",Grand Prairie,75052,PRAIRIE,+1 469-660-1713,https://www.ulta.com/stores/grand-prairie-tx-1468
Ulta Beauty,464,6361 Ulali Drive,Keizer,97303,OR,+1 503-393-2738,https://www.ulta.com/stores/keizer-or-464
Ulta Beauty,1668,416 FM 1382,Cedar Hill,75104,HILL,+1 972-291-3587,https://www.ulta.com/stores/cedar-hill-tx-1668
Ulta Beauty,398,"3736 Center Park Drive, Ste 110",West Jordan,84084,JORDAN,+1 801-280-7900,https://www.ulta.com/stores/west-jordan-ut-398
Ulta Beauty,205,"4000 Retail Connection Way, Ste 113",Arlington,76018,TX,+1 817-468-2244,https://www.ulta.com/stores/arlington-tx-205
Ulta Beauty,266,10409 South State Street,Sandy,84070,UT,+1 801-572-0382,https://www.ulta.com/stores/sandy-ut-266
Ulta Beauty,1413,"831 Lancaster Drive Northeast, Ste 181",Salem,97301,OR,+1 503-967-9783,https://www.ulta.com/stores/salem-or-1413
Ulta Beauty,1021,316 West Prien Lake Road,Lake Charles,70601,CHARLES,+1 337-478-1359,https://www.ulta.com/stores/lake-charles-la-1021
Ulta Beauty,1695,"367 Northwest Oak tree Lane, Ste 180",Redmond,97756,OR,+1 541-526-3988,https://www.ulta.com/stores/redmond-or-1695
Ulta Beauty,630,6612 Lake Worth Boulevard,Lake Worth,76135,WORTH,+1 817-238-2142,https://www.ulta.com/stores/lake-worth-tx-630
Ulta Beauty,1169,"1700 Dallas Highway, Ste 120",Waxahachie,75165,TX,+1 972-923-7761,https://www.ulta.com/stores/waxahachie-tx-1169
Ulta Beauty,740,"2041 U.S. 287 Frontage Road, Ste 815",Mansfield,76063,TX,+1 817-473-1682,https://www.ulta.com/stores/mansfield-tx-740
Ulta Beauty,1456,4654 Kestrel Range Road,Riverton,84096,UT,+1 385-247-1470,https://www.ulta.com/stores/riverton-ut-1456
Ulta Beauty,82,"3000 South Hulen Street, Ste 130",Fort Worth,76109,WORTH,+1 817-292-9575,https://www.ulta.com/stores/fort-worth-tx-82
Ulta Beauty,1350,"2000 663, unit 600",Midlothian,76065,TX,+1 972-775-5458,https://www.ulta.com/stores/midlothian-tx-1350
Ulta Beauty,1273,251 Meadow Lane,American Fork,84003,FORK,+1 801-492-3567,https://www.ulta.com/stores/american-fork-ut-1273
Ulta Beauty,622,303 East University Parkway,Orem,84097,UT,+1 801-225-1539,https://www.ulta.com/stores/orem-ut-622
Ulta Beauty,1673,881 North Redwood Road,Saratoga Springs,84045,SPRINGS,+1 385-993-3285,https://www.ulta.com/stores/saratoga-springs-ut-1673
Ulta Beauty,179,12864 South Freeway,Burleson,76028,TX,+1 817-426-4428,https://www.ulta.com/stores/burleson-tx-179
Ulta Beauty,1414,5553 Sierra Springs Lane,Fort Worth,76123,WORTH,+1 682-267-4080,https://www.ulta.com/stores/fort-worth-tx-1414
Ulta Beauty,1386,20500 Robal Lane,Bend,97701,OR,+1 541-633-4477,https://www.ulta.com/stores/bend-or-1386
Ulta Beauty,278,2814 South Soncy Road,Amarillo,79124,TX,+1 806-355-1176,https://www.ulta.com/stores/amarillo-tx-278
Ulta Beauty,1277,1259 Canyon Creek Parkway,Spanish Fork,84660,FORK,+1 801-798-7287,https://www.ulta.com/stores/spanish-fork-ut-1277
Ulta Beauty,347,"225 Adams Drive, Ste 215",Weatherford,76086,TX,+1 817-594-4634,https://www.ulta.com/stores/weatherford-tx-347
Ulta Beauty,791,"1550 Northwest 9th Street, Ste 107",Corvallis,97330,OR,+1 541-758-2004,https://www.ulta.com/stores/corvallis-or-791
Ulta Beauty,1470,1410 East US Highway 377,Granbury,76048,TX,+1 682-719-4370,https://www.ulta.com/stores/granbury-tx-1470
Ulta Beauty,224,"6155 Eastex Freeway, Ste C-350",Beaumont,77706,TX,+1 409-892-2083,https://www.ulta.com/stores/beaumont-tx-224
Ulta Beauty,1727,249A I-45,Huntsville,77340,TX,+1 936-400-7288,https://www.ulta.com/stores/huntsville-tx-1727
Ulta Beauty,1129,"3000 Gateway Street, Ste 222",Springfield,97477,OR,+1 541-746-5052,https://www.ulta.com/stores/springfield-or-1129
Ulta Beauty,1642,2735 West Washington Street,Stephenville,76401,TX,+1 254-335-0086,https://www.ulta.com/stores/stephenville-tx-1642
Ulta Beauty,1046,"2432 West Loop 340, Ste A",Waco,76711,TX,+1 254-662-9117,https://www.ulta.com/stores/waco-tx-1046
Ulta Beauty,259,2928 Interstate 45,Conroe,77303,TX,+1 936-494-4030,https://www.ulta.com/stores/conroe-tx-259
Ulta Beauty,1422,21524 Market Place Drive,New Caney,77357,CANEY,+1 281-747-3122,https://www.ulta.com/stores/new-caney-tx-1422
Ulta Beauty,1528,255 South Loop 336 West,Conroe,77304,TX,+1 936-283-5051,https://www.ulta.com/stores/conroe-tx-1528
Ulta Beauty,1473,"1900 Lake Woodlands Drive, Ste 800",The Woodlands,77380,WOODLANDS,+1 281-419-7405,https://www.ulta.com/stores/the-woodlands-tx-1473
Ulta Beauty,83,"20530 Eastex Fwy, U.S. 59",Humble,77338,TX,+1 281-548-0180,https://www.ulta.com/stores/humble-tx-83
Ulta Beauty,1236,2645 Mountain City Highway,Elko,89801,NV,+1 775-738-5972,https://www.ulta.com/stores/elko-nv-1236
Ulta Beauty,326,"1505 University Drive East, Ste 250",College Station,77840,STATION,+1 979-595-1000,https://www.ulta.com/stores/college-station-tx-326
Ulta Beauty,1175,"6345 Garth Road, Ste 130",Baytown,77521,TX,+1 281-691-6739,https://www.ulta.com/stores/baytown-tx-1175
Ulta Beauty,1239,"14275 East Sam Houston Parkway North, Bldg K",Houston,77044,TX,+1 281-454-2119,https://www.ulta.com/stores/houston-tx-1239
Ulta Beauty,566,"19507 North Freeway, Ste 600",Spring,77388,TX,+1 281-528-0024,https://www.ulta.com/stores/spring-tx-566
Ulta Beauty,1242,"6600 Spring Stuebner Road, Ste 148",Spring,77389,TX,+1 832-717-0267,https://www.ulta.com/stores/spring-tx-1242
Ulta Beauty,150,7744 Cypress Creek Parkway,Houston,77070,TX,+1 281-894-7182,https://www.ulta.com/stores/houston-tx-150
Ulta Beauty,539,"2112 Southwest H K Dodgen Loop, Ste 143A",Temple,76504,TX,+1 254-771-2079,https://www.ulta.com/stores/temple-tx-539
Ulta Beauty,536,5696 Fairmont Parkway,Pasadena,77505,TX,+1 281-991-1890,https://www.ulta.com/stores/pasadena-tx-536
Ulta Beauty,1331,"2857 Katy Freeway, Ste 110",Houston,77007,TX,+1 346-340-6667,https://www.ulta.com/stores/houston-tx-1331
Ulta Beauty,1412,417 Farm to Market Road 518 East,Kemah,77565,TX,+1 346-209-4201,https://www.ulta.com/stores/kemah-tx-1412
Ulta Beauty,1596,"4514 Dacoma Street, STE 100",Houston,77092,TX,+1 346-395-4932,https://www.ulta.com/stores/houston-tx-1596
Ulta Beauty,1140,"28702 Northwest Freeway, U.S. 290",Cypress,77433,TX,+1 281-758-1687,https://www.ulta.com/stores/cypress-tx-1140
Ulta Beauty,651,7036 6,Houston,77095,TX,+1 281-345-7708,https://www.ulta.com/stores/houston-tx-651
Ulta Beauty,618,3025 Kirby Drive,Houston,77098,TX,+1 713-807-7959,https://www.ulta.com/stores/houston-tx-618
Ulta Beauty,409,"4310 Buffalo Gap Road, # 31",Abilene,79606,TX,+1 325-691-1394,https://www.ulta.com/stores/abilene-tx-409
Ulta Beauty,1574,1441 Bay Area Boulevard,Webster,77598,TX,+1 281-557-1715,https://www.ulta.com/stores/webster-tx-1574
Ulta Beauty,149,5140 Richmond Avenue,Houston,77056,TX,+1 713-621-9120,https://www.ulta.com/stores/houston-tx-149
Ulta Beauty,403,"12850 Memorial Drive, Ste 1300",Houston,77024,TX,+1 713-331-0065,https://www.ulta.com/stores/houston-tx-403
Ulta Beauty,1490,"3120 Gulf Freeway South, Suite A",League City,77573,CITY,+1 346-289-2002,https://www.ulta.com/stores/league-city-tx-1490
Ulta Beauty,300,"201 East Central Texas Expressway, Ste 400",Harker Heights,76548,HEIGHTS,+1 254-690-1329,https://www.ulta.com/stores/harker-heights-tx-300
Ulta Beauty,232,6070 Marsha Sharp Freeway,Lubbock,79424,TX,+1 806-799-2212,https://www.ulta.com/stores/lubbock-tx-232
Ulta Beauty,1217,"2732 Eldridge Parkway, Ste D",Houston,77082,TX,+1 281-589-0644,https://www.ulta.com/stores/houston-tx-1217
Ulta Beauty,93,455 South Fry Road,Katy,77450,TX,+1 281-646-8808,https://www.ulta.com/stores/katy-tx-93
Ulta Beauty,165,3133 Silverlake Village Drive,Pearland,77584,TX,+1 713-436-6955,https://www.ulta.com/stores/pearland-tx-165
Ulta Beauty,1509,"2100 Northwest Stewart Parkway, Ste 180",Roseburg,97471,OR,+1 541-236-9557,https://www.ulta.com/stores/roseburg-or-1509
Ulta Beauty,1756,974 US Highway 290 East,Brenham,77833,TX,+1 979-525-0529,https://www.ulta.com/stores/brenham-tx-1756
Ulta Beauty,1281,"4601 East Main Street, Ste 1130",Farmington,87402,NM,+1 505-326-3010,https://www.ulta.com/stores/farmington-nm-1281
Ulta Beauty,664,3513 Zafarano Drive,Santa Fe,87507,FE,+1 505-424-3650,https://www.ulta.com/stores/santa-fe-nm-664
Ulta Beauty,1705,10435 Hwy 6,Missouri City,77459,CITY,+1 346-680-0019,https://www.ulta.com/stores/missouri-city-tx-1705
Ulta Beauty,1599,10359 W Grand Pkwy S,Richmond,77407,TX,+1 346-762-2027,https://www.ulta.com/stores/richmond-tx-1599
Ulta Beauty,567,5458 West Grand Parkway South,Richmond,77406,TX,+1 832-595-0546,https://www.ulta.com/stores/richmond-tx-567
Ulta Beauty,1543,"13574 University Boulevard, Ste 300",Sugar Land,77479,TX,+1 281-265-9304,https://www.ulta.com/stores/sugarland-tx-1543
Ulta Beauty,1735,26922 Farm to Market 1093,Richmond,77406,TX,+1 346-527-0576,https://www.ulta.com/stores/richmond-tx-1735
Ulta Beauty,571,23735 Brazos Town Crossing,Rosenberg,77471,TX,+1 832-595-8944,https://www.ulta.com/stores/rosenburg-tx-571
Ulta Beauty,1499,"1019 West University Avenue, Ste 1005",Georgetown,78628,TX,+1 737-245-0758,https://www.ulta.com/stores/georgetown-tx-1499
Ulta Beauty,1088,"19000 Limestone Commercial Drive, Ste 140",Pflugerville,78660,TX,+1 512-989-9921,https://www.ulta.com/stores/pfluerville-tx-1088
Ulta Beauty,91,"2701 Parker Drive, STE 900",Round Rock,78681,ROCK,+1 512-310-7051,https://www.ulta.com/stores/round-rock-tx-91
Ulta Beauty,1619,2870 South 6th Street,Klamath Falls,97603,FALLS,+1 458-232-1174,https://www.ulta.com/stores/klamath-falls-or-1619
Ulta Beauty,1230,"183A, Ste 100, Toll road",Cedar Park,78613,PARK,+1 512-259-1446,https://www.ulta.com/stores/cedar-park-tx-1230
Ulta Beauty,1380,"1102 332, Ste 1102",Lake Jackson,77566,JACKSON,+1 979-299-2356,https://www.ulta.com/stores/lake-jackson-tx-1380
Ulta Beauty,1089,10900 Lakeline Mall Drive,Austin,78717,TX,+1 512-250-8116,https://www.ulta.com/stores/austin-tx-1089
Ulta Beauty,75,"9607 Research Boulevard, Ste 600",Austin,78759,TX,+1 512-794-0708,https://www.ulta.com/stores/austin-tx-75
Ulta Beauty,1071,"753 Texas 71 Frontage Rd, Ste B",Bastrop,78602,TX,+1 512-332-0374,https://www.ulta.com/stores/bastrop-tx-1071
Ulta Beauty,497,25 Rossanley Drive,Medford,97501,OR,+1 541-773-2749,https://www.ulta.com/stores/medford-or-497
Ulta Beauty,374,"5207 Brodie Lane, Ste 180",Austin,78745,VALLEY,+1 512-891-1581,https://www.ulta.com/stores/sunset-valley-tx-374
Ulta Beauty,519,"12909 Shops Parkway, Ste 400",Bee Cave,78738,CAVE,+1 512-263-7085,https://www.ulta.com/stores/bee-cave-tx-519
Ulta Beauty,1125,"8810 Holly Avenue Northeast, Ste D",Albuquerque,87122,NM,+1 505-797-8458,https://www.ulta.com/stores/albuquerque-nm-1125
Ulta Beauty,1775,925 Northeast D Street,Grants Pass,97526,PASS,+1 458-257-9001,https://www.ulta.com/stores/grants-pass-or-1775
Ulta Beauty,271,"9500 Interstate 35, Building I",Austin,78748,TX,+1 512-292-1784,https://www.ulta.com/stores/austin-tx-271
Ulta Beauty,436,10000 Coors Boulevard Northwest,Albuquerque,87114,NM,+1 505-792-0834,https://www.ulta.com/stores/albuquerque-nm-436
Ulta Beauty,707,"2100 Louisiana Boulevard Northeast, Ste 320",Albuquerque,87110,NM,+1 505-872-8601,https://www.ulta.com/stores/albuquerque-nm-707
Ulta Beauty,1558,"3700 Las Estancias Way, Unit C",Albuquerque,87121,NM,+1 505-207-6623,https://www.ulta.com/stores/albuquerque-nm-1558
Ulta Beauty,500,"4001 Sunset Drive, Ste 1226",San Angelo,76904,ANGELO,+1 325-949-0948,https://www.ulta.com/stores/san-angelo-tx-500
Ulta Beauty,1561,"750 Barnes Drive, Ste 107",San Marcos,78666,MARCOS,+1 512-546-3339,https://www.ulta.com/stores/san-marcos-tx-1561
Ulta Beauty,652,221 Creekside Crossing,New Braunfels,78130,BRAUNFELS,+1 830-625-5718,https://www.ulta.com/stores/new-braunfels-tx-652
Ulta Beauty,317,"4511 North Midkiff Road, Ste C01A",Midland,79705,TX,+1 432-689-0369,https://www.ulta.com/stores/midland-tx-317
Ulta Beauty,1098,"22806 N U.S. Hwy 281, Ste 106",San Antonio,78258,ANTONIO,+1 210-481-9140,https://www.ulta.com/stores/san-antonio-tx-1098
Ulta Beauty,1719,"8344 Agora Parkway, Ste 100",Selma,78154,TX,+1 210-939-4650,https://www.ulta.com/stores/selma-tx-1719
Ulta Beauty,494,6317 Texas-191 Frontage,Odessa,79762,TX,+1 432-362-0287,https://www.ulta.com/stores/odessa-tx-494
Ulta Beauty,388,"1742 North Loop 1604 East, Ste 104",San Antonio,78232,ANTONIO,+1 210-495-0439,https://www.ulta.com/stores/san-antonio-tx-388
Ulta Beauty,216,17414 La Cantera Parkway,San Antonio,78257,ANTONIO,+1 210-877-9908,https://www.ulta.com/stores/san-antonio-tx-216
Ulta Beauty,361,"255 East Basse Road, Ste 1010",San Antonio,78209,ANTONIO,+1 210-824-5031,https://www.ulta.com/stores/san-antonio-tx-361
Ulta Beauty,1418,"11745 McDermott Freeway, Ste 701, Interstate 10",San Antonio,78230,ANTONIO,+1 210-694-4308,https://www.ulta.com/stores/san-antonio-tx-1418
Ulta Beauty,1165,"11657 Bandera Road, Ste 106",San Antonio,78250,ANTONIO,+1 210-647-7313,https://www.ulta.com/stores/san-antonio-tx-1165
Ulta Beauty,1047,"6065 Northwest Loop 410, Ste 196",San Antonio,78238,ANTONIO,+1 210-521-2784,https://www.ulta.com/stores/san-antonio-tx-1047
Ulta Beauty,307,"5347 West Loop 1604 North, Ste 109",San Antonio,78253,ANTONIO,+1 210-681-2077,https://www.ulta.com/stores/san-antonio-tx-307
Ulta Beauty,1066,"2310 Southwest Military Drive, Ste 230",San Antonio,78224,ANTONIO,+1 210-932-9388,https://www.ulta.com/stores/san-antonio-tx-1066
Ulta Beauty,1425,"415 Texas 1604 Loop, Suite 142",San Antonio,78253,ANTONIO,+1 210-874-5810,https://www.ulta.com/stores/san-antonio-tx-1425
Ulta Beauty,459,"15 South River Road, Ste 220",St. George,84790,GEORGE,+1 435-673-2180,https://www.ulta.com/stores/st-george-ut-459
Ulta Beauty,1238,900 Dana Drive,Redding,96003,CA,+1 530-722-9560,https://www.ulta.com/stores/redding-ca-1238
Ulta Beauty,203,177 Los Altos Parkway,Sparks,89436,NV,+1 775-626-5325,https://www.ulta.com/stores/sparks-nv-203
Ulta Beauty,1166,"5110 Mae Anne Avenue, Ste 601",Reno,89523,NV,+1 775-624-6201,https://www.ulta.com/stores/reno-nv-1166
Ulta Beauty,1167,"4891 Kietzke Lane, Ste A",Reno,89509,NV,+1 775-823-9128,https://www.ulta.com/stores/reno-nv-1167
Ulta Beauty,1534,"13985 South Virginia Street, Ste 800",Reno,89511,NV,+1 775-418-5949,https://www.ulta.com/stores/reno-nv-1534
Ulta Beauty,645,"3300 Broadway Street, Ste 15",Eureka,95501,CA,+1 707-441-9403,https://www.ulta.com/stores/eureka-ca-645
Ulta Beauty,405,"5488 South Padre Island Drive, Ste 5002",Corpus Christi,78411,CHRISTI,+1 361-985-7401,https://www.ulta.com/stores/corpus-christi-tx-405
Ulta Beauty,647,"911 Topsy Lane, Ste 228",Carson City,89705,CITY,+1 775-267-1176,https://www.ulta.com/stores/carson-city-nv-647
Ulta Beauty,1215,2068 Doctor Martin Luther King Junior Parkway,Chico,95928,CA,+1 530-891-7594,https://www.ulta.com/stores/chico-ca-1215
Ulta Beauty,1630,1560 South Riordan Ranch Street,Flagstaff,86001,AZ,+1 928-707-8532,https://www.ulta.com/stores/flagstaff-az-1630
Ulta Beauty,1724,2205 Veterans Boulevard,Del Rio,78840,RIO,+1 830-282-8975,https://www.ulta.com/stores/del-rio-tx-1724
Ulta Beauty,1064,2795 Bell Road,Auburn,95603,CA,+1 530-887-8905,https://www.ulta.com/stores/auburn-ca-1064
Ulta Beauty,1389,"1068 Harter Parkway, Ste A",Yuba City,95993,CITY,+1 530-822-9804,https://www.ulta.com/stores/yuba-city-ca-1389
Ulta Beauty,1104,"700 South Telshor Boulevard, Ste 1308",Las Cruces,88011,CRUCES,+1 575-522-5419,https://www.ulta.com/stores/las-cruces-nm-1104
Ulta Beauty,1344,"117 Ferrari Ranch Road, Ste 100",Lincoln,95648,CA,+1 916-581-4121,https://www.ulta.com/stores/lincoln-ca-1344
Ulta Beauty,1105,5120 Commons Drive,Rocklin,95677,CA,+1 916-660-9208,https://www.ulta.com/stores/rocklin-ca-1105
Ulta Beauty,103,"1232 Galleria Boulevard, Ste 100",Roseville,95678,CA,+1 916-780-1117,https://www.ulta.com/stores/roseville-ca-103
Ulta Beauty,1117,6341 North Decatur Boulevard,Las Vegas,89130,VEGAS,+1 702-396-3583,https://www.ulta.com/stores/las-vegas-nv-1117
Ulta Beauty,1161,6740 North Durango Drive,Las Vegas,89149,VEGAS,+1 702-395-0569,https://www.ulta.com/stores/las-vegas-nv-1161
Ulta Beauty,389,2381 Iron Point Road,Folsom,95630,CA,+1 916-984-7582,https://www.ulta.com/stores/folsom-ca-389
Ulta Beauty,301,2186 North Rainbow Boulevard,Las Vegas,89108,VEGAS,+1 702-631-3668,https://www.ulta.com/stores/las-vegas-nv-301
Ulta Beauty,124,5927 Sunrise Boulevard,Citrus Heights,95610,HEIGHTS,+1 916-535-0021,https://www.ulta.com/stores/citrus-heights-ca-124
Ulta Beauty,302,1864 Joe Battle Boulevard,El Paso,79936,PASO,+1 915-857-0632,https://www.ulta.com/stores/el-paso-tx-302
Ulta Beauty,1097,"300 West Lake Mead Parkway, Ste 130",Henderson,89015,NV,+1 702-565-2615,https://www.ulta.com/stores/henderson-nv-1097
Ulta Beauty,1191,519 North Stephanie Street,Henderson,89014,NV,+1 702-435-1038,https://www.ulta.com/stores/henderson-nv-1191
Ulta Beauty,546,"8889 Gateway Boulevard West, Ste 560",El Paso,79925,PASO,+1 915-595-6458,https://www.ulta.com/stores/el-paso-tx-546
Ulta Beauty,1774,1313 George Dieter Drive,El Paso,79936,PASO,+1 915-339-7154,https://www.ulta.com/stores/el-paso-tx-1774
Ulta Beauty,757,"2310 Park Centre Drive, Ste 180",Las Vegas,89135,VEGAS,+1 702-256-3122,https://www.ulta.com/stores/las-vegas-nv-757
Ulta Beauty,1068,10919 Olson Drive,Rancho Cordova,95670,CORDOVA,+1 916-853-2216,https://www.ulta.com/stores/rancho-cordova-ca-1068
Ulta Beauty,1773,13371-4 W Eastlake Blvd,El Paso,79928,PASO,+1 915-339-2313,https://www.ulta.com/stores/el-paso-tx-1773
Ulta Beauty,1254,6689 Las Vegas Boulevard South,Las Vegas,89119,VEGAS,+1 702-614-1780,https://www.ulta.com/stores/las-vegas-nv-1254
Ulta Beauty,1447,2717 Marconi Avenue,Sacramento,95821,CA,+1 916-713-1166,https://www.ulta.com/stores/sacramento-ca-1447
Ulta Beauty,303,"813 Sunland Park Drive, Ste B",El Paso,79912,PASO,+1 915-581-0314,https://www.ulta.com/stores/el-paso-tx-303
Ulta Beauty,1694,4950 South Fort Apache Road,Las Vegas,89148,VEGAS,+1 725-241-7456,https://www.ulta.com/stores/las-vegas-nv-1694
Ulta Beauty,189,3591 North Freeway Boulevard,Sacramento,95834,CA,+1 916-285-6450,https://www.ulta.com/stores/sacramento-ca-189
Ulta Beauty,100,9857 South Eastern Avenue,Las Vegas,89183,VEGAS,+1 702-270-2410,https://www.ulta.com/stores/las-vegas-nv-100
Ulta Beauty,227,"7265 Arroyo Crossing Parkway, Ste 110",Las Vegas,89113,VEGAS,+1 702-263-0315,https://www.ulta.com/stores/las-vegas-nv-227
Ulta Beauty,1684,"2100 Arden Way, Suite 121",Sacramento,95825,CA,+1 916-929-2912,https://www.ulta.com/stores/sacramento-ca-1684
Ulta Beauty,1397,2135 Bronze Star Drive,Woodland,95776,CA,+1 530-631-0379,https://www.ulta.com/stores/woodland-ca-1397
Ulta Beauty,431,"2450 Monarch Drive, Ste 104",Laredo,78045,TX,+1 956-724-1960,https://www.ulta.com/stores/laredo-tx-431
Ulta Beauty,1023,5683 69,Prescott Valley,86314,VALLEY,+1 928-445-0056,https://www.ulta.com/stores/prescott-valley-az-1023
Ulta Beauty,1119,8180 Delta Shores Circle South,Sacramento,95832,CA,+1 916-665-1205,https://www.ulta.com/stores/sacramento-ca-1119
Ulta Beauty,1646,"7431 Laguna Boulevard, Ste 140",Elk Grove,95758,GROVE,+1 916-478-2610,https://www.ulta.com/stores/elk-grove-ca-1646
Ulta Beauty,1022,"2717 West Expressway 83, Ste 100",Harlingen,78552,TX,+1 956-440-8296,https://www.ulta.com/stores/harlingen-tx-1022
Ulta Beauty,545,"1641 East Monte Vista Avenue, Ste C",Vacaville,95688,CA,+1 707-455-8369,https://www.ulta.com/stores/vacaville-ca-545
Ulta Beauty,1152,1423 South Lower Sacramento Road,Lodi,95242,CA,+1 209-368-2115,https://www.ulta.com/stores/lodi-ca-1152
Ulta Beauty,1092,543 Morrison Road,Brownsville,78526,TX,+1 956-350-9997,https://www.ulta.com/stores/brownsville-tx-1092
Ulta Beauty,314,5410 Pacific Avenue,Stockton,95207,CA,+1 209-235-1209,https://www.ulta.com/stores/stockton-ca-314
Ulta Beauty,1182,"1350 Travis Boulevard, Unit 1475B",Fairfield,94533,CA,+1 707-427-1952,https://www.ulta.com/stores/fairfield-ca-1182
Ulta Beauty,1164,601 East Trenton Road,Edinburg,78539,TX,+1 956-386-1842,https://www.ulta.com/stores/edinburg-tx-1164
Ulta Beauty,648,1725 Trancas Street,Napa,94558,CA,+1 707-224-1117,https://www.ulta.com/stores/napa-ca-648
Ulta Beauty,1290,361 Coddingtown Center,Santa Rosa,95401,ROSA,+1 707-710-9413,https://www.ulta.com/stores/santa-rosa-ca-1290
Ulta Beauty,433,2080 Santa Rosa Avenue,Santa Rosa,95407,ROSA,+1 707-542-1042,https://www.ulta.com/stores/santa-rosa-ca-433
Ulta Beauty,1562,"3699 Mohave Valley Hwy, Ste 600, State Highway 95",Bullhead City,86442,CITY,+1 928-450-4143,https://www.ulta.com/stores/bullhead-city-az-1562
Ulta Beauty,784,2407 Claribel Road,Riverbank,95367,CA,+1 209-863-8890,https://www.ulta.com/stores/riverbank-ca-784
Ulta Beauty,1374,"2700 West Expressway 83, Ste 400",McAllen,78501,TX,+1 956-618-9985,https://www.ulta.com/stores/mcallen-tx-1374
Ulta Beauty,1143,2292 Daniels Street,Manteca,95337,CA,+1 209-823-2352,https://www.ulta.com/stores/manteca-ca-1143
Ulta Beauty,1218,147 Plaza Drive,Vallejo,94591,CA,+1 707-644-4262,https://www.ulta.com/stores/vallejo-ca-1218
Ulta Beauty,268,"3900 Sisk Road, Ste J1",Modesto,95356,CA,+1 209-543-3871,https://www.ulta.com/stores/modesto-ca-268
Ulta Beauty,353,"2465 Sand Creek Road, Ste 100",Brentwood,94513,CA,+1 925-513-8183,https://www.ulta.com/stores/brentwood-ca-353
Ulta Beauty,606,"401 Kenilworth Drive, Ste 520",Petaluma,94952,CA,+1 707-763-3074,https://www.ulta.com/stores/petaluma-ca-606
Ulta Beauty,108,"21001 North Tatum Boulevard, Ste 72",Phoenix,85050,AZ,+1 480-502-4331,https://www.ulta.com/stores/phoenix-az-108
Ulta Beauty,77,16231 North Scottsdale Road,Scottsdale,85254,AZ,+1 480-609-1009,https://www.ulta.com/stores/scottsdale-az-77
Ulta Beauty,579,2475 Naglee Road,Tracy,95304,CA,+1 209-832-7361,https://www.ulta.com/stores/tracy-ca-579
Ulta Beauty,184,"2501 West Happy Valley Road, Ste 38",Phoenix,85085,AZ,+1 623-581-6766,https://www.ulta.com/stores/phoenix-az-184
Ulta Beauty,799,"1975 Diamond Boulevard, Ste D130",Concord,94520,CA,+1 925-609-9753,https://www.ulta.com/stores/concord-ca-799
Ulta Beauty,575,2841 Countryside Drive,Turlock,95380,CA,+1 209-664-1725,https://www.ulta.com/stores/turlock-ca-575
Ulta Beauty,1442,155b Crescent Plaza,Pleasant Hill,94523,HILL,+1 925-329-3975,https://www.ulta.com/stores/pleasant-hill-ca-1442
Ulta Beauty,37,12867 North Tatum Boulevard,Phoenix,85032,AZ,+1 602-953-5009,https://www.ulta.com/stores/phoenix-az-37
Ulta Beauty,1750,2043 North Power Road,Mesa,85215,AZ,+1 480-602-4975,https://www.ulta.com/stores/mesa-az-1750
Ulta Beauty,1823,"245 East Bell Road, STE 26",Phoenix,85022,AZ,+1 888-888-8888,https://www.ulta.com/stores/phoenix-az-1823
Ulta Beauty,33,9019 Talking Stick Way,Scottsdale,85250,AZ,+1 480-905-1099,https://www.ulta.com/stores/scottsdale-az-33
Ulta Beauty,1666,"108 Vintage Way, STE B2",Novato,94945,CA,+1 628-682-2011,https://www.ulta.com/stores/novato-ca-1666
Ulta Beauty,228,10084 West Happy Valley Parkway,Peoria,85383,AZ,+1 623-825-2652,https://www.ulta.com/stores/peoria-az-228
Ulta Beauty,225,1614 South Signal Butte Road,Mesa,85209,AZ,+1 480-357-8181,https://www.ulta.com/stores/mesa-az-225
Ulta Beauty,1051,1216 Fitzgerald Drive,Pinole,94564,CA,+1 510-262-9541,https://www.ulta.com/stores/pinole-ca-1051
Ulta Beauty,1399,"6505 East Southern Avenue, Ste 202",Mesa,85206,AZ,+1 480-396-7440,https://www.ulta.com/stores/mesa-az-1399
Ulta Beauty,47,7665 West Bell Road,Peoria,85382,AZ,+1 623-486-5055,https://www.ulta.com/stores/peoria-az-47
Ulta Beauty,35,"1949 East Camelback Road, Ste 146",Phoenix,85016,AZ,+1 602-264-0003,https://www.ulta.com/stores/phoenix-az-35
Ulta Beauty,1426,2015 Crow Canyon Place,San Ramon,94583,RAMON,+1 925-815-8061,https://www.ulta.com/stores/san-ramon-ca-1426
Ulta Beauty,185,"55 South McClintock Drive, Ste 155",Tempe,85281,AZ,+1 480-968-8200,https://www.ulta.com/stores/tempe-az-185
Ulta Beauty,1605,5735 North 19th Avenue,Phoenix,85015,AZ,+1 602-782-8798,https://www.ulta.com/stores/phoenix-az-1605
Ulta Beauty,176,13707 West Bell Road,Surprise,85374,AZ,+1 623-214-2779,https://www.ulta.com/stores/surprise-az-176
Ulta Beauty,354,857 East Baseline Road,Gilbert,85233,AZ,+1 480-813-5985,https://www.ulta.com/stores/gilbert-az-354
Ulta Beauty,1385,3090 West Jack London Boulevard,Livermore,94551,CA,+1 925-292-6709,https://www.ulta.com/stores/livermore-ca-1385
Ulta Beauty,148,4948 Dublin Boulevard,Dublin,94568,CA,+1 925-828-5040,https://www.ulta.com/stores/dublin-ca-148
Ulta Beauty,635,1315 Herndon Avenue,Clovis,93611,CA,+1 559-325-6009,https://www.ulta.com/stores/clovis-ca-635
Ulta Beauty,356,21118 South Ellsworth Loop,Queen Creek,85142,CREEK,+1 480-882-3454,https://www.ulta.com/stores/queen-creek-az-356
Ulta Beauty,1753,9280 West Northern Avenue,Glendale,85305,AZ,+1 480-780-9330,https://www.ulta.com/stores/glendale-az-1753
Ulta Beauty,183,2779 South Market Street,Gilbert,85295,AZ,+1 480-726-3777,https://www.ulta.com/stores/gilbert-az-183
Ulta Beauty,1007,"3839 Emery Street, Ste 200",Emeryville,94608,CA,+1 510-601-1890,https://www.ulta.com/stores/emeryville-ca-1007
Ulta Beauty,1591,13470 North Prasada Parkway,Surprise,85388,AZ,+1 480-418-9241,https://www.ulta.com/stores/surprise-az-1591
Ulta Beauty,286,7911 North Blackstone Avenue,Fresno,93720,CA,+1 559-490-0907,https://www.ulta.com/stores/fresno-ca-286
Ulta Beauty,1322,"639 East Shaw Avenue, Ste 179",Fresno,93710,CA,+1 559-244-0907,https://www.ulta.com/stores/fresno-ca-1322
Ulta Beauty,99,2680 West Chandler Boulevard,Chandler,85224,AZ,+1 480-792-0457,https://www.ulta.com/stores/chandler-az-99
Ulta Beauty,1620,2036 East Baseline Road,Phoenix,85042,AZ,+1 602-610-0013,https://www.ulta.com/stores/phoenix-az-1620
Ulta Beauty,637,2245 South Shore Center,Alameda,94501,CA,+1 510-864-4031,https://www.ulta.com/stores/alameda-ca-637
Ulta Beauty,1065,"15555 East 14th Street, Ste 106",San Leandro,94578,LEANDRO,+1 510-276-1791,https://www.ulta.com/stores/san-leandro-ca-1065
Ulta Beauty,778,6587 North Riverside Drive,Fresno,93722,CA,+1 559-277-3620,https://www.ulta.com/stores/fresno-ca-778
Ulta Beauty,434,"7131 West Ray Road, Ste 12",Chandler,85226,AZ,+1 480-753-7076,https://www.ulta.com/stores/chandler-az-434
Ulta Beauty,1132,"10050 West McDowell Road, Ste 110",Avondale,85392,AZ,+1 480-770-3880,https://www.ulta.com/stores/avondale-az-1132
Ulta Beauty,157,1450 North Litchfield Road,Goodyear,85395,AZ,+1 623-935-4186,https://www.ulta.com/stores/goodyear-az-157
Ulta Beauty,650,43806 Pacific Commons Boulevard,Fremont,94538,CA,+1 510-445-1830,https://www.ulta.com/stores/fremont-ca-650
Ulta Beauty,568,119 Colma Boulevard,Colma,94014,CA,+1 650-755-5971,https://www.ulta.com/stores/colma-ca-568
Ulta Beauty,1651,2250 Bridgepointe Parkway,San Mateo,94404,MATEO,+1 650-638-1473,https://www.ulta.com/stores/san-mateo-ca-1651
Ulta Beauty,1256,"1038 East Brokaw Road, Ste 10",San Jose,95131,JOSE,+1 408-437-8926,https://www.ulta.com/stores/san-jose-ca-1256
Ulta Beauty,1664,"200 West McKinley Avenue, Ste 120",Sunnyvale,94086,CA,+1 669-649-5536,https://www.ulta.com/stores/sunnyvale-ca-1664
Ulta Beauty,296,"1004 North Promenade Parkway, Ste 136",Casa Grande,85194,GRANDE,+1 520-836-2313,https://www.ulta.com/stores/casa-grande-az-296
Ulta Beauty,279,31 Curtner Avenue,San Jose,95125,JOSE,+1 408-924-0718,https://www.ulta.com/stores/san-jose-ca-279
Ulta Beauty,711,4023 South Mooney Boulevard,Visalia,93277,CA,+1 559-740-0568,https://www.ulta.com/stores/visalia-ca-711
Ulta Beauty,796,"5650 Cottle Road, Ste 20",San Jose,95123,JOSE,+1 408-229-2702,https://www.ulta.com/stores/san-jose-ca-796
Ulta Beauty,777,20580 Homestead Road,Cupertino,95014,CA,+1 408-873-8065,https://www.ulta.com/stores/cupertino-ca-777
Ulta Beauty,1669,"1760 South Bascom Avenue, Ste 120",Campbell,95008,CA,+1 669-437-4025,https://www.ulta.com/stores/campbell-ca-1669
Ulta Beauty,1259,"5140 Cherry Avenue, Ste 50",San Jose,95118,JOSE,+1 408-445-8310,https://www.ulta.com/stores/san-jose-ca-1259
Ulta Beauty,492,600 El Paseo de Saratoga,San Jose,95130,JOSE,+1 408-370-7687,https://www.ulta.com/stores/san-jose-ca-492
Ulta Beauty,1434,1027 Cochrane Road,Morgan Hill,95037,HILL,+1 408-659-4877,https://www.ulta.com/stores/morgan-hill-ca-1434
Ulta Beauty,355,11875 North Oracle Road,Oro Valley,85737,VALLEY,+1 520-742-8956,https://www.ulta.com/stores/oro-valley-az-355
Ulta Beauty,1243,1267 West Henderson Avenue,Porterville,93257,CA,+1 559-783-8280,https://www.ulta.com/stores/porterville-ca-1243
Ulta Beauty,636,168 12th Avenue,Hanford,93230,CA,+1 559-587-9433,https://www.ulta.com/stores/hanford-ca-636
Ulta Beauty,710,"950 Renz Lane, Ste 10",Gilroy,95020,CA,+1 408-842-4759,https://www.ulta.com/stores/gilroy-ca-710
Ulta Beauty,1216,9620 East 22nd Street,Tucson,85748,AZ,+1 520-298-8836,https://www.ulta.com/stores/tucson-az-1216
Ulta Beauty,199,4368 North Oracle Road,Tucson,85705,AZ,+1 520-888-0806,https://www.ulta.com/stores/tucson-az-199
Ulta Beauty,170,"5870 East Broadway Boulevard, Ste 442",Tucson,85711,AZ,+1 520-512-4645,https://www.ulta.com/stores/tucson-az-170
Ulta Beauty,1685,1260 East Park Street,Hollister,95023,CA,+1 831-205-0573,https://www.ulta.com/stores/hollister-ca-1685
Ulta Beauty,1415,5157 South Calle Santa Cruz,Tucson,85706,AZ,+1 520-492-2062,https://www.ulta.com/stores/tucson-az-1415
Ulta Beauty,743,"1855 41st Avenue, Ste E10",Capitola,95010,CA,+1 831-477-9045,https://www.ulta.com/stores/capitola-ca-743
Ulta Beauty,1127,860 Northridge Shopping Center,Salinas,93906,CA,+1 831-444-0495,https://www.ulta.com/stores/salinas-ca-1127
Ulta Beauty,1472,501 Highway 90,Sierra Vista,85635,VISTA,+1 520-685-1671,https://www.ulta.com/stores/sierra-vista-az-1472
Ulta Beauty,593,2080 California Avenue,Sand City,93955,CITY,+1 831-393-9397,https://www.ulta.com/stores/sand-city-ca-593
Ulta Beauty,1639,"9280 Rosedale Highway, STE 200",Bakersfield,93312,CA,+1 661-498-8283,https://www.ulta.com/stores/bakersfield-ca-1639
Ulta Beauty,469,"9000 Ming Avenue, Ste L2",Bakersfield,93311,CA,+1 661-664-1402,https://www.ulta.com/stores/bakersfield-ca-469
Ulta Beauty,681,18821 Bear Valley Road,Apple Valley,92308,VALLEY,+1 760-240-6193,https://www.ulta.com/stores/apple-valley-ca-681
Ulta Beauty,1450,12765 Main Street,Hesperia,92344,CA,+1 442-267-2795,https://www.ulta.com/stores/hesperia-ca-1450
Ulta Beauty,1783,"44436 Valley Central Way, Unit 9",Lancaster,93536,CA,+1 661-579-7224,https://www.ulta.com/stores/lancaster-ca-1783
Ulta Beauty,382,39246 10th Street West,Palmdale,93551,CA,+1 661-274-4307,https://www.ulta.com/stores/palmdale-ca-382
Ulta Beauty,1506,42350 Jackson Street,Indio,92203,CA,+1 760-501-2125,https://www.ulta.com/stores/indio-ca-1506
Ulta Beauty,1377,5200 Ramon Road,Palm Springs,92264,SPRINGS,+1 442-268-0477,https://www.ulta.com/stores/palm-springs-ca-1377
Ulta Beauty,1063,2145 Theatre Drive,Paso Robles,93446,ROBLES,+1 805-226-9738,https://www.ulta.com/stores/paso-robles-ca-1063
Ulta Beauty,1314,78825 111,La Quinta,92253,QUINTA,+1 760-564-4795,https://www.ulta.com/stores/la-quinta-ca-1314
Ulta Beauty,520,"72-369 111, Ste 100",Palm Desert,92260,DESERT,+1 760-346-8029,https://www.ulta.com/stores/palm-desert-ca-520
Ulta Beauty,792,"27461 San Bernardino Avenue, Ste 150",Redlands,92374,CA,+1 909-335-5709,https://www.ulta.com/stores/redlands-ca-792
Ulta Beauty,1353,"1215 West Renaissance Parkway, Ste 650",Rialto,92376,CA,+1 909-566-0470,https://www.ulta.com/stores/rialto-ca-1353
Ulta Beauty,1300,"15248 Summit Avenue, Ste 200",Fontana,92336,CA,+1 909-463-4005,https://www.ulta.com/stores/fontana-ca-1300
Ulta Beauty,1567,"1545 E 2nd Street, Ste #100",Beaumont,92223,CA,+1 951-755-8117,https://www.ulta.com/stores/beaumont-ca-1567
Ulta Beauty,1670,1512 South Riverside Avenue,Rialto,92376,CA,+1 840-900-2010,https://www.ulta.com/stores/rialto-ca-1670
Ulta Beauty,1628,"12188 Foothill Boulevard, Ste 100",Rancho Cucamonga,91739,CUCAMONGA,+1 909-646-7012,https://www.ulta.com/stores/rancho-cucamonga-ca-1628
Ulta Beauty,174,1927 North Campus Avenue,Upland,91784,CA,+1 909-931-0608,https://www.ulta.com/stores/upland-ca-174
Ulta Beauty,1280,"1 Mills Circle, Ste 113",Ontario,91764,CA,+1 909-466-0260,https://www.ulta.com/stores/ontario-ca-1280
Ulta Beauty,697,"12625 Frederick Street, Ste G-1",Moreno Valley,92553,VALLEY,+1 951-653-7394,https://www.ulta.com/stores/moreno-valley-ca-697
Ulta Beauty,1677,3625 Riverside Plaza Drive,Riverside,92506,CA,+1 951-289-0634,https://www.ulta.com/stores/riverside-ca-1677
Ulta Beauty,1464,"1448 Yuma Palms Parkway, Unit A",Yuma,85365,AZ,+1 928-955-8153,https://www.ulta.com/stores/yuma-az-1464
Ulta Beauty,452,1229 South Lone Hill Avenue,Glendora,91740,CA,+1 909-592-5393,https://www.ulta.com/stores/glendora-ca-452
Ulta Beauty,474,24235 Magic Mountain Parkway,Santa Clarita,91355,CA,+1 661-288-2219,https://www.ulta.com/stores/valencia-ca-474
Ulta Beauty,1250,2243 West Florida Avenue,Hemet,92545,CA,+1 951-652-2966,https://www.ulta.com/stores/hemet-ca-1250
Ulta Beauty,663,"12423 Limonite Avenue, Ste 100",Eastvale,91752,CA,+1 951-681-0360,https://www.ulta.com/stores/eastvale-ca-663
Ulta Beauty,1037,"281 Madonna Road, Ste C",San Luis Obispo,93405,LUIS,+1 805-543-2783,https://www.ulta.com/stores/san-luis-obispo-ca-1037
Ulta Beauty,1494,729 East Huntington Drive,Monrovia,91016,CA,+1 626-275-8033,https://www.ulta.com/stores/monrovia-ca-1494
Ulta Beauty,1153,"3502 Tyler Street, Ste 101",Riverside,92503,CA,+1 951-689-0235,https://www.ulta.com/stores/riverside-ca-1153
Ulta Beauty,1493,1688 North Perris Boulevard,Perris,92571,CA,+1 951-450-0055,https://www.ulta.com/stores/perris-ca-1493
Ulta Beauty,1035,"2700 East Workman Avenue, Ste A",West Covina,91791,COVINA,+1 626-331-8396,https://www.ulta.com/stores/west-covina-ca-1035
Ulta Beauty,143,3393 East Foothill Boulevard,Pasadena,91107,CA,+1 626-351-3297,https://www.ulta.com/stores/pasadena-ca-143
Ulta Beauty,146,4041 Grand Avenue,Chino,91710,CA,+1 909-627-2466,https://www.ulta.com/stores/chino-ca-146
Ulta Beauty,1405,21650 Valley Boulevard,City of Industry,91789,OF,+1 909-444-6859,https://www.ulta.com/stores/city-of-industry-ca-1405
Ulta Beauty,1615,10310 Sepulveda Boulevard,Mission Hills,91345,HILLS,+1 747-732-3001,https://www.ulta.com/stores/mission-hills-ca-1615
Ulta Beauty,260,1351 North Victory Place,Burbank,91502,CA,+1 818-565-5646,https://www.ulta.com/stores/burbank-ca-260
Ulta Beauty,1110,3534 Rosemead Boulevard,Rosemead,91770,CA,+1 626-571-1863,https://www.ulta.com/stores/rosemead-ca-1110
Ulta Beauty,1049,30050 Haun Road,Menifee,92584,CA,+1 951-301-0487,https://www.ulta.com/stores/menifee-ca-1049
Ulta Beauty,212,"2541 Tuscany Street, Ste 103",Corona,92881,CA,+1 951-582-0833,https://www.ulta.com/stores/corona-ca-212
Ulta Beauty,1436,20045 Rinaldi Street,Los Angeles,91326,RANCH,+1 818-488-2018,https://www.ulta.com/stores/porter-ranch-ca-1436
Ulta Beauty,775,"17651 Colima Road, Ste D",City of Industry,91748,OF,+1 626-810-5867,https://www.ulta.com/stores/city-of-industry-ca-775
Ulta Beauty,1560,"6130 Laurel Canyon Boulevard, Ste 105",North Hollywood,91606,HOLLYWOOD,+1 747-256-6691,https://www.ulta.com/stores/north-hollywood-ca-1560
Ulta Beauty,1001,8941 Tampa Avenue,Los Angeles,91324,CA,+1 818-718-7440,https://www.ulta.com/stores/northridge-ca-1001
Ulta Beauty,1253,18418 Collier Avenue,Lake Elsinore,92530,ELSINORE,+1 951-228-0214,https://www.ulta.com/stores/lake-elsinore-ca-1253
Ulta Beauty,1736,"8140 East Santa Ana Canyon Road, Unit 174",Anaheim,92808,CA,+1 657-640-8901,https://www.ulta.com/stores/anaheim-ca-1736
Ulta Beauty,1772,"2395 Imperial Highway, Ste B",Brea,92821,CA,+1 657-822-0687,https://www.ulta.com/stores/brea-ca-1772
Ulta Beauty,1221,"4550 Van Nuys Boulevard, Ste G",Los Angeles,91403,OAKS,+1 818-906-9784,https://www.ulta.com/stores/sherman-oaks-ca-1221
Ulta Beauty,1093,"1555 Simi Town Center Way, Ste 600",Simi Valley,93065,VALLEY,+1 805-306-1219,https://www.ulta.com/stores/simi-valley-ca-1093
Ulta Beauty,1249,15235 Whittier Boulevard,Whittier,90603,CA,+1 562-902-1259,https://www.ulta.com/stores/whittier-ca-1249
Ulta Beauty,156,"7100 Santa Monica Boulevard, Ste 210",West Hollywood,90046,HOLLYWOOD,+1 323-878-2524,https://www.ulta.com/stores/west-hollywood-ca-156
Ulta Beauty,1446,8620 Washington Boulevard,Pico Rivera,90660,RIVERA,+1 562-655-7064,https://www.ulta.com/stores/pico-rivera-ca-1446
Ulta Beauty,1107,1521 West Imperial Highway,La Habra,90631,HABRA,+1 562-691-3493,https://www.ulta.com/stores/la-habra-ca-1107
Ulta Beauty,1636,6500 Canoga Avenue,Los Angeles,91303,PARK,+1 747-444-4515,https://www.ulta.com/stores/canoga-park-ca-1636
Ulta Beauty,1411,755 E Betteravia Rd,Santa Maria,93454,MARIA,+1 805-825-0093,https://www.ulta.com/stores/santa-maria-ca-1411
Ulta Beauty,748,"4550 West Pico Boulevard, Ste C321",Los Angeles,90019,ANGELES,+1 323-934-3692,https://www.ulta.com/stores/los-angeles-ca-748
Ulta Beauty,1131,40460 Winchester Road,Temecula,92591,CA,+1 951-296-0776,https://www.ulta.com/stores/temecula-ca-1131
Ulta Beauty,1206,"1500 East Village Way, Ste 2191",Orange,92865,CA,+1 714-283-2814,https://www.ulta.com/stores/orange-ca-1206
Ulta Beauty,1431,"23741 Calabasas Road, Ste A",Calabasas,91302,CA,+1 818-918-4350,https://www.ulta.com/stores/calabasas-ca-1431
Ulta Beauty,686,4681 Firestone Boulevard,South Gate,90280,CA,+1 323-569-1735,https://www.ulta.com/stores/southgate-ca-686
Ulta Beauty,1315,10925 Kinross Avenue,Los Angeles,90024,ANGELES,+1 310-443-0007,https://www.ulta.com/stores/los-angeles-ca-1315
Ulta Beauty,1054,9020 Apollo Way,Downey,90242,CA,+1 562-401-0013,https://www.ulta.com/stores/downey-ca-1054
Ulta Beauty,1087,574 North Euclid Street,Anaheim,92801,CA,+1 714-758-2869,https://www.ulta.com/stores/anaheim-ca-1087
Ulta Beauty,723,"508 East Danenberg Drive, Ste 1",El Centro,92243,CENTRO,+1 760-353-1745,https://www.ulta.com/stores/el-centro-ca-723
Ulta Beauty,1535,8375 La Palma Avenue,Buena Park,90620,PARK,+1 657-298-2147,https://www.ulta.com/stores/buena-park-ca-1535
Ulta Beauty,155,12771 Towne Center Drive,Cerritos,90703,CA,+1 562-403-0229,https://www.ulta.com/stores/cerritos-ca-155
Ulta Beauty,1665,"763 South Main Street, #150",Orange,92868,CA,+1 657-221-9067,https://www.ulta.com/stores/orange-ca-1665
Ulta Beauty,499,30682 Santa Margarita Parkway,Rancho Santa Margarita,92688,SANTA,+1 949-635-9301,https://www.ulta.com/stores/rancho-santa-margarita-ca-499
Ulta Beauty,1213,1234 Wilshire Boulevard,Santa Monica,90403,MONICA,+1 310-260-3392,https://www.ulta.com/stores/santa-monica-ca-1213
Ulta Beauty,562,"6000 Sepulveda Boulevard, Ste 2200",Culver City,90230,CITY,+1 310-390-1420,https://www.ulta.com/stores/culver-city-ca-562
Ulta Beauty,1302,"205 North Moorpark Road, Ste C",Thousand Oaks,91360,OAKS,+1 805-230-3178,https://www.ulta.com/stores/thousand-oaks-ca-1302
Ulta Beauty,736,13676 Jamboree Road,Irvine,92602,CA,+1 714-573-2675,https://www.ulta.com/stores/irvine-ca-736
Ulta Beauty,1726,9844 Chapman Avenue,Garden Grove,92841,GROVE,+1 657-800-1452,https://www.ulta.com/stores/garden-grove-ca-1726
Ulta Beauty,1009,"13455 Maxella Avenue, Ste 120",Los Angeles,90292,DEL,+1 310-301-8261,https://www.ulta.com/stores/marina-del-rey-ca-1009
Ulta Beauty,1232,7401 Carson Boulevard,Long Beach,90808,BEACH,+1 562-377-1858,https://www.ulta.com/stores/long-beach-ca-1232
Ulta Beauty,730,342 Lakewood Center Mall,Lakewood,90712,CA,+1 562-272-0281,https://www.ulta.com/stores/lakewood-ca-730
Ulta Beauty,798,1781 Alameda Street,Compton,90220,CA,+1 310-885-1802,https://www.ulta.com/stores/compton-ca-798
Ulta Beauty,208,2863 Park Avenue,Tustin,92782,CA,+1 714-566-1706,https://www.ulta.com/stores/tustin-ca-208
Ulta Beauty,1455,4200 East Carson Street,Long Beach,90808,BEACH,+1 562-541-8132,https://www.ulta.com/stores/long-beach-ca-1455
Ulta Beauty,1445,"500 Ventura Boulevard, Ste 1514",Camarillo,93010,CA,+1 805-702-3734,https://www.ulta.com/stores/camarillo-ca-1445
Ulta Beauty,604,12339 Seal Beach Boulevard,Seal Beach,90740,BEACH,+1 562-936-0077,https://www.ulta.com/stores/seal-beach-ca-604
Ulta Beauty,467,23608 El Toro Road,Lake Forest,92630,FOREST,+1 949-470-9531,https://www.ulta.com/stores/lake-forest-ca-467
Ulta Beauty,655,690 Collection Boulevard,Oxnard,93036,CA,+1 805-981-8725,https://www.ulta.com/stores/oxnard-ca-655
Ulta Beauty,1580,780 Pacific Coast Hwy,El Segundo,90245,SEGUNDO,+1 424-321-7623,https://www.ulta.com/stores/el-segundo-ca-1580
Ulta Beauty,1671,"7881 Edinger Avenue, Ste 130",Huntington Beach,92647,BEACH,+1 714-891-9708,https://www.ulta.com/stores/huntington-beach-ca-1671
Ulta Beauty,166,"7777 Edinger Avenue, Ste 130",Huntington Beach,92647,BEACH,+1 714-891-9708,https://www.ulta.com/stores/huntington-beach-ca-166
Ulta Beauty,1807,25626 Crown Valley Parkway,Ladera Ranch,92694,RANCH,+1 888-888-8888,https://www.ulta.com/stores/ladera-ranch-ca-1807
Ulta Beauty,457,1513 Hawthorne Boulevard,Redondo Beach,90278,BEACH,+1 310-303-3790,https://www.ulta.com/stores/redondo-beach-ca-457
Ulta Beauty,597,6312 Pacific Coast Highway,Long Beach,90803,BEACH,+1 562-795-6780,https://www.ulta.com/stores/long-beach-ca-597
Ulta Beauty,1299,10071 Adams Avenue,Huntington Beach,92646,BEACH,+1 714-377-0921,https://www.ulta.com/stores/huntington-beach-ca-1299
Ulta Beauty,1485,"27080 Alicia Parkway, Ste B",Laguna Niguel,92677,NIGUEL,+1 949-340-9131,https://www.ulta.com/stores/laguna-niguel-ca-1485
Ulta Beauty,620,427 Newport Center Drive,Newport Beach,92660,BEACH,+1 949-640-0726,https://www.ulta.com/stores/newport-beach-ca-620
Ulta Beauty,1118,257 East 17th Street,Costa Mesa,92627,MESA,+1 949-650-0573,https://www.ulta.com/stores/costa-mesa-ca-1118
Ulta Beauty,547,7000 Market Place Drive,Goleta,93117,CA,+1 805-685-2060,https://www.ulta.com/stores/goleta-ca-547
Ulta Beauty,1517,615 North H Street,Lompoc,93436,CA,+1 805-742-8927,https://www.ulta.com/stores/lompoc-ca-1517
Ulta Beauty,1195,"51 Peninsula Center, Ste A",Rolling Hills Estates,90274,HILLS,+1 310-377-1282,https://www.ulta.com/stores/rolling-hills-estates-ca-1195
Ulta Beauty,1181,510 Camino De Estrella,San Clemente,92672,CLEMENTE,+1 949-489-1841,https://www.ulta.com/stores/san-clemente-ca-1181
Ulta Beauty,1276,"1266 Auto Park Way, Ste A",Escondido,92029,CA,+1 760-740-8659,https://www.ulta.com/stores/escondido-ca-1276
Ulta Beauty,244,185 South Las Posas Road,San Marcos,92078,MARCOS,+1 760-744-0853,https://www.ulta.com/stores/san-marcos-ca-244
Ulta Beauty,135,"2645 Vista Way, Retail",Oceanside,92054,CA,+1 760-439-2704,https://www.ulta.com/stores/oceanside-ca-135
Ulta Beauty,1100,"10455 Reserve Drive, Suite 151",San Diego,92127,DIEGO,+1 858-676-6831,https://www.ulta.com/stores/san-diego-ca-1100
Ulta Beauty,132,1905 Calle Barcelona,Carlsbad,92009,CA,+1 760-635-1625,https://www.ulta.com/stores/carlsbad-ca-132
Ulta Beauty,1475,11485 Carmel Mountain Road,San Diego,92128,DIEGO,+1 858-376-4574,https://www.ulta.com/stores/san-diego-ca-1475
Ulta Beauty,1476,10653 Westview Parkway,San Diego,92126,DIEGO,+1 858-300-7931,https://www.ulta.com/stores/san-diego-ca-1476
Ulta Beauty,583,"415 Fletcher Parkway, Ste 315",El Cajon,92020,CAJON,+1 619-588-1218,https://www.ulta.com/stores/el-cajon-ca-583
Ulta Beauty,1781,"2883 Jamacha Road, Ste E",El Cajon,92109,CAJON,+1 888-888-8888,https://www.ulta.com/stores/el-cajon-ca-1781
Ulta Beauty,1112,"4941 Clairemont Drive, Ste B",San Diego,92117,DIEGO,+1 858-581-9003,https://www.ulta.com/stores/san-diego-ca-1112
Ulta Beauty,588,1072 Camino Del Rio North,San Diego,92108,DIEGO,+1 619-220-0597,https://www.ulta.com/stores/san-diego-ca-588
Ulta Beauty,358,3315 Rosecrans Street,San Diego,92110,DIEGO,+1 619-222-0697,https://www.ulta.com/stores/san-diego-ca-358
Ulta Beauty,1114,"2015 Birch Road, Ste 1801",Chula Vista,91915,VISTA,+1 619-482-6962,https://www.ulta.com/stores/chula-vista-ca-1114
Ulta Beauty,614,3951 Camino De La Plaza,San Diego,92173,YSIDRO,+1 619-662-1535,https://www.ulta.com/stores/san-ysidro-ca-614
Ulta Beauty,1457,"609 Kailua Road, Ste 106",Kailua,96734,HI,+1 808-824-4017,https://www.ulta.com/stores/kailua-hi-1457
Ulta Beauty,1454,"1000 Kamehameha Highway, Ste 224",Pearl City,96782,CITY,+1 808-638-4701,https://www.ulta.com/stores/pearl-city-hi-1454
Ulta Beauty,1459,"4450 Kapolei Parkway, Ste 230",Kapolei,96707,HI,+1 808-824-4834,https://www.ulta.com/stores/kapolei-hi-1459
Ulta Beauty,1453,"66 Ho'okele Street, Unit 1110",Kahului,96732,HI,+1 808-868-5698,https://www.ulta.com/stores/kahului-hi-1453
