id,name,telephone,slug,country_abbr,address1,city,statename,statecode,postalcode,url,country,address
R177,ABQ Uptown,(505) 837-6480,abquptown,US,2240 Q Street NE,Albuquerque,New Mexico,NM,87110,https://www.apple.com/retail/abquptown,United States,"2240 Q Street NE, Albuquerque, New Mexico 87110"
R446,New Haven,(203) 498-8950,newhaven,US,65 Broadway,New Haven,Connecticut,CT,06511,https://www.apple.com/retail/newhaven,United States,"65 Broadway, New Haven, Connecticut 06511"
R282,Greenwich Avenue,(203) 302-6691,greenwichavenue,US,356 Greenwich Avenue,Greenwich,Connecticut,CT,06830,https://www.apple.com/retail/greenwichavenue,United States,"356 Greenwich Avenue, Greenwich, Connecticut 06830"
R629,Trumbull,(203) 666-3928,trumbull,US,5065 Main Street,Trumbull,Connecticut,CT,06611,https://www.apple.com/retail/trumbull,United States,"5065 Main Street, Trumbull, Connecticut 06611"
R093,Danbury Fair Mall,(203) 546-6340,danburyfairmall,US,Seven Backus Avenue,Danbury,Connecticut,CT,06810,https://www.apple.com/retail/danburyfairmall,United States,"Seven Backus Avenue, Danbury, Connecticut 06810"
R025,Westfarms,(860) 221-0800,westfarms,US,500 Westfarms Mall,Farmington,Connecticut,CT,06032,https://www.apple.com/retail/westfarms,United States,"500 Westfarms Mall, Farmington, Connecticut 06032"
R613,Evergreen Walk,(860) 512-2070,evergreenwalk,US,401 Evergreen Walk,South Windsor,Connecticut,CT,06074,https://www.apple.com/retail/evergreenwalk,United States,"401 Evergreen Walk, South Windsor, Connecticut 06074"
R202,SoNo Collection,(203) 658-1801,sonocollection,US,100 N. Water Street,Norwalk,Connecticut,CT,06854,https://www.apple.com/retail/sonocollection,United States,"100 N. Water Street, Norwalk, Connecticut 06854"
R082,UTC,(858) 795-6870,utc,US,4305 La Jolla Village Drive,San Diego,California,CA,92122,https://www.apple.com/retail/utc,United States,"4305 La Jolla Village Drive, San Diego, California 92122"
R217,Chestnut Street,(415) 848-4445,chestnutstreet,US,2125 Chestnut Street,San Francisco,California,CA,94123,https://www.apple.com/retail/chestnutstreet,United States,"2125 Chestnut Street, San Francisco, California 94123"
R154,The Oaks,(805) 277-5040,theoaks,US,432 West Hillcrest Drive,Thousand Oaks,California,CA,91360,https://www.apple.com/retail/theoaks,United States,"432 West Hillcrest Drive, Thousand Oaks, California 91360"
R051,Third Street Promenade,(310) 633-2670,thirdstreetpromenade,US,1415 Third Street Promenade,Santa Monica,California,CA,90401,https://www.apple.com/retail/thirdstreetpromenade,United States,"1415 Third Street Promenade, Santa Monica, California 90401"
R029,Burlingame,(650) 645-8930,burlingame,US,1301 Burlingame Avenue,Burlingame,California,CA,94010,https://www.apple.com/retail/burlingame,United States,"1301 Burlingame Avenue, Burlingame, California 94010"
R189,Topanga,(818) 577-1800,topanga,US,6600 Topanga Canyon Boulevard,Canoga Park,California,CA,91303,https://www.apple.com/retail/topanga,United States,"6600 Topanga Canyon Boulevard, Canoga Park, California 91303"
R099,Stanford Shopping Center,(650) 798-6180,stanfordshoppingcenter,US,379 Stanford Shopping Center,Palo Alto,California,CA,94304,https://www.apple.com/retail/stanfordshoppingcenter,United States,"379 Stanford Shopping Center, Palo Alto, California 94304"
R014,Broadway Plaza,(925) 949-5463,broadwayplaza,US,1200 S. Main Street,Walnut Creek,California,CA,94596,https://www.apple.com/retail/broadwayplaza,United States,"1200 S. Main Street, Walnut Creek, California 94596"
R015,Fashion Island,(949) 629-9717,fashionisland,US,1113 Newport Center Drive,Newport Beach,California,CA,92660,https://www.apple.com/retail/fashionisland,United States,"1113 Newport Center Drive, Newport Beach, California 92660"
R052,Infinite Loop,(408) 606-5775,infiniteloop,US,One Infinite Loop,Cupertino,California,CA,95014,https://www.apple.com/retail/infiniteloop,United States,"One Infinite Loop, Cupertino, California 95014"
R240,Los Gatos,(408) 399-3880,losgatos,US,23 N. Santa Cruz Avenue,Los Gatos,California,CA,95030,https://www.apple.com/retail/losgatos,United States,"23 N. Santa Cruz Avenue, Los Gatos, California 95030"
R033,Stonestown,(415) 571-2780,stonestown,US,3251 20th Avenue,San Francisco,California,CA,94132,https://www.apple.com/retail/stonestown,United States,"3251 20th Avenue, San Francisco, California 94132"
R122,Manhattan Village,(310) 421-3720,manhattanvillage,US,3200 Sepulveda Boulevard,Manhattan Beach,California,CA,90266,https://www.apple.com/retail/manhattanvillage,United States,"3200 Sepulveda Boulevard, Manhattan Beach, California 90266"
R294,Carlsbad,(760) 697-9800,carlsbad,US,1923 Calle Barcelona,Carlsbad,California,CA,92009,https://www.apple.com/retail/carlsbad,United States,"1923 Calle Barcelona, Carlsbad, California 92009"
R156,Brea Mall,(714) 989-5550,breamall,US,1016C Brea Mall,Brea,California,CA,92821,https://www.apple.com/retail/breamall,United States,"1016C Brea Mall, Brea, California 92821"
R044,Santa Rosa Plaza,(707) 508-3500,santarosaplaza,US,1071 Santa Rosa Plaza,Santa Rosa,California,CA,95401,https://www.apple.com/retail/santarosaplaza,United States,"1071 Santa Rosa Plaza, Santa Rosa, California 95401"
R297,El Paseo Village,(760) 862-9710,elpaseovillage,US,73445 El Paseo,Palm Desert,California,CA,92260,https://www.apple.com/retail/elpaseovillage,United States,"73445 El Paseo, Palm Desert, California 92260"
R285,North County,(760) 317-2484,northcounty,US,272 E Via Rancho Parkway,Escondido,California,CA,92025,https://www.apple.com/retail/northcounty,United States,"272 E Via Rancho Parkway, Escondido, California 92025"
R305,Del Monte,(831) 647-4480,delmonte,US,240 Del Monte Center,Monterey,California,CA,93940,https://www.apple.com/retail/delmonte,United States,"240 Del Monte Center, Monterey, California 93940"
R034,Pasadena,(626) 463-6223,pasadena,US,54 West Colorado Boulevard,Pasadena,California,CA,91105,https://www.apple.com/retail/pasadena,United States,"54 West Colorado Boulevard, Pasadena, California 91105"
R040,Fashion Valley,(619) 682-3477,fashionvalley,US,7007 Friars Road,San Diego,California,CA,92108,https://www.apple.com/retail/fashionvalley,United States,"7007 Friars Road, San Diego, California 92108"
R414,4th Street,(510) 898-3341,4thstreet,US,1823 4th Street,Berkeley,California,CA,94710,https://www.apple.com/retail/4thstreet,United States,"1823 4th Street, Berkeley, California 94710"
R236,Fashion Fair,(559) 244-3400,fashionfair,US,645 E. Shaw Avenue,Fresno,California,CA,93710,https://www.apple.com/retail/fashionfair,United States,"645 E. Shaw Avenue, Fresno, California 93710"
R071,Corte Madera,(415) 413-9120,cortemadera,US,1520 Redwood Highway,Corte Madera,California,CA,94925,https://www.apple.com/retail/cortemadera,United States,"1520 Redwood Highway, Corte Madera, California 94925"
R023,Northridge,(818) 477-9010,northridge,US,9301 Tampa Avenue,Northridge,California,CA,91324,https://www.apple.com/retail/northridge,United States,"9301 Tampa Avenue, Northridge, California 91324"
R094,Victoria Gardens,(909) 803-5220,victoriagardens,US,12461 South Main Street,Rancho Cucamonga,California,CA,91739,https://www.apple.com/retail/victoriagardens,United States,"12461 South Main Street, Rancho Cucamonga, California 91739"
R075,Union Square,(415) 486-4800,unionsquare,US,300 Post Street,San Francisco,California,CA,94108,https://www.apple.com/retail/unionsquare,United States,"300 Post Street, San Francisco, California 94108"
R322,Vintage Faire,(209) 342-1500,vintagefaire,US,3401 Dale Road,Modesto,California,CA,95356,https://www.apple.com/retail/vintagefaire,United States,"3401 Dale Road, Modesto, California 95356"
R213,Otay Ranch,(619) 205-6400,otayranch,US,2015 Birch Road,Chula Vista,California,CA,91915,https://www.apple.com/retail/otayranch,United States,"2015 Birch Road, Chula Vista, California 91915"
R039,Valley Fair,(408) 551-2150,valleyfair,US,2855 Stevens Creek Boulevard,Santa Clara,California,CA,95050,https://www.apple.com/retail/valleyfair,United States,"2855 Stevens Creek Boulevard, Santa Clara, California 95050"
R317,State Street,(805) 560-1500,statestreet,US,928 State Street,Santa Barbara,California,CA,93101,https://www.apple.com/retail/statestreet,United States,"928 State Street, Santa Barbara, California 93101"
R462,Valencia Town Center,(661) 678-1490,valenciatowncenter,US,24201 West Valencia Boulevard,Valencia,California,CA,91355,https://www.apple.com/retail/valenciatowncenter,United States,"24201 West Valencia Boulevard, Valencia, California 91355"
R050,The Grove,(323) 617-9800,thegrove,US,189 The Grove Drive,Los Angeles,California,CA,90036,https://www.apple.com/retail/thegrove,United States,"189 The Grove Drive, Los Angeles, California 90036"
R105,Oakridge,(408) 960-0110,oakridge,US,925 Blossom Hill Road,San Jose,California,CA,95123,https://www.apple.com/retail/oakridge,United States,"925 Blossom Hill Road, San Jose, California 95123"
R148,Sherman Oaks,(818) 464-3080,shermanoaks,US,14006 Riverside Drive,Sherman Oaks,California,CA,91423,https://www.apple.com/retail/shermanoaks,United States,"14006 Riverside Drive, Sherman Oaks, California 91423"
R720,Tower Theatre,(213) 655-1200,towertheatre,US,802 S Broadway,Los Angeles,California,CA,90014,https://www.apple.com/retail/towertheatre,United States,"802 S Broadway, Los Angeles, California 90014"
R101,Stoneridge Mall,(925) 398-1962,stoneridgemall,US,One Stoneridge Mall,Pleasanton,California,CA,94588,https://www.apple.com/retail/stoneridgemall,United States,"One Stoneridge Mall, Pleasanton, California 94588"
R004,South Coast Plaza,(714) 424-6331,southcoastplaza,US,3333 Bear Street,Costa Mesa,California,CA,92626,https://www.apple.com/retail/southcoastplaza,United States,"3333 Bear Street, Costa Mesa, California 92626"
R146,Irvine Spectrum Center,(949) 255-1500,irvinespectrumcenter,US,930 Spectrum Center Drive,Irvine,California,CA,92618,https://www.apple.com/retail/irvinespectrumcenter,United States,"930 Spectrum Center Drive, Irvine, California 92618"
R300,Los Cerritos,(562) 356-1555,loscerritos,US,242 Los Cerritos Center,Cerritos,California,CA,90703,https://www.apple.com/retail/loscerritos,United States,"242 Los Cerritos Center, Cerritos, California 90703"
R824,Apple Park Visitor Center,(408) 961-1560,appleparkvisitorcenter,US,10600 North Tantau Avenue,Cupertino,California,CA,95014,https://www.apple.com/retail/appleparkvisitorcenter,United States,"10600 North Tantau Avenue, Cupertino, California 95014"
R070,Arden Fair,(916) 830-5610,ardenfair,US,1689 Arden Way,Sacramento,California,CA,95815,https://www.apple.com/retail/ardenfair,United States,"1689 Arden Way, Sacramento, California 95815"
R550,Valley Plaza,(661) 396-3480,valleyplaza,US,2701 Ming Avenue,Bakersfield,California,CA,93304,https://www.apple.com/retail/valleyplaza,United States,"2701 Ming Avenue, Bakersfield, California 93304"
R124,Beverly Center,(424) 239-3880,beverlycenter,US,8500 Beverly Boulevard,Los Angeles,California,CA,90048,https://www.apple.com/retail/beverlycenter,United States,"8500 Beverly Boulevard, Los Angeles, California 90048"
R199,Higuera Street,(805) 542-8800,higuerastreet,US,899 Higuera Street,San Luis Obispo,California,CA,93401,https://www.apple.com/retail/higuerastreet,United States,"899 Higuera Street, San Luis Obispo, California 93401"
R057,Bay Street,(510) 350-2400,baystreet,US,5640 Bay Street,Emeryville,California,CA,94608,https://www.apple.com/retail/baystreet,United States,"5640 Bay Street, Emeryville, California 94608"
R001,Glendale Galleria,(818) 502-8310,glendalegalleria,US,2126 Glendale Galleria,Glendale,California,CA,91210,https://www.apple.com/retail/glendalegalleria,United States,"2126 Glendale Galleria, Glendale, California 91210"
R002,Palo Alto,(650) 798-2800,paloalto,US,340 University Avenue,Palo Alto,California,CA,94301,https://www.apple.com/retail/paloalto,United States,"340 University Avenue, Palo Alto, California 94301"
R345,Promenade Temecula,(951) 326-2400,promenadetemecula,US,40764 Winchester Road,Temecula,California,CA,92591,https://www.apple.com/retail/promenadetemecula,United States,"40764 Winchester Road, Temecula, California 92591"
R298,Roseville,(916) 872-2506,roseville,US,1151 Galleria Boulevard,Roseville,California,CA,95678,https://www.apple.com/retail/roseville,United States,"1151 Galleria Boulevard, Roseville, California 95678"
R069,Mission Viejo,(949) 325-6426,missionviejo,US,936C Shops at Mission Viejo,Mission Viejo,California,CA,92691,https://www.apple.com/retail/missionviejo,United States,"936C Shops at Mission Viejo, Mission Viejo, California 92691"
R231,Hillsdale,(650) 645-4800,hillsdale,US,60  31st Avenue,San Mateo,California,CA,94403,https://www.apple.com/retail/hillsdale,United States,"60  31st Avenue, San Mateo, California 94403"
R451,The Americana at Brand,(818) 254-1070,theamericanaatbrand,US,877 Americana Way,Glendale,California,CA,91210,https://www.apple.com/retail/theamericanaatbrand,United States,"877 Americana Way, Glendale, California 91210"
R108,Century City,(424) 204-4290,centurycity,US,10250 Santa Monica Boulevard,Los Angeles,California,CA,90067,https://www.apple.com/retail/centurycity,United States,"10250 Santa Monica Boulevard, Los Angeles, California 90067"
R650,Summerlin,(702) 677-3940,summerlin,US,1985 Festival Plaza Drive,Las Vegas,Nevada,NV,89135,https://www.apple.com/retail/summerlin,United States,"1985 Festival Plaza Drive, Las Vegas, Nevada 89135"
R161,The Forum Shops,(702) 684-8800,theforumshops,US,3500 Las Vegas Blvd South,Las Vegas,Nevada,NV,89109,https://www.apple.com/retail/theforumshops,United States,"3500 Las Vegas Blvd South, Las Vegas, Nevada 89109"
R064,Fashion Show,(702) 577-9740,fashionshow,US,3200 Las Vegas Blvd South,Las Vegas,Nevada,NV,89109,https://www.apple.com/retail/fashionshow,United States,"3200 Las Vegas Blvd South, Las Vegas, Nevada 89109"
R186,Summit Sierra,(775) 333-5460,summitsierra,US,13945 South Virginia Street,Reno,Nevada,NV,89511,https://www.apple.com/retail/summitsierra,United States,"13945 South Virginia Street, Reno, Nevada 89511"
R219,Town Square,(702) 221-8826,townsquare,US,6671 Las Vegas Blvd South,Las Vegas,Nevada,NV,89119,https://www.apple.com/retail/townsquare,United States,"6671 Las Vegas Blvd South, Las Vegas, Nevada 89119"
R318,Charleston,(843) 727-0400,charleston,US,301 King Street,Charleston,South Carolina,SC,29401,https://www.apple.com/retail/charleston,United States,"301 King Street, Charleston, South Carolina 29401"
R355,Haywood Mall,(864) 987-7580,haywoodmall,US,700 Haywood Road,Greenville,South Carolina,SC,29607,https://www.apple.com/retail/haywoodmall,United States,"700 Haywood Road, Greenville, South Carolina 29607"
R102,Christiana Mall,(302) 533-3514,christianamall,US,125 Christiana Mall,Newark,Delaware,DE,19702,https://www.apple.com/retail/christianamall,United States,"125 Christiana Mall, Newark, Delaware 19702"
R307,Maine Mall,(207) 771-9400,mainemall,US,364 Maine Mall Road,South Portland,Maine,ME,04106,https://www.apple.com/retail/mainemall,United States,"364 Maine Mall Road, South Portland, Maine 04106"
R360,University Park Mall,(574) 277-9500,universityparkmall,US,6501 North Grape Road,Mishawaka,Indiana,IN,46545,https://www.apple.com/retail/universityparkmall,United States,"6501 North Grape Road, Mishawaka, Indiana 46545"
R066,The Fashion Mall at Keystone,(317) 814-3740,thefashionmallatkeystone,US,8702 Keystone Crossing,Indianapolis,Indiana,IN,46240,https://www.apple.com/retail/thefashionmallatkeystone,United States,"8702 Keystone Crossing, Indianapolis, Indiana 46240"
R009,Easton Town Center,(614) 934-2810,eastontowncenter,US,4210 The Strand,Columbus,Ohio,OH,43219,https://www.apple.com/retail/eastontowncenter,United States,"4210 The Strand, Columbus, Ohio 43219"
R518,The Greene,(937) 431-4200,thegreene,US,4422 Cedar Park Drive,Beavercreek,Ohio,OH,45440,https://www.apple.com/retail/thegreene,United States,"4422 Cedar Park Drive, Beavercreek, Ohio 45440"
R081,Eton,(216) 535-4560,eton,US,28849 Chagrin Boulevard,Woodmere,Ohio,OH,44122,https://www.apple.com/retail/eton,United States,"28849 Chagrin Boulevard, Woodmere, Ohio 44122"
R192,Crocker Park,(440) 788-2800,crockerpark,US,267 Crocker Park Boulevard,Westlake,Ohio,OH,44145,https://www.apple.com/retail/crockerpark,United States,"267 Crocker Park Boulevard, Westlake, Ohio 44145"
R028,Kenwood Towne Centre,(513) 826-3620,kenwoodtownecentre,US,7875 Montgomery Road,Cincinnati,Ohio,OH,45236,https://www.apple.com/retail/kenwoodtownecentre,United States,"7875 Montgomery Road, Cincinnati, Ohio 45236"
R417,Polaris Fashion Place,(614) 987-1430,polarisfashionplace,US,1500 Polaris Parkway,Columbus,Ohio,OH,43240,https://www.apple.com/retail/polarisfashionplace,United States,"1500 Polaris Parkway, Columbus, Ohio 43240"
R353,Summit Mall,(330) 865-6280,summitmall,US,3265 West Market Street,Akron,Ohio,OH,44333,https://www.apple.com/retail/summitmall,United States,"3265 West Market Street, Akron, Ohio 44333"
R299,Franklin Park Mall,(419) 473-4250,franklinparkmall,US,5001 Monroe Street,Toledo,Ohio,OH,43623,https://www.apple.com/retail/franklinparkmall,United States,"5001 Monroe Street, Toledo, Ohio 43623"
R089,Old Orchard,(847) 983-9230,oldorchard,US,4999 Old Orchard Center,Skokie,Illinois,IL,60077,https://www.apple.com/retail/oldorchard,United States,"4999 Old Orchard Center, Skokie, Illinois 60077"
R348,Main Place,(630) 536-5400,mainplace,US,120 West Jefferson Avenue,Naperville,Illinois,IL,60540,https://www.apple.com/retail/mainplace,United States,"120 West Jefferson Avenue, Naperville, Illinois 60540"
R018,Woodfield,(630) 237-2160,woodfield,US,N311 Woodfield Mall,Schaumburg,Illinois,IL,60173,https://www.apple.com/retail/woodfield,United States,"N311 Woodfield Mall, Schaumburg, Illinois 60173"
R284,Lincoln Park,(312) 777-4200,lincolnpark,US,801 W. North Avenue,Chicago,Illinois,IL,60642,https://www.apple.com/retail/lincolnpark,United States,"801 W. North Avenue, Chicago, Illinois 60642"
R056,Oakbrook,(630) 481-3470,oakbrook,US,70 Oakbrook Center,Oak Brook,Illinois,IL,60523,https://www.apple.com/retail/oakbrook,United States,"70 Oakbrook Center, Oak Brook, Illinois 60523"
R035,Michigan Avenue,(312) 529-9500,michiganavenue,US,401 North Michigan Avenue,Chicago,Illinois,IL,60611,https://www.apple.com/retail/michiganavenue,United States,"401 North Michigan Avenue, Chicago, Illinois 60611"
R141,Northbrook,(847) 205-2020,northbrook,US,1056 Northbrook Court,Northbrook,Illinois,IL,60062,https://www.apple.com/retail/northbrook,United States,"1056 Northbrook Court, Northbrook, Illinois 60062"
R237,Orland Square Mall,(708) 645-5401,orlandsquaremall,US,288 Orland Square Drive,Orland Park,Illinois,IL,60462,https://www.apple.com/retail/orlandsquaremall,United States,"288 Orland Square Drive, Orland Park, Illinois 60462"
R258,Deer Park,(847) 847-0400,deerpark,US,20530 N. Rand Road,Deer Park,Illinois,IL,60010,https://www.apple.com/retail/deerpark,United States,"20530 N. Rand Road, Deer Park, Illinois 60010"
R043,Short Hills,(973) 564-5813,shorthills,US,1200 Morris Turnpike,Short Hills,New Jersey,NJ,07078,https://www.apple.com/retail/shorthills,United States,"1200 Morris Turnpike, Short Hills, New Jersey 07078"
R206,Cherry Hill,(856) 792-9480,cherryhill,US,2000 Route 38,Cherry Hill,New Jersey,NJ,08002,https://www.apple.com/retail/cherryhill,United States,"2000 Route 38, Cherry Hill, New Jersey 08002"
R755,American Dream,(201) 728-0255,americandream,US,1 American Dream Way,East Rutherford,New Jersey,NJ,07073,https://www.apple.com/retail/americandream,United States,"1 American Dream Way, East Rutherford, New Jersey 07073"
R067,Menlo Park,(732) 623-7700,menlopark,US,55 Parsonage Road,Edison,New Jersey,NJ,08837,https://www.apple.com/retail/menlopark,United States,"55 Parsonage Road, Edison, New Jersey 08837"
R138,Freehold Raceway Mall,(732) 358-8426,freeholdracewaymall,US,3710 Route 9 South,Freehold,New Jersey,NJ,07728,https://www.apple.com/retail/freeholdracewaymall,United States,"3710 Route 9 South, Freehold, New Jersey 07728"
R103,Rockaway,(973) 384-9220,rockaway,US,301 Mt. Hope Avenue,Rockaway,New Jersey,NJ,07866,https://www.apple.com/retail/rockaway,United States,"301 Mt. Hope Avenue, Rockaway, New Jersey 07866"
R549,Quaker Bridge,(609) 606-9030,quakerbridge,US,150 Quaker Bridge Mall     ,Lawrence Township,New Jersey,NJ,08648,https://www.apple.com/retail/quakerbridge,United States,"150 Quaker Bridge Mall     , Lawrence Township, New Jersey 08648"
R325,Willowbrook,(973) 339-2800,willowbrook,US,1400 Willowbrook Mall,Wayne,New Jersey,NJ,07470,https://www.apple.com/retail/willowbrook,United States,"1400 Willowbrook Mall, Wayne, New Jersey 07470"
R013,Tice's Corner,(201) 474-4180,ticescorner,US,441 Chestnut Ridge Road,Woodcliff Lake,New Jersey,NJ,07677,https://www.apple.com/retail/ticescorner,United States,"441 Chestnut Ridge Road, Woodcliff Lake, New Jersey 07677"
R117,Garden State Plaza,(201) 975-9500,gardenstateplaza,US,1 Garden State Plaza,Paramus,New Jersey,NJ,07652,https://www.apple.com/retail/gardenstateplaza,United States,"1 Garden State Plaza, Paramus, New Jersey 07652"
R104,Bridgewater,(908) 547-3800,bridgewater,US,400 Commons Way,Bridgewater,New Jersey,NJ,08807,https://www.apple.com/retail/bridgewater,United States,"400 Commons Way, Bridgewater, New Jersey 08807"
R088,Sagemore,(856) 355-4940,sagemore,US,500 Route 73 South,Marlton,New Jersey,NJ,08053,https://www.apple.com/retail/sagemore,United States,"500 Route 73 South, Marlton, New Jersey 08053"
R283,Leawood,(913) 234-9800,leawood,US,4529 West 119th Street,Leawood,Kansas,KS,66209,https://www.apple.com/retail/leawood,United States,"4529 West 119th Street, Leawood, Kansas 66209"
R267,SanTan Village,(480) 366-8477,santanvillage,US,2218 E. Williams Field Road,Gilbert,Arizona,AZ,85295,https://www.apple.com/retail/santanvillage,United States,"2218 E. Williams Field Road, Gilbert, Arizona 85295"
R031,Scottsdale Fashion Square,(602) 606-1470,scottsdalefashionsquare,US,7014 East Camelback Road,Scottsdale,Arizona,AZ,85251,https://www.apple.com/retail/scottsdalefashionsquare,United States,"7014 East Camelback Road, Scottsdale, Arizona 85251"
R247,Arrowhead,(623) 707-2860,arrowhead,US,7700 West Arrowhead Towne Ctr,Glendale,Arizona,AZ,85308,https://www.apple.com/retail/arrowhead,United States,"7700 West Arrowhead Towne Ctr, Glendale, Arizona 85308"
R026,Chandler Fashion Center,(480) 636-3900,chandlerfashioncenter,US,3111 W Chandler Boulevard,Chandler,Arizona,AZ,85226,https://www.apple.com/retail/chandlerfashioncenter,United States,"3111 W Chandler Boulevard, Chandler, Arizona 85226"
R086,La Encantada,(520) 209-7440,laencantada,US,2905 East Skyline Drive,Tucson,Arizona,AZ,85718,https://www.apple.com/retail/laencantada,United States,"2905 East Skyline Drive, Tucson, Arizona 85718"
R292,Scottsdale Quarter,(480) 627-5501,scottsdalequarter,US,15169 North Scottsdale Road,Scottsdale,Arizona,AZ,85254,https://www.apple.com/retail/scottsdalequarter,United States,"15169 North Scottsdale Road, Scottsdale, Arizona 85254"
R198,Royal Hawaiian,(808) 931-2480,royalhawaiian,US,2301 Kalakaua Avenue,Honolulu,Hawaii,HI,96815,https://www.apple.com/retail/royalhawaiian,United States,"2301 Kalakaua Avenue, Honolulu, Hawaii 96815"
R210,Kahala,(808) 738-4400,kahala,US,4211 Waialae Avenue,Honolulu,Hawaii,HI,96816,https://www.apple.com/retail/kahala,United States,"4211 Waialae Avenue, Honolulu, Hawaii 96816"
R073,Ala Moana,(808) 983-7650,alamoana,US,1450 Ala Moana Boulevard,Honolulu,Hawaii,HI,96814,https://www.apple.com/retail/alamoana,United States,"1450 Ala Moana Boulevard, Honolulu, Hawaii 96814"
R106,Southcenter,(206) 288-4400,southcenter,US,801 Southcenter Mall,Tukwila,Washington,WA,98188,https://www.apple.com/retail/southcenter,United States,"801 Southcenter Mall, Tukwila, Washington 98188"
R003,Bellevue Square,(425) 519-0080,bellevuesquare,US,213 Bellevue Square,Bellevue,Washington,WA,98004,https://www.apple.com/retail/bellevuesquare,United States,"213 Bellevue Square, Bellevue, Washington 98004"
R072,University Village,(206) 892-0433,universityvillage,US,2651 NE 49th St,Seattle,Washington,WA,98105,https://www.apple.com/retail/universityvillage,United States,"2651 NE 49th St, Seattle, Washington 98105"
R339,Tacoma Mall,(253) 620-1454,tacomamall,US,4502 S Steele Street,Tacoma,Washington,WA,98409,https://www.apple.com/retail/tacomamall,United States,"4502 S Steele Street, Tacoma, Washington 98409"
R100,Alderwood,(425) 921-1560,alderwood,US,3000 184th Street S.W.,Lynnwood,Washington,WA,98037,https://www.apple.com/retail/alderwood,United States,"3000 184th Street S.W., Lynnwood, Washington 98037"
R420,River Park Square,(509) 458-8080,riverparksquare,US,710 West Main Avenue,Spokane,Washington,WA,99201,https://www.apple.com/retail/riverparksquare,United States,"710 West Main Avenue, Spokane, Washington 99201"
R019,International Plaza,(813) 393-4720,internationalplaza,US,2223 N West Shore Boulevard,Tampa,Florida,FL,33607,https://www.apple.com/retail/internationalplaza,United States,"2223 N West Shore Boulevard, Tampa, Florida 33607"
R289,Brandon,(813) 413-3400,brandon,US,459 Brandon Town Center Drive,Brandon,Florida,FL,33511,https://www.apple.com/retail/brandon,United States,"459 Brandon Town Center Drive, Brandon, Florida 33511"
R053,Millenia,(407) 352-5551,millenia,US,4200 Conroy Road,Orlando,Florida,FL,32839,https://www.apple.com/retail/millenia,United States,"4200 Conroy Road, Orlando, Florida 32839"
R214,The Galleria,(954) 331-4501,thegalleria,US,2388 E. Sunrise Boulevard,Fort Lauderdale,Florida,FL,33304,https://www.apple.com/retail/thegalleria,United States,"2388 E. Sunrise Boulevard, Fort Lauderdale, Florida 33304"
R087,Aventura,(305) 914-9826,aventura,US,19501 Biscayne Boulevard,Aventura,Florida,FL,33180,https://www.apple.com/retail/aventura,United States,"19501 Biscayne Boulevard, Aventura, Florida 33180"
R024,Wellington Green,(561) 273-2940,wellingtongreen,US,10300 W. Forest Hill Blvd,Wellington,Florida,FL,33414,https://www.apple.com/retail/wellingtongreen,United States,"10300 W. Forest Hill Blvd, Wellington, Florida 33414"
R127,The Gardens Mall,(561) 273-2160,thegardensmall,US,3101 PGA Boulevard,Palm Beach Gardens,Florida,FL,33410,https://www.apple.com/retail/thegardensmall,United States,"3101 PGA Boulevard, Palm Beach Gardens, Florida 33410"
R169,Waterside Shops,(239) 254-4240,watersideshops,US,5555 Tamiami Trail North,Naples,Florida,FL,34108,https://www.apple.com/retail/watersideshops,United States,"5555 Tamiami Trail North, Naples, Florida 34108"
R115,Lincoln Road,(305) 421-0400,lincolnroad,US,1021 Lincoln Road,Miami Beach,Florida,FL,33139,https://www.apple.com/retail/lincolnroad,United States,"1021 Lincoln Road, Miami Beach, Florida 33139"
R312,Dadeland,(305) 341-9812,dadeland,US,7535 Dadeland Mall,Miami,Florida,FL,33156,https://www.apple.com/retail/dadeland,United States,"7535 Dadeland Mall, Miami, Florida 33156"
R623,Brickell City Centre,(786) 843-4350,brickellcitycentre,US,701 S. Miami Avenue,Miami,Florida,FL,33130,https://www.apple.com/retail/brickellcitycentre,United States,"701 S. Miami Avenue, Miami, Florida 33130"
R111,St. Johns Town Center,(904) 380-3080,stjohnstowncenter,US,4835 River City Drive,Jacksonville,Florida,FL,32246,https://www.apple.com/retail/stjohnstowncenter,United States,"4835 River City Drive, Jacksonville, Florida 32246"
R074,Boca Raton,(561) 226-0270,bocaraton,US,6000 Glades Road,Boca Raton,Florida,FL,33431,https://www.apple.com/retail/bocaraton,United States,"6000 Glades Road, Boca Raton, Florida 33431"
R291,Altamonte,(407) 551-0404,altamonte,US,451 E Altamonte Drive,Altamonte Springs,Florida,FL,32701,https://www.apple.com/retail/altamonte,United States,"451 E Altamonte Drive, Altamonte Springs, Florida 32701"
R012,The Falls,(305) 234-4565,thefalls,US,8888 SW 136th Street,Miami,Florida,FL,33176,https://www.apple.com/retail/thefalls,United States,"8888 SW 136th Street, Miami, Florida 33176"
R185,Coconut Point,(239) 949-8860,coconutpoint,US,23151 Fashion Drive,Estero,Florida,FL,33928,https://www.apple.com/retail/coconutpoint,United States,"23151 Fashion Drive, Estero, Florida 33928"
R143,Florida Mall,(407) 563-1020,floridamall,US,8001 S. Orange Blossom Trail,Orlando,Florida,FL,32809,https://www.apple.com/retail/floridamall,United States,"8001 S. Orange Blossom Trail, Orlando, Florida 32809"
R615,University Town Center,(941) 358-4600,universitytowncenter,US,140 University Town Center Dr,Sarasota,Florida,FL,34243,https://www.apple.com/retail/universitytowncenter,United States,"140 University Town Center Dr, Sarasota, Florida 34243"
R286,The Promenade at Chenal,(501) 821-5130,thepromenadeatchenal,US,17711 Chenal Parkway,Little Rock,Arkansas,AR,72223,https://www.apple.com/retail/thepromenadeatchenal,United States,"17711 Chenal Parkway, Little Rock, Arkansas 72223"
R262,Anchorage 5th Avenue Mall,(907) 257-1900,anchorage5thavenuemall,US,320 West 5th Avenue,Anchorage,Alaska,AK,99501,https://www.apple.com/retail/anchorage5thavenuemall,United States,"320 West 5th Avenue, Anchorage, Alaska 99501"
R151,Southlake Town Square,(817) 722-1401,southlaketownsquare,US,260 Grand Avenue,Southlake,Texas,TX,76092,https://www.apple.com/retail/southlaketownsquare,United States,"260 Grand Avenue, Southlake, Texas 76092"
R316,University Park Village,(817) 840-9801,universityparkvillage,US,1620 S. University Drive,Fort Worth,Texas,TX,76107,https://www.apple.com/retail/universityparkvillage,United States,"1620 S. University Drive, Fort Worth, Texas 76107"
R492,Cielo Vista Mall,(915) 774-8020,cielovistamall,US,8401 Gateway Boulevard West,El Paso,Texas,TX,79925,https://www.apple.com/retail/cielovistamall,United States,"8401 Gateway Boulevard West, El Paso, Texas 79925"
R216,Domain NORTHSIDE,(512) 691-4800,domainnorthside,US,3121 Palm Way,Austin,Texas,TX,78758,https://www.apple.com/retail/domainnorthside,United States,"3121 Palm Way, Austin, Texas 78758"
R042,Knox Street,(214) 520-8532,knoxstreet,US,3101 Knox Street,Dallas,Texas,TX,75205,https://www.apple.com/retail/knoxstreet,United States,"3101 Knox Street, Dallas, Texas 75205"
R058,Houston Galleria,(713) 353-5471,houstongalleria,US,5085 Westheimer Road,Houston,Texas,TX,77056,https://www.apple.com/retail/houstongalleria,United States,"5085 Westheimer Road, Houston, Texas 77056"
R204,Baybrook,(281) 204-0500,baybrook,US,500 Baybrook Mall,Friendswood,Texas,TX,77546,https://www.apple.com/retail/baybrook,United States,"500 Baybrook Mall, Friendswood, Texas 77546"
R085,Barton Creek,(512) 634-0520,bartoncreek,US,2901 S. Capital of Texas Hwy,Austin,Texas,TX,78746,https://www.apple.com/retail/bartoncreek,United States,"2901 S. Capital of Texas Hwy, Austin, Texas 78746"
R321,Willowbrook Mall,(281) 571-4400,willowbrookmall,US,2000 Willowbrook Drive,Houston,Texas,TX,77070,https://www.apple.com/retail/willowbrookmall,United States,"2000 Willowbrook Drive, Houston, Texas 77070"
R144,NorthPark Center,(214) 765-0820,northparkcenter,US,8687 North Central Expressway,Dallas,Texas,TX,75225,https://www.apple.com/retail/northparkcenter,United States,"8687 North Central Expressway, Dallas, Texas 75225"
R164,Memorial City,(713) 986-2476,memorialcity,US,303 Memorial City,Houston,Texas,TX,77024,https://www.apple.com/retail/memorialcity,United States,"303 Memorial City, Houston, Texas 77024"
R437,Highland Village,(832) 325-3500,highlandvillage,US,4012 Westheimer Road,Houston,Texas,TX,77027,https://www.apple.com/retail/highlandvillage,United States,"4012 Westheimer Road, Houston, Texas 77027"
R131,La Cantera,(210) 276-2302,lacantera,US,15900 La Cantera Parkway,San Antonio,Texas,TX,78256,https://www.apple.com/retail/lacantera,United States,"15900 La Cantera Parkway, San Antonio, Texas 78256"
R746,Galleria Dallas,(972) 942-7210,galleriadallas,US,13350 Dallas Parkway,Dallas,Texas,TX,75240,https://www.apple.com/retail/galleriadallas,United States,"13350 Dallas Parkway, Dallas, Texas 75240"
R205,First Colony Mall,(281) 269-3410,firstcolonymall,US,16535 Southwest Freeway,Sugar Land,Texas,TX,77479,https://www.apple.com/retail/firstcolonymall,United States,"16535 Southwest Freeway, Sugar Land, Texas 77479"
R126,The Woodlands,(281) 203-6870,thewoodlands,US,1201 Lake Woodlands Drive,The Woodlands,Texas,TX,77380,https://www.apple.com/retail/thewoodlands,United States,"1201 Lake Woodlands Drive, The Woodlands, Texas 77380"
R290,North Star,(210) 321-4420,northstar,US,7400 San Pedro Avenue,San Antonio,Texas,TX,78216,https://www.apple.com/retail/northstar,United States,"7400 San Pedro Avenue, San Antonio, Texas 78216"
R133,Downtown Nashville,(615) 9861140,downtownnashville,US,500 Broadway,Nashville,Tennessee,TN,37203,https://www.apple.com/retail/downtownnashville,United States,"500 Broadway, Nashville, Tennessee 37203"
R513,CoolSprings Galleria,(615) 435-0620,coolspringsgalleria,US,1800 Galleria Boulevard,Franklin,Tennessee,TN,37067,https://www.apple.com/retail/coolspringsgalleria,United States,"1800 Galleria Boulevard, Franklin, Tennessee 37067"
R020,Saddle Creek,(901) 751-6980,saddlecreek,US,2031 West Street,Germantown,Tennessee,TN,38138,https://www.apple.com/retail/saddlecreek,United States,"2031 West Street, Germantown, Tennessee 38138"
R123,Green Hills,(615) 514-2430,greenhills,US,2126 Abbott Martin Road,Nashville,Tennessee,TN,37215,https://www.apple.com/retail/greenhills,United States,"2126 Abbott Martin Road, Nashville, Tennessee 37215"
R203,West Town Mall,(865) 824-2507,westtownmall,US,7600 Kingston Pike,Knoxville,Tennessee,TN,37919,https://www.apple.com/retail/westtownmall,United States,"7600 Kingston Pike, Knoxville, Tennessee 37919"
R183,Ridgedale,(952) 486-4861,ridgedale,US,12531 Wayzata Boulevard,Minnetonka,Minnesota,MN,55305,https://www.apple.com/retail/ridgedale,United States,"12531 Wayzata Boulevard, Minnetonka, Minnesota 55305"
R007,Mall of America,(952) 229-5630,mallofamerica,US,114 West Market,Bloomington,Minnesota,MN,55425,https://www.apple.com/retail/mallofamerica,United States,"114 West Market, Bloomington, Minnesota 55425"
R022,Rosedale Center,(763) 656-5010,rosedalecenter,US,1595 Highway 36 W,Roseville,Minnesota,MN,55113,https://www.apple.com/retail/rosedalecenter,United States,"1595 Highway 36 W, Roseville, Minnesota 55113"
R054,Southdale,(952) 656-0140,southdale,US,1560 Southdale Center,Edina,Minnesota,MN,55435,https://www.apple.com/retail/southdale,United States,"1560 Southdale Center, Edina, Minnesota 55435"
R599,Station Park,(801) 218-9501,stationpark,US,148 N. East Promontory,Farmington,Utah,UT,84025,https://www.apple.com/retail/stationpark,United States,"148 N. East Promontory, Farmington, Utah 84025"
R125,City Creek Center,(801) 456-9400,citycreekcenter,US,50 South Main Street,Salt Lake City,Utah,UT,84101,https://www.apple.com/retail/citycreekcenter,United States,"50 South Main Street, Salt Lake City, Utah 84101"
R461,Fashion Place,(801) 905-4410,fashionplace,US,6191 S State Street,Murray,Utah,UT,84107,https://www.apple.com/retail/fashionplace,United States,"6191 S State Street, Murray, Utah 84107"
R184,Perimeter,(678) 459-9800,perimeter,US,4400 Ashford Dunwoody Road,Atlanta,Georgia,GA,30346,https://www.apple.com/retail/perimeter,United States,"4400 Ashford Dunwoody Road, Atlanta, Georgia 30346"
R006,Lenox Square,(404) 926-3085,lenoxsquare,US,3393 Peachtree Road NE,Atlanta,Georgia,GA,30326,https://www.apple.com/retail/lenoxsquare,United States,"3393 Peachtree Road NE, Atlanta, Georgia 30326"
R080,Avalon,(770) 510-1670,avalon,US,8130 Avalon Boulevard,Alpharetta,Georgia,GA,30009,https://www.apple.com/retail/avalon,United States,"8130 Avalon Boulevard, Alpharetta, Georgia 30009"
R364,Augusta,(706) 731-1800,augusta,US,3450 Wrightsboro Road,Augusta,Georgia,GA,30909,https://www.apple.com/retail/augusta,United States,"3450 Wrightsboro Road, Augusta, Georgia 30909"
R259,Mall of Georgia,(678) 288-3400,mallofgeorgia,US,3333 Buford Drive,Buford,Georgia,GA,30519,https://www.apple.com/retail/mallofgeorgia,United States,"3333 Buford Drive, Buford, Georgia 30519"
R591,Cumberland Mall,(678) 402-0725,cumberlandmall,US,2860 Cumberland Mall,Atlanta,Georgia,GA,30339,https://www.apple.com/retail/cumberlandmall,United States,"2860 Cumberland Mall, Atlanta, Georgia 30339"
R062,West County,(314) 288-1830,westcounty,US,131 West County Center,St. Louis,Missouri,MO,63131,https://www.apple.com/retail/westcounty,United States,"131 West County Center, St. Louis, Missouri 63131"
R114,Saint Louis Galleria,(314) 290-0400,saintlouisgalleria,US,2440 Saint Louis Galleria,Saint Louis,Missouri,MO,63117,https://www.apple.com/retail/saintlouisgalleria,United States,"2440 Saint Louis Galleria, Saint Louis, Missouri 63117"
R097,Country Club Plaza,(816) 448-9200,countryclubplaza,US,227 Nichols Road,Kansas City,Missouri,MO,64112,https://www.apple.com/retail/countryclubplaza,United States,"227 Nichols Road, Kansas City, Missouri 64112"
R059,Mayfair,(414) 290-9780,mayfair,US,2500 N. Mayfair Road,Wauwatosa,Wisconsin,WI,53226,https://www.apple.com/retail/mayfair,United States,"2500 N. Mayfair Road, Wauwatosa, Wisconsin 53226"
R257,Bayshore,(414) 977-3410,bayshore,US,5715 N Centerpark Way,Glendale,Wisconsin,WI,53217,https://www.apple.com/retail/bayshore,United States,"5715 N Centerpark Way, Glendale, Wisconsin 53217"
R229,Hilldale,(608) 827-9840,hilldale,US,444 North Midvale Boulevard,Madison,Wisconsin,WI,53705,https://www.apple.com/retail/hilldale,United States,"444 North Midvale Boulevard, Madison, Wisconsin 53705"
R233,Woodland Hills,(918) 249-7800,woodlandhills,US,7021 S. Memorial Drive,Tulsa,Oklahoma,OK,74133,https://www.apple.com/retail/woodlandhills,United States,"7021 S. Memorial Drive, Tulsa, Oklahoma 74133"
R130,Penn Square,(405) 767-6600,pennsquare,US,1901 NW Expressway Street,Oklahoma City,Oklahoma,OK,73118,https://www.apple.com/retail/pennsquare,United States,"1901 NW Expressway Street, Oklahoma City, Oklahoma 73118"
R147,South Hills Village,(412) 308-1970,southhillsvillage,US,301 South Hills Village,Pittsburgh,Pennsylvania,PA,15241,https://www.apple.com/retail/southhillsvillage,United States,"301 South Hills Village, Pittsburgh, Pennsylvania 15241"
R304,Park City,(717) 295-8800,parkcity,US,541 Park City Center,Lancaster,Pennsylvania,PA,17601,https://www.apple.com/retail/parkcity,United States,"541 Park City Center, Lancaster, Pennsylvania 17601"
R234,Willow Grove Park,(215) 346-8160,willowgrovepark,US,2500 West Moreland Road,Willow Grove,Pennsylvania,PA,19090,https://www.apple.com/retail/willowgrovepark,United States,"2500 West Moreland Road, Willow Grove, Pennsylvania 19090"
R281,Lehigh Valley,(610) 266-4860,lehighvalley,US,250 Lehigh Valley Mall,Whitehall,Pennsylvania,PA,18052,https://www.apple.com/retail/lehighvalley,United States,"250 Lehigh Valley Mall, Whitehall, Pennsylvania 18052"
R413,Ross Park,(412) 318-0656,rosspark,US,1000 Ross Park Mall Drive,Pittsburgh,Pennsylvania,PA,15237,https://www.apple.com/retail/rosspark,United States,"1000 Ross Park Mall Drive, Pittsburgh, Pennsylvania 15237"
R162,Walnut Street,(215) 861-6400,walnutstreet,US,1607 Walnut Street,Philadelphia,Pennsylvania,PA,19103,https://www.apple.com/retail/walnutstreet,United States,"1607 Walnut Street, Philadelphia, Pennsylvania 19103"
R096,Shadyside,(412) 316-2460,shadyside,US,5508 Walnut Street,Pittsburgh,Pennsylvania,PA,15232,https://www.apple.com/retail/shadyside,United States,"5508 Walnut Street, Pittsburgh, Pennsylvania 15232"
R065,King of Prussia,(484) 636-5090,kingofprussia,US,160 N. Gulph Road,King of Prussia,Pennsylvania,PA,19406,https://www.apple.com/retail/kingofprussia,United States,"160 N. Gulph Road, King of Prussia, Pennsylvania 19406"
R166,Suburban Square,(610) 726-9400,suburbansquare,US,61 St. James Place,Ardmore,Pennsylvania,PA,19003,https://www.apple.com/retail/suburbansquare,United States,"61 St. James Place, Ardmore, Pennsylvania 19003"
R190,Village Pointe,(402) 970-4477,villagepointe,US,17170 Davenport Street,Omaha,Nebraska,NE,68118,https://www.apple.com/retail/villagepointe,United States,"17170 Davenport Street, Omaha, Nebraska 68118"
R293,Friendly Center,(336) 291-0486,friendlycenter,US,3320 West Friendly Avenue,Greensboro,North Carolina,NC,27410,https://www.apple.com/retail/friendlycenter,United States,"3320 West Friendly Avenue, Greensboro, North Carolina 27410"
R083,SouthPark,(704) 972-3280,southpark,US,4400 Sharon Road,Charlotte,North Carolina,NC,28211,https://www.apple.com/retail/southpark,United States,"4400 Sharon Road, Charlotte, North Carolina 28211"
R116,Crabtree Valley Mall,(919) 334-3400,crabtreevalleymall,US,4325 Glenwood Avenue,Raleigh,North Carolina,NC,27612,https://www.apple.com/retail/crabtreevalleymall,United States,"4325 Glenwood Avenue, Raleigh, North Carolina 27612"
R049,Southpoint,(919) 474-6940,southpoint,US,8030 Renaissance Parkway,Durham,North Carolina,NC,27713,https://www.apple.com/retail/southpoint,United States,"8030 Renaissance Parkway, Durham, North Carolina 27713"
R796,Birkdale Village,(704) 972-0980,birkdalevillage,US,8805 Townley Rd,Huntersville,North Carolina,NC,28078,https://www.apple.com/retail/birkdalevillage,United States,"8805 Townley Rd, Huntersville, North Carolina 28078"
R598,Potomac Town Center,(703) 986-2030,potomactowncenter,US,15100 Potomac Town Place,Woodbridge,Virginia,VA,22191,https://www.apple.com/retail/potomactowncenter,United States,"15100 Potomac Town Place, Woodbridge, Virginia 22191"
R036,Clarendon,(703) 236-7970,clarendon,US,2700 Clarendon Boulevard,Arlington,Virginia,VA,22201,https://www.apple.com/retail/clarendon,United States,"2700 Clarendon Boulevard, Arlington, Virginia 22201"
R010,Tysons Corner,(703) 336-8450,tysonscorner,US,7926 Tysons Corner Center,McLean,Virginia,VA,22102,https://www.apple.com/retail/tysonscorner,United States,"7926 Tysons Corner Center, McLean, Virginia 22102"
R271,Reston,(571) 449-4800,reston,US,11937 Market Street,Reston,Virginia,VA,20190,https://www.apple.com/retail/reston,United States,"11937 Market Street, Reston, Virginia 20190"
R129,Pentagon City,(703) 236-1550,pentagoncity,US,1100 South Hayes Street,Arlington,Virginia,VA,22202,https://www.apple.com/retail/pentagoncity,United States,"1100 South Hayes Street, Arlington, Virginia 22202"
R614,Lynnhaven Mall,(757) 306-2480,lynnhavenmall,US,701 Lynnhaven Parkway,Virginia Beach,Virginia,VA,23452,https://www.apple.com/retail/lynnhavenmall,United States,"701 Lynnhaven Parkway, Virginia Beach, Virginia 23452"
R221,Fair Oaks,(703) 251-7400,fairoaks,US,11750 Fair Oaks,Fairfax,Virginia,VA,22033,https://www.apple.com/retail/fairoaks,United States,"11750 Fair Oaks, Fairfax, Virginia 22033"
R078,Short Pump Town Center,(804) 420-3000,shortpumptowncenter,US,11800 W. Broad Street,Richmond,Virginia,VA,23233,https://www.apple.com/retail/shortpumptowncenter,United States,"11800 W. Broad Street, Richmond, Virginia 23233"
R110,South Shore,(781) 817-1270,southshore,US,250 Granite Street,Braintree,Massachusetts,MA,02184,https://www.apple.com/retail/southshore,United States,"250 Granite Street, Braintree, Massachusetts 02184"
R155,Burlington,(781) 653-0970,burlington,US,75 Middlesex Turnpike,Burlington,Massachusetts,MA,01803,https://www.apple.com/retail/burlington,United States,"75 Middlesex Turnpike, Burlington, Massachusetts 01803"
R076,Chestnut Hill,(617) 454-9940,chestnuthill,US,199 Boylston Street,Chestnut Hill,Massachusetts,MA,02467,https://www.apple.com/retail/chestnuthill,United States,"199 Boylston Street, Chestnut Hill, Massachusetts 02467"
R232,Natick,(508) 903-2800,natick,US,1245 Worcester Street,Natick,Massachusetts,MA,01760,https://www.apple.com/retail/natick,United States,"1245 Worcester Street, Natick, Massachusetts 01760"
R021,CambridgeSide,(617) 528-7970,cambridgeside,US,100 CambridgeSide Place,Cambridge,Massachusetts,MA,02141,https://www.apple.com/retail/cambridgeside,United States,"100 CambridgeSide Place, Cambridge, Massachusetts 02141"
R137,Derby Street,(781) 556-0400,derbystreet,US,94 Derby Street,Hingham,Massachusetts,MA,02043,https://www.apple.com/retail/derbystreet,United States,"94 Derby Street, Hingham, Massachusetts 02043"
R346,Legacy Place,(781) 471-3800,legacyplace,US,508 Legacy Place ,Dedham,Massachusetts,MA,02026,https://www.apple.com/retail/legacyplace,United States,"508 Legacy Place , Dedham, Massachusetts 02026"
R149,Boylston Street,(617) 385-9400,boylstonstreet,US,815 Boylston Street,Boston,Massachusetts,MA,02116,https://www.apple.com/retail/boylstonstreet,United States,"815 Boylston Street, Boston, Massachusetts 02116"
R191,Holyoke,(413) 493-3878,holyoke,US,50 Holyoke Street,Holyoke,Massachusetts,MA,01040,https://www.apple.com/retail/holyoke,United States,"50 Holyoke Street, Holyoke, Massachusetts 01040"
R011,MarketStreet,(978) 326-0970,marketstreet,US,1220 Market Street,Lynnfield,Massachusetts,MA,01940,https://www.apple.com/retail/marketstreet,United States,"1220 Market Street, Lynnfield, Massachusetts 01940"
R622,Solomon Pond Mall,(978) 838-5000,solomonpondmall,US,601 Donald Lynch Boulevard,Marlborough,Massachusetts,MA,01752,https://www.apple.com/retail/solomonpondmall,United States,"601 Donald Lynch Boulevard, Marlborough, Massachusetts 01752"
R225,The Summit,(205) 909-2570,thesummit,US,211 Summit Boulevard,Birmingham,Alabama,AL,35243,https://www.apple.com/retail/thesummit,United States,"211 Summit Boulevard, Birmingham, Alabama 35243"
R266,Bridge Street,(256) 327-8800,bridgestreet,US,320 The Bridge Street,Huntsville,Alabama,AL,35806,https://www.apple.com/retail/bridgestreet,United States,"320 The Bridge Street, Huntsville, Alabama 35806"
R324,Renaissance at Colony Park,(601) 607-4521,renaissanceatcolonypark,US,1000 Highland Colony Parkway,Ridgeland,Mississippi,MS,39157,https://www.apple.com/retail/renaissanceatcolonypark,United States,"1000 Highland Colony Parkway, Ridgeland, Mississippi 39157"
R107,Syracuse,(315) 233-5920,syracuse,US,1 Destiny USA Drive,Syracuse,New York,NY,13204,https://www.apple.com/retail/syracuse,United States,"1 Destiny USA Drive, Syracuse, New York 13204"
R251,Upper West Side,(212) 209-3400,upperwestside,US,1981 Broadway,New York,New York,NY,10023,https://www.apple.com/retail/upperwestside,United States,"1981 Broadway, New York, New York 10023"
R582,Upper East Side,(646) 343-2700,uppereastside,US,940 Madison Avenue,New York,New York,NY,10021,https://www.apple.com/retail/uppereastside,United States,"940 Madison Avenue, New York, New York 10021"
R016,Walden Galleria,(716) 706-2000,waldengalleria,US,G116 Walden Galleria,Buffalo,New York,NY,14225,https://www.apple.com/retail/waldengalleria,United States,"G116 Walden Galleria, Buffalo, New York 14225"
R152,Staten Island,(718) 568-2230,statenisland,US,2655 Richmond Avenue,Staten Island,New York,NY,10314,https://www.apple.com/retail/statenisland,United States,"2655 Richmond Avenue, Staten Island, New York 10314"
R032,SoHo,(212) 226-3126,soho,US,103 Prince Street,New York,New York,NY,10012,https://www.apple.com/retail/soho,United States,"103 Prince Street, New York, New York 10012"
R594,Williamsburg,(929) 397-2740,williamsburg,US,247 Bedford Avenue,Brooklyn,New York,NY,11211,https://www.apple.com/retail/williamsburg,United States,"247 Bedford Avenue, Brooklyn, New York 11211"
R095,Fifth Avenue,(212) 336-1440,fifthavenue,US,767 Fifth Avenue,New York,New York,NY,10153,https://www.apple.com/retail/fifthavenue,United States,"767 Fifth Avenue, New York, New York 10153"
R261,Ridge Hill,(914) 620-0965,ridgehill,US,143 Market Street,Yonkers,New York,NY,10710,https://www.apple.com/retail/ridgehill,United States,"143 Market Street, Yonkers, New York 10710"
R327,Manhasset,(516) 734-2420,manhasset,US,1900 Northern Boulevard,Manhasset,New York,NY,11030,https://www.apple.com/retail/manhasset,United States,"1900 Northern Boulevard, Manhasset, New York 11030"
R654,World Trade Center,(646) 802-3800,worldtradecenter,US,185 Greenwich Street,New York,New York,NY,10007,https://www.apple.com/retail/worldtradecenter,United States,"185 Greenwich Street, New York, New York 10007"
R612,Queens Center,(718) 489-1540,queenscenter,US,90-15 Queens Boulevard,Elmhurst,New York,NY,11373,https://www.apple.com/retail/queenscenter,United States,"90-15 Queens Boulevard, Elmhurst, New York 11373"
R753,The Mall at Bay Plaza,(718) 530-7760,themallatbayplaza,US,200 Baychester Avenue,Bronx,New York,NY,10475,https://www.apple.com/retail/themallatbayplaza,United States,"200 Baychester Avenue, Bronx, New York 10475"
R250,West 14th Street,(212) 444-3400,west14thstreet,US,401 W 14th Street,New York,New York,NY,10014,https://www.apple.com/retail/west14thstreet,United States,"401 W 14th Street, New York, New York 10014"
R140,Eastview,(585) 421-6070,eastview,US,7979 Pittsford-Victor Road,Victor,New York,NY,14564,https://www.apple.com/retail/eastview,United States,"7979 Pittsford-Victor Road, Victor, New York 14564"
R017,Crossgates,(518) 389-0140,crossgates,US,1 Crossgates Mall Road,Albany,New York,NY,12203,https://www.apple.com/retail/crossgates,United States,"1 Crossgates Mall Road, Albany, New York 12203"
R715,Downtown Brooklyn,(718) 637-6200,downtownbrooklyn,US,123 Flatbush Avenue,Brooklyn,New York,NY,11217-1483,https://www.apple.com/retail/downtownbrooklyn,United States,"123 Flatbush Avenue, Brooklyn, New York 11217-1483"
R139,Smith Haven,(631) 982-2500,smithhaven,US,516 Smith Haven Mall,Lake Grove,New York,NY,11755,https://www.apple.com/retail/smithhaven,United States,"516 Smith Haven Mall, Lake Grove, New York 11755"
R046,Nanuet,(845) 215-6980,nanuet,US,8115 Fashion Drive ,Nanuet,New York,NY,10954,https://www.apple.com/retail/nanuet,United States,"8115 Fashion Drive , Nanuet, New York 10954"
R415,Grand Central,(212) 284-1800,grandcentral,US,45 Grand Central Terminal,New York,New York,NY,10017,https://www.apple.com/retail/grandcentral,United States,"45 Grand Central Terminal, New York, New York 10017"
R061,The Westchester,(914) 539-4530,thewestchester,US,125 Westchester Avenue,White Plains,New York,NY,10601,https://www.apple.com/retail/thewestchester,United States,"125 Westchester Avenue, White Plains, New York 10601"
R060,Roosevelt Field,(516) 739-8540,rooseveltfield,US,630 Old Country Road,Garden City,New York,NY,11530,https://www.apple.com/retail/rooseveltfield,United States,"630 Old Country Road, Garden City, New York 11530"
R068,Walt Whitman,(631) 760-0160,waltwhitman,US,160 Walt Whitman Road,Huntington Station,New York,NY,11746,https://www.apple.com/retail/waltwhitman,United States,"160 Walt Whitman Road, Huntington Station, New York 11746"
R354,Pheasant Lane,(603) 521-3400,pheasantlane,US,310 Daniel Webster Highway,Nashua,New Hampshire,NH,03060,https://www.apple.com/retail/pheasantlane,United States,"310 Daniel Webster Highway, Nashua, New Hampshire 03060"
R027,Rockingham Park,(603) 328-3140,rockinghampark,US,99 Rockingham Park Boulevard,Salem,New Hampshire,NH,03079,https://www.apple.com/retail/rockinghampark,United States,"99 Rockingham Park Boulevard, Salem, New Hampshire 03079"
R631,The Mall of New Hampshire,(603) 391-0180,themallofnewhampshire,US,1500 S Willow Street,Manchester,New Hampshire,NH,03103,https://www.apple.com/retail/themallofnewhampshire,United States,"1500 S Willow Street, Manchester, New Hampshire 03103"
R288,Fritz Farm,(859) 971-5400,fritzfarm,US,4078 Finn Way,Lexington,Kentucky,KY,40517,https://www.apple.com/retail/fritzfarm,United States,"4078 Finn Way, Lexington, Kentucky 40517"
R264,Oxmoor,(502) 326-2840,oxmoor,US,7900 Shelbyville Road,Louisville,Kentucky,KY,40222,https://www.apple.com/retail/oxmoor,United States,"7900 Shelbyville Road, Louisville, Kentucky 40222"
R112,Bethesda Row,(301) 634-0880,bethesdarow,US,4860 Bethesda Avenue,Bethesda,Maryland,MD,20814,https://www.apple.com/retail/bethesdarow,United States,"4860 Bethesda Avenue, Bethesda, Maryland 20814"
R063,Towson Town Center,(410) 427-0360,towsontowncenter,US,825 Dulaney Valley Road,Towson,Maryland,MD,21204,https://www.apple.com/retail/towsontowncenter,United States,"825 Dulaney Valley Road, Towson, Maryland 21204"
R142,Annapolis,(410) 972-3290,annapolis,US,1735 Annapolis Mall,Annapolis,Maryland,MD,21401,https://www.apple.com/retail/annapolis,United States,"1735 Annapolis Mall, Annapolis, Maryland 21401"
R168,Columbia,(410) 423-1801,columbia,US,10300 Little Patuxent Parkway,Columbia,Maryland,MD,21044,https://www.apple.com/retail/columbia,United States,"10300 Little Patuxent Parkway, Columbia, Maryland 21044"
R084,Montgomery Mall,(301) 634-9930,montgomerymall,US,7101 Democracy Boulevard,Bethesda,Maryland,MD,20817,https://www.apple.com/retail/montgomerymall,United States,"7101 Democracy Boulevard, Bethesda, Maryland 20817"
R109,Jordan Creek,(515) 440-9900,jordancreek,US,101 Jordan Creek Parkway,West Des Moines,Iowa,IA,50266,https://www.apple.com/retail/jordancreek,United States,"101 Jordan Creek Parkway, West Des Moines, Iowa 50266"
R235,Lakeside Shopping Center,(504) 830-1400,lakesideshoppingcenter,US,3301 Veterans Memorial Blvd,Metairie,Louisiana,LA,70002,https://www.apple.com/retail/lakesideshoppingcenter,United States,"3301 Veterans Memorial Blvd, Metairie, Louisiana 70002"
R263,Mall of Louisiana,(225) 765-3500,malloflouisiana,US,6401 Bluebonnet Boulevard,Baton Rouge,Louisiana,LA,70836,https://www.apple.com/retail/malloflouisiana,United States,"6401 Bluebonnet Boulevard, Baton Rouge, Louisiana 70836"
R167,Providence Place,(401) 533-9400,providenceplace,US,20 Providence Place,Providence,Rhode Island,RI,02903,https://www.apple.com/retail/providenceplace,United States,"20 Providence Place, Providence, Rhode Island 02903"
R182,FlatIron Crossing,(720) 479-0465,flatironcrossing,US,One West Flatiron Crossing Dr,Broomfield,Colorado,CO,80021,https://www.apple.com/retail/flatironcrossing,United States,"One West Flatiron Crossing Dr, Broomfield, Colorado 80021"
R228,Park Meadows,(303) 256-1501,parkmeadows,US,8405 Park Meadows Center Drv,Lone Tree,Colorado,CO,80124,https://www.apple.com/retail/parkmeadows,United States,"8405 Park Meadows Center Drv, Lone Tree, Colorado 80124"
R047,Cherry Creek,(303) 583-7310,cherrycreek,US,3000 E 1st Avenue,Denver,Colorado,CO,80206,https://www.apple.com/retail/cherrycreek,United States,"3000 E 1st Avenue, Denver, Colorado 80206"
R338,The Promenade Shops at Briargate,(719) 522-4460,thepromenadeshopsatbriargate,US,1685 Briargate Parkway,Colorado Springs,Colorado,CO,80920,https://www.apple.com/retail/thepromenadeshopsatbriargate,United States,"1685 Briargate Parkway, Colorado Springs, Colorado 80920"
R030,Aspen Grove,(303) 256-2580,aspengrove,US,7301 S Santa Fe Drive,Littleton,Colorado,CO,80120,https://www.apple.com/retail/aspengrove,United States,"7301 S Santa Fe Drive, Littleton, Colorado 80120"
R172,Twenty Ninth Street,(720) 479-9451,twentyninthstreet,US,1755 29th Street,Boulder,Colorado,CO,80301,https://www.apple.com/retail/twentyninthstreet,United States,"1755 29th Street, Boulder, Colorado 80301"
R218,Partridge Creek,(586) 840-0500,partridgecreek,US,17360 Hall Road,Clinton Township,Michigan,MI,48038,https://www.apple.com/retail/partridgecreek,United States,"17360 Hall Road, Clinton Township, Michigan 48038"
R055,Somerset,(248) 822-0081,somerset,US,2800 W Big Beaver Road,Troy,Michigan,MI,48084,https://www.apple.com/retail/somerset,United States,"2800 W Big Beaver Road, Troy, Michigan 48084"
R132,Woodland,(616) 956-1420,woodland,US,3195 28th St. SE,Grand Rapids,Michigan,MI,49512,https://www.apple.com/retail/woodland,United States,"3195 28th St. SE, Grand Rapids, Michigan 49512"
R616,Eastwood Towne Center,(517) 374-4920,eastwoodtownecenter,US,3025 Preyde Boulevard,Lansing,Michigan,MI,48912,https://www.apple.com/retail/eastwoodtownecenter,United States,"3025 Preyde Boulevard, Lansing, Michigan 48912"
R041,Twelve Oaks,(248) 675-0320,twelveoaks,US,27500 Novi Road,Novi,Michigan,MI,48377,https://www.apple.com/retail/twelveoaks,United States,"27500 Novi Road, Novi, Michigan 48377"
R230,Briarwood,(734) 780-2471,briarwood,US,100 Briarwood Circle,Ann Arbor,Michigan,MI,48108,https://www.apple.com/retail/briarwood,United States,"100 Briarwood Circle, Ann Arbor, Michigan 48108"
R077,Pioneer Place,(503) 265-2010,pioneerplace,US,450 SW Yamhill Street,Portland,Oregon,OR,97204,https://www.apple.com/retail/pioneerplace,United States,"450 SW Yamhill Street, Portland, Oregon 97204"
R134,Bridgeport Village,(503) 670-8400,bridgeportvillage,US,7273 SW Bridgeport Road,Tigard,Oregon,OR,97224,https://www.apple.com/retail/bridgeportvillage,United States,"7273 SW Bridgeport Road, Tigard, Oregon 97224"
R090,Washington Square,(503) 495-2080,washingtonsquare,US,9585 SW Washington Square Rd,Tigard,Oregon,OR,97223,https://www.apple.com/retail/washingtonsquare,United States,"9585 SW Washington Square Rd, Tigard, Oregon 97223"
R303,Boise Towne Square,(208) 377-6500,boisetownesquare,US,350 North Milwaukee Street,Boise,Idaho,ID,83704,https://www.apple.com/retail/boisetownesquare,United States,"350 North Milwaukee Street, Boise, Idaho 83704"
R516,Carnegie Library,(202) 609-6400,carnegielibrary,US,801 K Street NW,Washington,District of Columbia,DC,20001,https://www.apple.com/retail/carnegielibrary,United States,"801 K Street NW, Washington, District of Columbia 20001"
R287,Georgetown,(202) 572-1460,georgetown,US,1229 Wisconsin Avenue NW,Washington,District of Columbia,DC,20007,https://www.apple.com/retail/georgetown,United States,"1229 Wisconsin Avenue NW, Washington, District of Columbia 20007"
R386,Perth City,(08) 6140 3800,perthcity,AU,790 Hay Street,Perth,Western Australia,WA,6000,https://www.apple.com/retail/perthcity,Australia,"790 Hay Street, Perth, Western Australia 6000"
R508,Booragoon,(08) 6557 6000,booragoon,AU,Westfield Booragoon,Booragoon,Western Australia,WA,6154,https://www.apple.com/retail/booragoon,Australia,"Westfield Booragoon, Booragoon, Western Australia 6154"
R405,Rundle Place,(08) 7088 5300,rundleplace,AU,Rundle Place Centre,Adelaide,South Australia,SA,5000,https://www.apple.com/retail/rundleplace,Australia,"Rundle Place Centre, Adelaide, South Australia 5000"
R483,Canberra,(02) 6224 9500,canberra,AU,Canberra Centre,Canberra,Australian Capital Territory,ACT,2601,https://www.apple.com/retail/canberra,Australia,"Canberra Centre, Canberra, Australian Capital Territory 2601"
R351,Robina,(07) 5667 0400,robina,AU,Robina Town Centre,Robina,Queensland,QLD,4226,https://www.apple.com/retail/robina,Australia,"Robina Town Centre, Robina, Queensland 4226"
R509,Carindale,(07) 3199 2200,carindale,AU,Westfield Carindale,Carindale,Queensland,QLD,4152,https://www.apple.com/retail/carindale,Australia,"Westfield Carindale, Carindale, Queensland 4152"
R384,Chermside,(07) 3115 0800,chermside,AU,Westfield Chermside,Chermside,Queensland,QLD,4032,https://www.apple.com/retail/chermside,Australia,"Westfield Chermside, Chermside, Queensland 4032"
R466,Brisbane,(07) 3182 9000,brisbane,AU,MacArthur Chambers,Brisbane City,Queensland,QLD,4000,https://www.apple.com/retail/brisbane,Australia,"MacArthur Chambers, Brisbane City, Queensland 4000"
R343,Southland,(03) 8523 1400,southland,AU,Westfield Southland,Cheltenham,Victoria,VIC,3192,https://www.apple.com/retail/southland,Australia,"Westfield Southland, Cheltenham, Victoria 3192"
R342,Doncaster,(03) 9914 2800,doncaster,AU,Westfield Doncaster,Doncaster,Victoria,VIC,3108,https://www.apple.com/retail/doncaster,Australia,"Westfield Doncaster, Doncaster, Victoria 3108"
R180,Chadstone,(03) 9038 7500,chadstone,AU,Chadstone Shopping Centre,Chadstone,Victoria,VIC,3148,https://www.apple.com/retail/chadstone,Australia,"Chadstone Shopping Centre, Chadstone, Victoria 3148"
R530,Fountain Gate,(03) 8765 4000,fountaingate,AU,Westfield Fountain Gate,Fountain Gate,Victoria,VIC,3805,https://www.apple.com/retail/fountaingate,Australia,"Westfield Fountain Gate, Fountain Gate, Victoria 3805"
R504,Highpoint,(03) 9975 9700,highpoint,AU,Highpoint Shopping Centre,Maribyrnong,Victoria,VIC,3032,https://www.apple.com/retail/highpoint,Australia,"Highpoint Shopping Centre, Maribyrnong, Victoria 3032"
R253,Chatswood Chase,(02) 8064 6300,chatswoodchase,AU,Chatswood Chase Sydney,Chatswood,New South Wales,NSW,2067,https://www.apple.com/retail/chatswoodchase,Australia,"Chatswood Chase Sydney, Chatswood, New South Wales 2067"
R344,Castle Towers,(02) 8864 0800,castletowers,AU,Castle Towers Shopping Centre,Castle Hill,New South Wales,NSW,2154,https://www.apple.com/retail/castletowers,Australia,"Castle Towers Shopping Centre, Castle Hill, New South Wales 2154"
R254,Bondi,(02) 9019 2400,bondi,AU,213 Oxford Street,Bondi Junction,New South Wales,NSW,2022,https://www.apple.com/retail/bondi,Australia,"213 Oxford Street, Bondi Junction, New South Wales 2022"
R606,Miranda,(02) 8578 1700,miranda,AU,Westfield Miranda,Miranda,New South Wales,NSW,2228,https://www.apple.com/retail/miranda,Australia,"Westfield Miranda, Miranda, New South Wales 2228"
R440,Penrith,(02) 4702 9400,penrith,AU,Westfield Penrith,Penrith,New South Wales,NSW,2750,https://www.apple.com/retail/penrith,Australia,"Westfield Penrith, Penrith, New South Wales 2750"
R385,Charlestown,(02) 4032 5800,charlestown,AU,Charlestown Square,Charlestown,New South Wales,NSW,2290,https://www.apple.com/retail/charlestown,Australia,"Charlestown Square, Charlestown, New South Wales 2290"
R523,Broadway,(02) 8035 4000,broadway,AU,Broadway Shopping Centre,Broadway,New South Wales,NSW,2007,https://www.apple.com/retail/broadway,Australia,"Broadway Shopping Centre, Broadway, New South Wales 2007"
R458,Hornsby,(02) 8401 8800,hornsby,AU,Westfield Hornsby,Hornsby,New South Wales,NSW,2077,https://www.apple.com/retail/hornsby,Australia,"Westfield Hornsby, Hornsby, New South Wales 2077"
R238,Sydney,(02) 8083 9400,sydney,AU,367 George Street,Sydney,New South Wales,NSW,2000,https://www.apple.com/retail/sydney,Australia,"367 George Street, Sydney, New South Wales 2000"
R687,Kärntner Straße,(01) 206 09 25 44,kaerntnerstrasse,AT,Kärntner Straße 11,Vienna,Vienna,,1010,https://www.apple.com/retail/kaerntnerstrasse,Austria,"Kärntner Straße 11, Vienna, Vienna 1010"
R486,Brussels,0800 81 685,brussels,BE,Avenue de la Toison d’Or 26/28,Brussels,Brabant,,1050,https://www.apple.com/retail/brussels,Belgium,"Avenue de la Toison d’Or 26/28, Brussels, Brabant 1050"
R608,Morumbi,(11) 5180-5900,morumbi,BR,"Av. Roque Petroni Júnior, 1089",São Paulo,SP,,04707-900,https://www.apple.com/retail/morumbi,Brazil,"Av. Roque Petroni Júnior, 1089, São Paulo, SP 04707-900"
R567,VillageMall,(21) 3179-3700,villagemall,BR,"Avenida das Americas, 3.900",Barra da Tijuca,Rio de Janeiro,,22640,https://www.apple.com/retail/villagemall,Brazil,"Avenida das Americas, 3.900, Barra da Tijuca, Rio de Janeiro 22640"
R512,DIX30,(450) 618-1400,dix30,CA,9120 boul. Leduc,Brossard,Quebec,QC,J4Y 0L3,https://www.apple.com/retail/dix30,Canada,"9120 boul. Leduc, Brossard, Quebec J4Y 0L3"
R207,Carrefour Laval,(450) 902-4400,carrefourlaval,CA,"3035, boulevard Le Carrefour, local C14B",Laval,Quebec,QC,H7T 1C8,https://www.apple.com/retail/carrefourlaval,Canada,"3035, boulevard Le Carrefour, local C14B, Laval, Quebec H7T 1C8"
R392,Fairview Pointe-Claire,(514) 630-8800,fairviewpointeclaire,CA,"6801, Transcanada Highway",Pointe-Claire,Quebec,QC,H9R 5J2,https://www.apple.com/retail/fairviewpointeclaire,Canada,"6801, Transcanada Highway, Pointe-Claire, Quebec H9R 5J2"
R248,Sainte-Catherine,(514) 906-8400,saintecatherine,CA,1321 Rue Ste-Catherine Ouest,Montreal,Quebec,QC,H3G 1P7,https://www.apple.com/retail/saintecatherine,Canada,"1321 Rue Ste-Catherine Ouest, Montreal, Quebec H3G 1P7"
R412,Place Ste-Foy,(418) 266-8600,placestefoy,CA,2450 Boulevard Laurier,Quebec City,Quebec,QC,G1V 2L1,https://www.apple.com/retail/placestefoy,Canada,"2450 Boulevard Laurier, Quebec City, Quebec G1V 2L1"
R447,Mapleview Centre,(289) 288-2012,mapleviewcentre,CA,900 Maple Avenue,Burlington,Ontario,ON,L7S 2J8,https://www.apple.com/retail/mapleviewcentre,Canada,"900 Maple Avenue, Burlington, Ontario L7S 2J8"
R429,Upper Canada Mall,(905) 952-3400,uppercanadamall,CA,17600 Yonge Street,Newmarket,Ontario,ON,L3Y 4Z1,https://www.apple.com/retail/uppercanadamall,Canada,"17600 Yonge Street, Newmarket, Ontario L3Y 4Z1"
R464,Conestoga,(519) 772-5150,conestoga,CA,550 King Street North,Waterloo,Ontario,ON,N2L 5W6,https://www.apple.com/retail/conestoga,Canada,"550 King Street North, Waterloo, Ontario N2L 5W6"
R332,Rideau,(613) 688-5575,rideau,CA,50 Rideau Street,Ottawa,Ontario,ON,K1N 9J7,https://www.apple.com/retail/rideau,Canada,"50 Rideau Street, Ottawa, Ontario K1N 9J7"
R121,Eaton Centre,(647) 258-0801,eatoncentre,CA,220 Yonge Street,Toronto,Ontario,ON,M5B 2H1,https://www.apple.com/retail/eatoncentre,Canada,"220 Yonge Street, Toronto, Ontario M5B 2H1"
R489,Masonville,(519) 963-4060,masonville,CA,1680 Richmond Street North,London,Ontario,ON,N6G 3Y9,https://www.apple.com/retail/masonville,Canada,"1680 Richmond Street North, London, Ontario N6G 3Y9"
R490,Bayshore Shopping Centre,(613) 288-7950,bayshoreshoppingcentre,CA,100 Bayshore Drive,Ottawa,Ontario,ON,K2B 8C1,https://www.apple.com/retail/bayshoreshoppingcentre,Canada,"100 Bayshore Drive, Ottawa, Ontario K2B 8C1"
R208,Sherway Gardens,(416) 646-8489,sherwaygardens,CA,25 The West Mall,Toronto,Ontario,ON,M9C 1B8,https://www.apple.com/retail/sherwaygardens,Canada,"25 The West Mall, Toronto, Ontario M9C 1B8"
R515,Markville Shopping Centre,(905) 513-2860,markvilleshoppingcentre,CA,5000 Highway 7 East,Markham,Ontario,ON,L3R 4M9,https://www.apple.com/retail/markvilleshoppingcentre,Canada,"5000 Highway 7 East, Markham, Ontario L3R 4M9"
R350,Square One,(905) 366-0580,squareone,CA,100 City Centre Drive,Mississauga,Ontario,ON,L5B 2C9,https://www.apple.com/retail/squareone,Canada,"100 City Centre Drive, Mississauga, Ontario L5B 2C9"
R333,Fairview,(416) 646-4412,fairview,CA,1800 Sheppard Avenue East,Toronto,Ontario,ON,M2J 5A7,https://www.apple.com/retail/fairview,Canada,"1800 Sheppard Avenue East, Toronto, Ontario M2J 5A7"
R120,Yorkdale,(416) 785-1776,yorkdale,CA,3401 Dufferin Street,Toronto,Ontario,ON,M6A 3A1,https://www.apple.com/retail/yorkdale,Canada,"3401 Dufferin Street, Toronto, Ontario M6A 3A1"
R273,West Edmonton,(780) 701-0540,westedmonton,CA,8882-170 Street,Edmonton,Alberta,AB,T5T 4M2,https://www.apple.com/retail/westedmonton,Canada,"8882-170 Street, Edmonton, Alberta T5T 4M2"
R209,Chinook Centre,(403) 444-3759,chinookcentre,CA,6455 Macleod Trail SW,Calgary,Alberta,AB,T2H 0K8,https://www.apple.com/retail/chinookcentre,Canada,"6455 Macleod Trail SW, Calgary, Alberta T2H 0K8"
R301,Market Mall,(403) 648-4865,marketmall,CA,3625 Shaganappi Trail NW,Calgary,Alberta,AB,T3A 0E2,https://www.apple.com/retail/marketmall,Canada,"3625 Shaganappi Trail NW, Calgary, Alberta T3A 0E2"
R411,Southgate Centre,(780) 801-3820,southgatecentre,CA,5015 111 St,Edmonton,Alberta,AB,T6H 4M6,https://www.apple.com/retail/southgatecentre,Canada,"5015 111 St, Edmonton, Alberta T6H 4M6"
R421,Richmond Centre,(604) 248-3940,richmondcentre,CA,6551 No. 3 Road,Richmond,British Columbia,BC,V6Y 2B6,https://www.apple.com/retail/richmondcentre,Canada,"6551 No. 3 Road, Richmond, British Columbia V6Y 2B6"
R280,Pacific Centre,(778) 373-1800,pacificcentre,CA,701 West Georgia Street,Vancouver,British Columbia,BC,V7Y 1G5,https://www.apple.com/retail/pacificcentre,Canada,"701 West Georgia Street, Vancouver, British Columbia V7Y 1G5"
R601,Guildford Town Centre,(604) 634-3240,guildfordtowncentre,CA,10355 152 Street,Surrey,British Columbia,BC,V3R 7C1,https://www.apple.com/retail/guildfordtowncentre,Canada,"10355 152 Street, Surrey, British Columbia V3R 7C1"
R488,Coquitlam Centre,(604) 945-1160,coquitlamcentre,CA,2929 Barnet Highway,Coquitlam,British Columbia,BC,V3B 5R5,https://www.apple.com/retail/coquitlamcentre,Canada,"2929 Barnet Highway, Coquitlam, British Columbia V3B 5R5"
R460,Metrotown,(778) 373-4810,metrotown,CA,320 4700 Kingsway,Burnaby,British Columbia,BC,V5H 4J2,https://www.apple.com/retail/metrotown,Canada,"320 4700 Kingsway, Burnaby, British Columbia V5H 4J2"
R514,Halifax Shopping Centre,(902) 442-3495,halifaxshoppingcentre,CA,7001 Mumford Road,Halifax,Nova Scotia,NS,B3L 2H8,https://www.apple.com/retail/halifaxshoppingcentre,Canada,"7001 Mumford Road, Halifax, Nova Scotia B3L 2H8"
R369,Polo Park,(204) 777-4500,polopark,CA,1485 Portage Avenue,Winnipeg,Manitoba,MB,R3G 0W4,https://www.apple.com/retail/polopark,Canada,"1485 Portage Avenue, Winnipeg, Manitoba R3G 0W4"
R575,Wuhan,400-638-3818,wuhan,CN,"Wuhan International Plaza Building C, 2F",Wuhan,Hubei,,430022,https://www.apple.com/retail/wuhan,China,"Wuhan International Plaza Building C, 2F, Wuhan, Hubei 430022"
R476,Paradise Walk Chongqing,400-617-1240,paradisewalkchongqing,CN,8 Paradise Walk,Chongqing,Chongqing,,400020,https://www.apple.com/retail/paradisewalkchongqing,China,"8 Paradise Walk, Chongqing, Chongqing 400020"
R573,MixC Chongqing,400-617-1215,mixcchongqing,CN,55 Xiejiawan Street,Chongqing,Chongqing,,400050,https://www.apple.com/retail/mixcchongqing,China,"55 Xiejiawan Street, Chongqing, Chongqing 400050"
R480,Jiefangbei,400-617-1224,jiefangbei,CN,108 Zourong Road,Chongqing,Chongqing,,400010,https://www.apple.com/retail/jiefangbei,China,"108 Zourong Road, Chongqing, Chongqing 400010"
R531,Tianyi Square,400-613-9774,tianyisquare,CN,Tianyi Square  No.155,Ningbo,Zhejiang,,315000,https://www.apple.com/retail/tianyisquare,China,"Tianyi Square  No.155, Ningbo, Zhejiang 315000"
R471,West Lake,400-617-1302,westlake,CN,100 Pinghai Road,Hangzhou,Zhejiang,,310006,https://www.apple.com/retail/westlake,China,"100 Pinghai Road, Hangzhou, Zhejiang 310006"
R532,MixC Hangzhou,400-617-1304,mixchangzhou,CN,701 Fuchun Road,Hangzhou,Zhejiang,,310000,https://www.apple.com/retail/mixchangzhou,China,"701 Fuchun Road, Hangzhou, Zhejiang 310000"
R766,MixC Wenzhou,400-000-2385,mixcwenzhou,CN,Wenzhou MixC L1,Wenzhou,Zhejiang,,325000,https://www.apple.com/retail/mixcwenzhou,China,"Wenzhou MixC L1, Wenzhou, Zhejiang 325000"
R557,MixC Qingdao,400-617-1285,mixcqingdao,CN,6A Shandong Road,Qingdao,Shandong,,266000,https://www.apple.com/retail/mixcqingdao,China,"6A Shandong Road, Qingdao, Shandong 266000"
R648,Parc 66 Jinan,400-613-9743,parc66jinan,CN,No. 188 Quancheng Road,Jinan,Shandong,,250011,https://www.apple.com/retail/parc66jinan,China,"No. 188 Quancheng Road, Jinan, Shandong 250011"
R639,Zhujiang New Town,400-639-3601,zhujiangnewtown,CN,International Grand City  L1,Guangzhou,Guangdong,,510623,https://www.apple.com/retail/zhujiangnewtown,China,"International Grand City  L1, Guangzhou, Guangdong 510623"
R577,Parc Central,400-613-9742,parccentral,CN,"No. 218, Tianhe Road",Guangzhou,Guangdong,,510000,https://www.apple.com/retail/parccentral,China,"No. 218, Tianhe Road, Guangzhou, Guangdong 510000"
R761,MixC Shenzhen,400-050-1588,mixcshenzhen,CN,Shenzhen the MixC Mall (Phase 1) Basement Level 1,Shenzhen,Guangdong,,518001,https://www.apple.com/retail/mixcshenzhen,China,"Shenzhen the MixC Mall (Phase 1) Basement Level 1, Shenzhen, Guangdong 518001"
R484,Holiday Plaza Shenzhen,400-617-1254,holidayplazashenzhen,CN,No. 9028 Shennan Avenue,Shenzhen,Guangdong,,518000,https://www.apple.com/retail/holidayplazashenzhen,China,"No. 9028 Shennan Avenue, Shenzhen, Guangdong 518000"
R643,Wonder City,400-617-1332,wondercity,CN,619 Yingtian Road ,Nanjing,Jiangsu,,210000,https://www.apple.com/retail/wondercity,China,"619 Yingtian Road , Nanjing, Jiangsu 210000"
R493,Nanjing IST,400-617-1334,nanjingist,CN,100 Zhongshan Road,Nanjing,Jiangsu,,210008,https://www.apple.com/retail/nanjingist,China,"100 Zhongshan Road, Nanjing, Jiangsu 210008"
R703,Xuanwu Lake,400-613-9772,nanjingjinmaoplace,CN,No.201 Zhongyang Road,Nanjing,Jiangsu,,210009,https://www.apple.com/retail/nanjingjinmaoplace,China,"No.201 Zhongyang Road, Nanjing, Jiangsu 210009"
R688,Suzhou,400-613-9775,suzhou,CN,Suzhou Center Mall,Suzhou,Jiangsu,,215021,https://www.apple.com/retail/suzhou,China,"Suzhou Center Mall, Suzhou, Jiangsu 215021"
R574,Center 66 Wuxi,400-617-1325,center66wuxi,CN,139 Renmin Middle Road,Wuxi,Jiangsu,,214000,https://www.apple.com/retail/center66wuxi,China,"139 Renmin Middle Road, Wuxi, Jiangsu 214000"
R401,Shanghai iapm,400-617-1324,shanghaiiapm,CN,999 Middle Huaihai Road,Shanghai,Shanghai,,200031,https://www.apple.com/retail/shanghaiiapm,China,"999 Middle Huaihai Road, Shanghai, Shanghai 200031"
R683,Global Harbor,400-617-1335,globalharbor,CN,3300 North Zhongshan Road,Shanghai,Shanghai,,200062,https://www.apple.com/retail/globalharbor,China,"3300 North Zhongshan Road, Shanghai, Shanghai 200062"
R705,Qibao,400-613-9773,qibao,CN,Shanghai Qibao Vanke Mall ,Shanghai,Shanghai,,201101,https://www.apple.com/retail/qibao,China,"Shanghai Qibao Vanke Mall , Shanghai, Shanghai 201101"
R359,Nanjing East,400-663-9988,nanjingeast,CN,No. 300 East Nanjing Road,Shanghai,Shanghai,,200001,https://www.apple.com/retail/nanjingeast,China,"No. 300 East Nanjing Road, Shanghai, Shanghai 200001"
R390,Hong Kong Plaza,400-617-1312,hongkongplaza,CN,282 Middle Huaihai Road,Shanghai,Shanghai,,200021,https://www.apple.com/retail/hongkongplaza,China,"282 Middle Huaihai Road, Shanghai, Shanghai 200021"
R389,Pudong,400-617-1305,pudong,CN,No.8 Century Avenue IFC Mall,Shanghai,Shanghai,,200120,https://www.apple.com/retail/pudong,China,"No.8 Century Avenue IFC Mall, Shanghai, Shanghai 200120"
R581,Wujiaochang,400-613-9771,wujiaochang,CN,Hopson One,Shanghai,Shanghai,,200433,https://www.apple.com/retail/wujiaochang,China,"Hopson One, Shanghai, Shanghai 200433"
R572,MixC Zhengzhou,400-617-1264,mixczhengzhou,CN,10 Minzhu Road,Zhengzhou,Henan,,450099,https://www.apple.com/retail/mixczhengzhou,China,"10 Minzhu Road, Zhengzhou, Henan 450099"
R448,Wangfujing,400-617-1205,wangfujing,CN,Beijing apm,Beijing,Beijing,,100006,https://www.apple.com/retail/wangfujing,China,"Beijing apm, Beijing, Beijing 100006"
R388,Xidan Joy City,400-617-1204,xidanjoycity,CN,Xidan Joy City,Beijing,Beijing,,100032,https://www.apple.com/retail/xidanjoycity,China,"Xidan Joy City, Beijing, Beijing 100032"
R645,Chaoyang Joy City,400-617-1284,chaoyangjoycity,CN,101 Chaoyang North Road,Beijing,Beijing,,100000,https://www.apple.com/retail/chaoyangjoycity,China,"101 Chaoyang North Road, Beijing, Beijing 100000"
R320,Sanlitun,400-617-1363,sanlitun,CN,"Building 7, Taikoo Li South",Beijing,Beijing,,100027,https://www.apple.com/retail/sanlitun,China,"Building 7, Taikoo Li South, Beijing, Beijing 100027"
R479,China Central Mall,400-617-1210,chinacentralmall,CN,China Central Mall,Beijing,Beijing,,100025,https://www.apple.com/retail/chinacentralmall,China,"China Central Mall, Beijing, Beijing 100025"
R580,Taikoo Li Chengdu,400-617-1275,taikoolichengdu,CN,8 Middle Shamao Street,Chengdu,Sichuan,,610000,https://www.apple.com/retail/taikoolichengdu,China,"8 Middle Shamao Street, Chengdu, Sichuan 610000"
R502,MixC Chengdu,400-617-1214,mixcchengdu,CN,MixC Chengdu,Chengdu,Sichuan,,610000,https://www.apple.com/retail/mixcchengdu,China,"MixC Chengdu, Chengdu, Sichuan 610000"
R638,MixC Tianjin,400-613-9745,mixctianjin,CN,9 Le Yuan Road,Tianjin,Tianjin,,300201,https://www.apple.com/retail/mixctianjin,China,"9 Le Yuan Road, Tianjin, Tianjin 300201"
R637,Tianjin Joy City,400-617-1262,tianjinjoycity,CN,2 Nanmenwai Street,Tianjin,Tianjin,,300199,https://www.apple.com/retail/tianjinjoycity,China,"2 Nanmenwai Street, Tianjin, Tianjin 300199"
R579,Riverside 66 Tianjin,400-613-9744,riverside66tianjin,CN,166 Xing‘an Road ,Tianjin,Tianjin,,300041,https://www.apple.com/retail/riverside66tianjin,China,"166 Xing‘an Road , Tianjin, Tianjin 300041"
R478,Parkland,400-056-0921,parkland,CN,19 Jiefang Road,Dalian,Liaoning,,116000,https://www.apple.com/retail/parkland,China,"19 Jiefang Road, Dalian, Liaoning 116000"
R534,Zhongjie Joy City,400-617-1252,zhongjiejoycity,CN,5 Xiaodong Road,Shenyang,Liaoning,,110042,https://www.apple.com/retail/zhongjiejoycity,China,"5 Xiaodong Road, Shenyang, Liaoning 110042"
R576,MixC Shenyang,400-617-1274,mixcshenyang,CN,288 Qingnian Street,Shenyang,Liaoning,,110000,https://www.apple.com/retail/mixcshenyang,China,"288 Qingnian Street, Shenyang, Liaoning 110000"
R609,Olympia 66 Dalian,400-613-9741,olympia66dalian,CN,No.66 Wusi Road,Dalian,Liaoning,,116000,https://www.apple.com/retail/olympia66dalian,China,"No.66 Wusi Road, Dalian, Liaoning 116000"
R571,MixC Nanning,400-617-1265,mixcnanning,CN,136 Minzu Avenue,Nanning,Guangxi,,530000,https://www.apple.com/retail/mixcnanning,China,"136 Minzu Avenue, Nanning, Guangxi 530000"
R617,Changsha,400-604-3168,changsha,CN,Changsha IFS Level 1,Changsha,Hunan,,410000,https://www.apple.com/retail/changsha,China,"Changsha IFS Level 1, Changsha, Hunan 410000"
R646,Tahoe Plaza,400-617-1354,tahoeplaza,CN,Tahoe Plaza,Fuzhou,Fujian,,350000,https://www.apple.com/retail/tahoeplaza,China,"Tahoe Plaza, Fuzhou, Fujian 350000"
R644,Xiamen Lifestyle Center,400-617-1383,xiamenlifestylecenter,CN, SM Lifestyle Center,Xiamen,Fujian,,361012,https://www.apple.com/retail/xiamenlifestylecenter,China," SM Lifestyle Center, Xiamen, Fujian 361012"
R670,Kunming,400-639-3602,kunming,CN,Shuncheng Shopping Center,Kunming,Yunnan,,650031,https://www.apple.com/retail/kunming,China,"Shuncheng Shopping Center, Kunming, Yunnan 650031"
R394,Strasbourg,03 88 10 13 00,strasbourg,FR,L’Aubette,Strasbourg,Bas-Rhin,,67000,https://www.apple.com/retail/strasbourg,France,"L’Aubette, Strasbourg, Bas-Rhin 67000"
R470,Atlantis,02 40 85 57 00,atlantis,FR,Galerie Atlantis Le Centre,Saint Herblain,Loire-Atlantique,,44811,https://www.apple.com/retail/atlantis,France,"Galerie Atlantis Le Centre, Saint Herblain, Loire-Atlantique 44811"
R469,Confluence,04 37 23 15 00,confluence,FR,Centre Commercial Confluence,Lyon,Rhône,,69002,https://www.apple.com/retail/confluence,France,"Centre Commercial Confluence, Lyon, Rhône 69002"
R373,Part-Dieu,04 72 13 25 00,part-dieu,FR,Centre commercial La Part-Dieu,Lyon,Rhône,,69003,https://www.apple.com/retail/part-dieu,France,"Centre commercial La Part-Dieu, Lyon, Rhône 69003"
R536,Rosny 2,01 73 30 89 00,rosny2,FR,Centre Commercial Rosny 2 ,Rosny-Sous-Bois,Seine-Saint-Denis,,93117,https://www.apple.com/retail/rosny2,France,"Centre Commercial Rosny 2 , Rosny-Sous-Bois, Seine-Saint-Denis 93117"
R376,Lille,03 59 81 89 00,lille,FR,1 rue Faidherbe,Lille,Nord-Pas-de-Calais,,59800,https://www.apple.com/retail/lille,France,"1 rue Faidherbe, Lille, Nord-Pas-de-Calais 59800"
R315,Vélizy 2,01 30 70 77 00,velizy2,FR,2 Avenue de l'Europe,Velizy-Villacoublay,Yvelines,,78140,https://www.apple.com/retail/velizy2,France,"2 Avenue de l'Europe, Velizy-Villacoublay, Yvelines 78140"
R374,Parly 2,01 39 66 26 00,parly2,FR,Centre commercial régional Parly 2,Le Chesnay,Yvelines,,78158,https://www.apple.com/retail/parly2,France,"Centre commercial régional Parly 2, Le Chesnay, Yvelines 78158"
R367,Odysseum,04 67 13 99 00,odysseum,FR,Centre Commercial Odysseum,Montpellier,Hérault,,34000,https://www.apple.com/retail/odysseum,France,"Centre Commercial Odysseum, Montpellier, Hérault 34000"
R277,Opéra,01 44 83 42 00,opera,FR,12 rue Halévy,Paris,Paris,,75009,https://www.apple.com/retail/opera,France,"12 rue Halévy, Paris, Paris 75009"
R566,Marché Saint-Germain,01 85 65 48 00,marchesaintgermain,FR,7-9 rue Clément,Paris,Paris,,75006,https://www.apple.com/retail/marchesaintgermain,France,"7-9 rue Clément, Paris, Paris 75006"
R395,CAP 3000,04 92 12 51 50,cap3000,FR,Avenue Eugène Donadeï,Nice,Alpes-Maritimes,,06700,https://www.apple.com/retail/cap3000,France,"Avenue Eugène Donadeï, Nice, Alpes-Maritimes 06700"
R178,Les Quatre Temps,01 41 97 36 00,lesquatretemps,FR,Centre commercial Les Quatre Temps,Puteaux - la Defense,Hauts-de-Seine,,92800,https://www.apple.com/retail/lesquatretemps,France,"Centre commercial Les Quatre Temps, Puteaux - la Defense, Hauts-de-Seine 92800"
R522,La Toison d’Or,03 80 40 45 00,latoisondor,FR,Centre Commercial de la Toison d’Or,Dijon,Côte d’Or,,21078,https://www.apple.com/retail/latoisondor,France,"Centre Commercial de la Toison d’Or, Dijon, Côte d’Or 21078"
R675,Champs-Élysées,01 70 98 09 00,champs-elysees,FR,114 Av. des Champs-Élysées,Paris,Île-de-France,,75008,https://www.apple.com/retail/champs-elysees,France,"114 Av. des Champs-Élysées, Paris, Île-de-France 75008"
R424,Sainte-Catherine,05 56 69 58 00,sainte-catherine,FR,2-4 rue Sainte-Catherine,Bordeaux,Gironde,,33000,https://www.apple.com/retail/sainte-catherine,France,"2-4 rue Sainte-Catherine, Bordeaux, Gironde 33000"
R425,Val d’Europe,01 64 17 35 00,valdeurope,FR,Centre Commercial Val d’Europe,Marne-la-Vallee,Seine-et-Marne,,77711,https://www.apple.com/retail/valdeurope,France,"Centre Commercial Val d’Europe, Marne-la-Vallee, Seine-et-Marne 77711"
R438,Carré Sénart,01 60 18 26 00,carresenart,FR,Centre commercial régional,Lieusaint,Seine-et-Marne,,77127,https://www.apple.com/retail/carresenart,France,"Centre commercial régional, Lieusaint, Seine-et-Marne 77127"
R357,Marseille,04 20 10 54 00,marseille,FR,Les Terrasses du Port,Marseille,Bouches-du-Rhône,,13002,https://www.apple.com/retail/marseille,France,"Les Terrasses du Port, Marseille, Bouches-du-Rhône 13002"
R477,Aix-en-Provence,04 88 80 78 00,aix-en-provence,FR,2 Place du Général de Gaulle,Aix-en-Provence,Bouches-du-Rhône,,13100,https://www.apple.com/retail/aix-en-provence,France,"2 Place du Général de Gaulle, Aix-en-Provence, Bouches-du-Rhône 13100"
R519,Sindelfingen,(07031) 4104600,sindelfingen,DE,Breuningerland Sindelfingen,Sindelfingen,Baden-Württemberg,,71065,https://www.apple.com/retail/sindelfingen,Germany,"Breuningerland Sindelfingen, Sindelfingen, Baden-Württemberg 71065"
R430,Altmarkt-Galerie,(0351) 49774000,altmarkt-galerie,DE,Altmarkt 25,Dresden,Saxony,,01067,https://www.apple.com/retail/altmarkt-galerie,Germany,"Altmarkt 25, Dresden, Saxony 01067"
R431,City-Galerie,(0821) 907649000,city-galerie,DE,City-Galerie Augsburg,Augsburg,Bavaria,,86153,https://www.apple.com/retail/city-galerie,Germany,"City-Galerie Augsburg, Augsburg, Bavaria 86153"
R045,Rosenstrasse,(089) 242145000,rosenstrasse,DE,Rosenstrasse 1,Munich,Bavaria,,80331,https://www.apple.com/retail/rosenstrasse,Germany,"Rosenstrasse 1, Munich, Bavaria 80331"
R521,OEZ,(089) 204002800,oez,DE,Olympia-Einkaufszentrum,Munich,Bavaria,,80993,https://www.apple.com/retail/oez,Germany,"Olympia-Einkaufszentrum, Munich, Bavaria 80993"
R520,Rhein Center,(02234) 2020600,rheincenter,DE,Rhein Center,Cologne,North Rhine-Westphalia,,50858,https://www.apple.com/retail/rheincenter,Germany,"Rhein Center, Cologne, North Rhine-Westphalia 50858"
R559,Schildergasse,(0221) 65013700,schildergasse,DE,Schildergasse 1-9,Cologne,North Rhine-Westphalia,,50667,https://www.apple.com/retail/schildergasse,Germany,"Schildergasse 1-9, Cologne, North Rhine-Westphalia 50667"
R331,Düsseldorf,(0211) 42470600,duesseldorf,DE,Kö-Bogen,Düsseldorf,North Rhine-Westphalia,,40212,https://www.apple.com/retail/duesseldorf,Germany,"Kö-Bogen, Düsseldorf, North Rhine-Westphalia 40212"
R403,CentrO,(0208) 30588000,centro,DE,CentrO Oberhausen,Oberhausen,North Rhine-Westphalia,,46047,https://www.apple.com/retail/centro,Germany,"CentrO Oberhausen, Oberhausen, North Rhine-Westphalia 46047"
R455,Hannover,(0511) 93620700,hannover,DE,Bahnhofstrasse 5,Hannover,Lower Saxony,,30159,https://www.apple.com/retail/hannover,Germany,"Bahnhofstrasse 5, Hannover, Lower Saxony 30159"
R396,Jungfernstieg,(040) 349628000,jungfernstieg,DE,Jungfernstieg 12,Hamburg,Hamburg,,20354,https://www.apple.com/retail/jungfernstieg,Germany,"Jungfernstieg 12, Hamburg, Hamburg 20354"
R366,Alstertal,(040) 6118315000,alstertal,DE,Alstertal-Einkaufszentrum,Hamburg,Hamburg,,22391,https://www.apple.com/retail/alstertal,Germany,"Alstertal-Einkaufszentrum, Hamburg, Hamburg 22391"
R443,Rosenthaler Strasse,(030) 346493600,rosenthalerstrasse,DE,44 Rosenthaler Strasse,Berlin,Berlin,,10178,https://www.apple.com/retail/rosenthalerstrasse,Germany,"44 Rosenthaler Strasse, Berlin, Berlin 10178"
R358,Kurfürstendamm,(030) 590090000,kurfuerstendamm,DE,Kurfürstendamm 26,Berlin,Berlin,,10719,https://www.apple.com/retail/kurfuerstendamm,Germany,"Kurfürstendamm 26, Berlin, Berlin 10719"
R352,Grosse Bockenheimer Strasse,(069) 219308000,grossebockenheimerstrasse,DE,Grosse Bockenheimer Strasse 30,Frankfurt,Hesse,,60313,https://www.apple.com/retail/grossebockenheimerstrasse,Germany,"Grosse Bockenheimer Strasse 30, Frankfurt, Hesse 60313"
R434,MTZ,(069) 389865800,mtz,DE,Main-Taunus-Zentrum,Sulzbach,Hesse,,65843,https://www.apple.com/retail/mtz,Germany,"Main-Taunus-Zentrum, Sulzbach, Hesse 65843"
R499,Canton Road,39798800,cantonroad,HK,100 Canton Road,Tsim Sha Tsui,Hong Kong,,,https://www.apple.com/retail/cantonroad,Hong Kong,"100 Canton Road, Tsim Sha Tsui, Hong Kong "
R428,ifc mall,39721500,ifcmall,HK,International Finance Centre ,Central,Hong Kong,,,https://www.apple.com/retail/ifcmall,Hong Kong,"International Finance Centre , Central, Hong Kong "
R485,Festival Walk,39793600,festivalwalk,HK,Festival Walk,Kowloon Tong,Hong Kong,,,https://www.apple.com/retail/festivalwalk,Hong Kong,"Festival Walk, Kowloon Tong, Hong Kong "
R610,New Town Plaza,38997800,newtownplaza,HK,New Town Plaza Phase 1 L4,Sha Tin,Hong Kong,,,https://www.apple.com/retail/newtownplaza,Hong Kong,"New Town Plaza Phase 1 L4, Sha Tin, Hong Kong "
R673,apm Hong Kong,35728900,apmhongkong,HK,418 Kwun Tong Road,Kwun Tong,Hong Kong,,,https://www.apple.com/retail/apmhongkong,Hong Kong,"418 Kwun Tong Road, Kwun Tong, Hong Kong "
R409,Causeway Bay,39793100,causewaybay,HK,Hysan Place,Causeway Bay,Hong Kong,,,https://www.apple.com/retail/causewaybay,Hong Kong,"Hysan Place, Causeway Bay, Hong Kong "
R744,BKC,000800 040 4504,bkc,IN,"G1-G2, Jio World Drive",Mumbai,Maharashtra,MAH,400051,https://www.apple.com/retail/bkc,,"G1-G2, Jio World Drive, Mumbai, Maharashtra 400051"
R756,Saket,000800 040 4503,saket,IN,"F-11, Select CITYWALK",New Delhi,Delhi,DEL,110017,https://www.apple.com/retail/saket,,"F-11, Select CITYWALK, New Delhi, Delhi 110017"
R418,Oriocenter,035 421 400,oriocenter,IT,Centro commerciale Oriocenter,Orio al Serio,Bergamo,,24050,https://www.apple.com/retail/oriocenter,Italy,"Centro commerciale Oriocenter, Orio al Serio, Bergamo 24050"
R453,Campania,0823 698 710 0,campania,IT,Centro Commerciale Campania,Marcianise,Caserta,,81025,https://www.apple.com/retail/campania,Italy,"Centro Commerciale Campania, Marcianise, Caserta 81025"
R667,Piazza Liberty,02 303 024 00,piazzaliberty,IT,"Piazza del Liberty, 1",Milan,Lombardy,,20121,https://www.apple.com/retail/piazzaliberty,Italy,"Piazza del Liberty, 1, Milan, Lombardy 20121"
R454,Centro Sicilia,095 718 180 1,centrosicilia,IT,Strada provinciale 54 - Località La Tenutella,Misterbianco,Catania,,95045,https://www.apple.com/retail/centrosicilia,Italy,"Strada provinciale 54 - Località La Tenutella, Misterbianco, Catania 95045"
R625,Nave de Vero,041 884 270 0,navedevero,IT,Centro commerciale Nave de Vero,Mestre,Venice,,30175,https://www.apple.com/retail/navedevero,Italy,"Centro commerciale Nave de Vero, Mestre, Venice 30175"
R547,il Leone,030 915 670 1,illeone,IT,Il Leone Shopping Center,Lonato,Brescia,,25017,https://www.apple.com/retail/illeone,Italy,"Il Leone Shopping Center, Lonato, Brescia 25017"
R564,Le Befane,0541 181 320 0,lebefane,IT,Centro Commerciale Le Befane,Rimini,Rimini,,47900,https://www.apple.com/retail/lebefane,Italy,"Centro Commerciale Le Befane, Rimini, Rimini 47900"
R442,Via Roma,011 506 620 1,viaroma,IT,"Via Roma, 82",Turin,Piedmont,,10121,https://www.apple.com/retail/viaroma,Italy,"Via Roma, 82, Turin, Piedmont 10121"
R381,Porta di Roma,06 872 085 01,portadiroma,IT,Galleria Porta di Roma,Roma Bufalotta,Rome,,00139,https://www.apple.com/retail/portadiroma,Italy,"Galleria Porta di Roma, Roma Bufalotta, Rome 00139"
R382,Via del Corso,(06) 69204400,viadelcorso,IT,Via del Corso 181-188,Rome,Rome,,00186,https://www.apple.com/retail/viadelcorso,Italy,"Via del Corso 181-188, Rome, Rome 00186"
R562,Euroma2,06 452 307 00,euroma2,IT,Centro Commerciale Euroma2,Roma,Rome,,00144,https://www.apple.com/retail/euroma2,Italy,"Centro Commerciale Euroma2, Roma, Rome 00144"
R278,Le Gru,011 770 511 00,legru,IT,Centro commerciale Le Gru,Grugliasco,Turin,,10095,https://www.apple.com/retail/legru,Italy,"Centro commerciale Le Gru, Grugliasco, Turin 10095"
R441,Fiordaliso,02 577 976 00,fiordaliso,IT,Centro Commerciale Fiordaliso,Rozzano,Milan,,20089,https://www.apple.com/retail/fiordaliso,Italy,"Centro Commerciale Fiordaliso, Rozzano, Milan 20089"
R365,Carosello,02 925 072 00,carosello,IT,Centro Commerciale Carosello,Carugate,Milan,,20061,https://www.apple.com/retail/carosello,Italy,"Centro Commerciale Carosello, Carugate, Milan 20061"
R427,Via Rizzoli,051 640 010 0,viarizzoli,IT,"Via Rizzoli, 16",Bologna,Bologna,,40125,https://www.apple.com/retail/viarizzoli,Italy,"Via Rizzoli, 16, Bologna, Bologna 40125"
R449,I Gigli,055 880 300 0,igigli,IT,Centro Commerciale I Gigli,Campi Bisenzio,Florence,,50013,https://www.apple.com/retail/igigli,Italy,"Centro Commerciale I Gigli, Campi Bisenzio, Florence 50013"
R602,Firenze,055 464 190 0,firenze,IT,Piazza della Repubblica,Florence,Florence,,50123,https://www.apple.com/retail/firenze,Italy,"Piazza della Repubblica, Florence, Florence 50123"
R005,Nagoya Sakae,(052) 238-2400,nagoyasakae,JP,FX Building,Nagoya-shi,Aichi,,460-0008,https://www.apple.com/retail/nagoyasakae,Japan,"FX Building, Nagoya-shi, Aichi 460-0008"
R091,Shinsaibashi,(06) 4965-2900,shinsaibashi,JP,UrbanBLD Shinsaibashi,Osaka-shi,Osaka,,542-0086,https://www.apple.com/retail/shinsaibashi,Japan,"UrbanBLD Shinsaibashi, Osaka-shi, Osaka 542-0086"
R710,Kawasaki,(044) 577-5100,kawasaki,JP,Lazona Kawasaki Plaza,Kawasaki-shi,Kanagawa,,212-8576,https://www.apple.com/retail/kawasaki,Japan,"Lazona Kawasaki Plaza, Kawasaki-shi, Kanagawa 212-8576"
R711,Kyoto,(075) 757-8700,kyoto,JP,83-1 Tachiurinakanocho,Kyoto-shi,Kyoto,,600-8006,https://www.apple.com/retail/kyoto,Japan,"83-1 Tachiurinakanocho, Kyoto-shi, Kyoto 600-8006"
R048,Fukuoka,(092) 778-0200,fukuoka,JP,"2-5-19 Tenjin, Chuo-ku",Fukuoka-shi,Fukuoka,,810-0001,https://www.apple.com/retail/fukuoka,Japan,"2-5-19 Tenjin, Chuo-ku, Fukuoka-shi, Fukuoka 810-0001"
R119,Shibuya,(03) 6670-1800,shibuya,JP,Koendori Building,Shibuya-ku,Tokyo,,150-0041,https://www.apple.com/retail/shibuya,Japan,"Koendori Building, Shibuya-ku, Tokyo 150-0041"
R224,Omotesando,(03) 6757-4400,omotesando,JP,4-2-13 Jingumae,Shibuya-ku,Tokyo,,150-0001,https://www.apple.com/retail/omotesando,Japan,"4-2-13 Jingumae, Shibuya-ku, Tokyo 150-0001"
R128,Shinjuku,(03) 5656-1800,shinjuku,JP,Shinjuku Marui Honkan,Shinjuku-ku,Tokyo,,160-0022,https://www.apple.com/retail/shinjuku,Japan,"Shinjuku Marui Honkan, Shinjuku-ku, Tokyo 160-0022"
R718,Marunouchi,(03) 4213-0500,marunouchi,JP,Mitsubishi Building,Chiyoda-ku,Tokyo,,100-0005,https://www.apple.com/retail/marunouchi,Japan,"Mitsubishi Building, Chiyoda-ku, Tokyo 100-0005"
R079,Ginza,(03) 4345-3600,ginza,JP,8-9-7 Ginza,Chuo-ku,Tokyo,,104-0061,https://www.apple.com/retail/ginza,Japan,"8-9-7 Ginza, Chuo-ku, Tokyo 104-0061"
R672,Galaxy Macau,87919000,galaxymacau,MO,Galaxy Macau™ The Promenade,Macao,Macao,,,https://www.apple.com/retail/galaxymacau,Macao,"Galaxy Macau™ The Promenade, Macao, Macao "
R697,Cotai Strip,87917000,cotaistrip,MO,Shoppes at Londoner,Macao,Cotai,,,https://www.apple.com/retail/cotaistrip,Macao,"Shoppes at Londoner, Macao, Cotai "
R740,Antara,55 4739 3890,antara,MX,Av. Ejército Nacional #843-B,Mexico City,Ciudad de México,,11520,https://www.apple.com/retail/antara,Mexico,"Av. Ejército Nacional #843-B, Mexico City, Ciudad de México 11520"
R708,Vía Santa Fe,55 1037 6400,viasantafe,MX,Avenida Vasco de Quiroga 3800,Cuajimalpa de Morelos,Ciudad de México,,05109,https://www.apple.com/retail/viasantafe,Mexico,"Avenida Vasco de Quiroga 3800, Cuajimalpa de Morelos, Ciudad de México 05109"
R540,Den Haag,(070) 7010300,denhaag,NL,Passage 39,The Hague,Zuid-Holland,,2511 AB,https://www.apple.com/retail/denhaag,Netherlands,"Passage 39, The Hague, Zuid-Holland 2511 AB"
R408,Amsterdam,(020) 5302200,amsterdam,NL,"Hirsch Building, Leidseplein 25",Amsterdam,Noord-Holland,,1017 PS,https://www.apple.com/retail/amsterdam,Netherlands,"Hirsch Building, Leidseplein 25, Amsterdam, Noord-Holland 1017 PS"
R539,Haarlem,(023) 7993800,haarlem,NL,Grote Houtstraat 99,Haarlem,Noord-Holland,,2011 SH,https://www.apple.com/retail/haarlem,Netherlands,"Grote Houtstraat 99, Haarlem, Noord-Holland 2011 SH"
R770,Hanam,080-500-3006,hanam,KR,"Starfield Hanam, 1F",Gyeonggi,Gyeonggi,,12942,https://www.apple.com/retail/hanam,South Korea,"Starfield Hanam, 1F, Gyeonggi, Gyeonggi 12942"
R691,Gangnam,080-500-0456,gangnam,KR,464 Gangnam-daero,Seoul,Seoul,,06123,https://www.apple.com/retail/gangnam,South Korea,"464 Gangnam-daero, Seoul, Seoul 06123"
R747,Yeouido,080-500-0013,yeouido,KR,"IFC Mall, L1",Seoul,Seoul,,07326,https://www.apple.com/retail/yeouido,South Korea,"IFC Mall, L1, Seoul, Seoul 07326"
R738,Myeongdong,080-500-1007,myeongdong,KR,"9-1 Namdaemunro 2ga, JoongGu",Seoul,Seoul,,04534,https://www.apple.com/retail/myeongdong,South Korea,"9-1 Namdaemunro 2ga, JoongGu, Seoul, Seoul 04534"
R751,Jamsil,080-500-0098,jamsil,KR,"Lotte World Mall, 1F",Seoul,Seoul,,05551,https://www.apple.com/retail/jamsil,South Korea,"Lotte World Mall, 1F, Seoul, Seoul 05551"
R692,Garosugil,080-500-0029,garosugil,KR,"43, Garosu-gil",Seoul,Seoul,,06028,https://www.apple.com/retail/garosugil,South Korea,"43, Garosu-gil, Seoul, Seoul 06028"
R468,La Cañada,952 760 800,lacanada,ES,Parque Comercial La Cañada,Marbella,Málaga,,29600,https://www.apple.com/retail/lacanada,Spain,"Parque Comercial La Cañada, Marbella, Málaga 29600"
R377,Puerto Venecia,976 188 900,puertovenecia,ES,"C. C. Puerto Venecia, Galería de Moda",Zaragoza,Zaragoza,,50021,https://www.apple.com/retail/puertovenecia,Spain,"C. C. Puerto Venecia, Galería de Moda, Zaragoza, Zaragoza 50021"
R507,Nueva Condomina,968 387 800,nuevacondomina,ES,Centro Comercial Nueva Condomina,Churra,Murcia,,30110,https://www.apple.com/retail/nuevacondomina,Spain,"Centro Comercial Nueva Condomina, Churra, Murcia 30110"
R538,Río Shopping,983 368 900,rioshopping,ES,Centro Comercial Río Shopping,Arroyo de la Encomienda,Valladolid,,47195,https://www.apple.com/retail/rioshopping,Spain,"Centro Comercial Río Shopping, Arroyo de la Encomienda, Valladolid 47195"
R419,Valencia,963 506 300,callecolon,ES,Calle Colón 25,Valencia,Valencia,,46004,https://www.apple.com/retail/callecolon,Spain,"Calle Colón 25, Valencia, Valencia 46004"
R406,La Maquinista,934 669 000,lamaquinista,ES,Centro comercial La Maquinista,Barcelona,Barcelona,,08030,https://www.apple.com/retail/lamaquinista,Spain,"Centro comercial La Maquinista, Barcelona, Barcelona 08030"
R368,Passeig de Gràcia,932 950 500,passeigdegracia,ES,"Passeig de Gràcia, 1",Barcelona,Barcelona,,08007,https://www.apple.com/retail/passeigdegracia,Spain,"Passeig de Gràcia, 1, Barcelona, Barcelona 08007"
R450,Puerta del Sol,917 699 100,puertadelsol,ES,"Plaza de la Puerta del Sol, 1",Madrid,Madrid,,28013,https://www.apple.com/retail/puertadelsol,Spain,"Plaza de la Puerta del Sol, 1, Madrid, Madrid 28013"
R397,Xanadú,914 817 600,xanadu,ES,Centro comercial de Ocio Madrid Xanadú,Arroyomolinos,Madrid,,28939,https://www.apple.com/retail/xanadu,Spain,"Centro comercial de Ocio Madrid Xanadú, Arroyomolinos, Madrid 28939"
R435,Gran Plaza 2,916 349 700,granplaza2,ES,Centro Comercial Gran Plaza 2,Majadahonda,Madrid,,28222,https://www.apple.com/retail/granplaza2,Spain,"Centro Comercial Gran Plaza 2, Majadahonda, Madrid 28222"
R436,Parquesur,916 445 100,parquesur,ES,Centro Comercial Parquesur,Leganés,Madrid,,28916,https://www.apple.com/retail/parquesur,Spain,"Centro Comercial Parquesur, Leganés, Madrid 28916"
R593,Väla Centrum,042-17 02 00,valacentrum,SE,Väla Centrum,Helsingborg,Scania,,254 69,https://www.apple.com/retail/valacentrum,Sweden,"Väla Centrum, Helsingborg, Scania 254 69"
R503,Emporia,040-37 10 00,emporia,SE,Emporia,Malmö,Scania,,21532,https://www.apple.com/retail/emporia,Sweden,"Emporia, Malmö, Scania 21532"
R505,Täby Centrum,084-46 93 00,tabycentrum,SE,Täby Centrum,Täby,Uppland,,183 34,https://www.apple.com/retail/tabycentrum,Sweden,"Täby Centrum, Täby, Uppland 183 34"
R275,Rue de Rive,(022) 318 03 00,ruederive,CH,Rue de Rive 4,Geneva,Geneva,,1204,https://www.apple.com/retail/ruederive,Switzerland,"Rue de Rive 4, Geneva, Geneva 1204"
R309,Glattzentrum,(044) 832 81 00,glattzentrum,CH,Einkaufszentrum Glatt,Glattzentrum bei Wallisellen,Zurich,,8301,https://www.apple.com/retail/glattzentrum,Switzerland,"Einkaufszentrum Glatt, Glattzentrum bei Wallisellen, Zurich 8301"
R159,Rennweg,(044) 213 18 00,rennweg,CH,Rennweg 43,Zurich,Zurich,,8001,https://www.apple.com/retail/rennweg,Switzerland,"Rennweg 43, Zurich, Zurich 8001"
R439,Freie Strasse,(061) 206 01 00,freiestrasse,CH,Freie Strasse 47,Basel,Basel-Stadt,,4001,https://www.apple.com/retail/freiestrasse,Switzerland,"Freie Strasse 47, Basel, Basel-Stadt 4001"
R694,Xinyi A13,0800-020-010,xinyia13,TW,No. 13 Songshou Road,Taipei,Taipei,,11051,https://www.apple.com/retail/xinyia13,Taiwan,"No. 13 Songshou Road, Taipei, Taipei 11051"
R713,Taipei 101,0800-020-005,taipei101,TW,Taipei 101 L1,Taipei,Taipei,,110,https://www.apple.com/retail/taipei101,Taiwan,"Taipei 101 L1, Taipei, Taipei 110"
R728,Iconsiam,1800 019 447,iconsiam,TH,299 Charoennakorn Road,Bangkok,Bangkok,,10600,https://www.apple.com/retail/iconsiam,Thailand,"299 Charoennakorn Road, Bangkok, Bangkok 10600"
R733,Central World,1800 019 448,centralworld,TH,"4, 4/1-4/2, 4/4 Ratchadamri Rd",Bangkok,Bangkok,,10330,https://www.apple.com/retail/centralworld,Thailand,"4, 4/1-4/2, 4/4 Ratchadamri Rd, Bangkok, Bangkok 10330"
R588,Akasya,(0216) 250 71 00,akasya,TR,Akasya AVM,Üsküdar İstanbul,İstanbul,,34660,https://www.apple.com/retail/akasya,Turkey,"Akasya AVM, Üsküdar İstanbul, İstanbul 34660"
R724,Bağdat Caddesi,(0216) 468 01 00,bagdatcaddesi,TR,"Bağdat Avenue, No: 342",Kadıköy İstanbul,İstanbul,,34728,https://www.apple.com/retail/bagdatcaddesi,Turkey,"Bağdat Avenue, No: 342, Kadıköy İstanbul, İstanbul 34728"
R583,Zorlu Center,(0212) 708 37 00,zorlucenter,TR,Zorlu Center,Beşiktaş İstanbul,İstanbul,,34340,https://www.apple.com/retail/zorlucenter,Turkey,"Zorlu Center, Beşiktaş İstanbul, İstanbul 34340"
R597,Dubai Mall,800 0444 9012,dubaimall,AE,The Dubai Mall,Dubai,Dubai,,,https://www.apple.com/retail/dubaimall,United Arab Emirates,"The Dubai Mall, Dubai, Dubai "
R596,Mall of the Emirates,800 0444 1819,malloftheemirates,AE,Mall of the Emirates,Dubai,Dubai,,,https://www.apple.com/retail/malloftheemirates,United Arab Emirates,"Mall of the Emirates, Dubai, Dubai "
R706,Al Maryah Island,800 0444 0521,almaryahisland,AE,The Galleria Al Maryah Island,Abu Dhabi,Abu Dhabi,,,https://www.apple.com/retail/almaryahisland,United Arab Emirates,"The Galleria Al Maryah Island, Abu Dhabi, Abu Dhabi "
R595,Yas Mall,800 0444 1824,yasmall,AE,Yas Mall,Abu Dhabi,Abu Dhabi,,,https://www.apple.com/retail/yasmall,United Arab Emirates,"Yas Mall, Abu Dhabi, Abu Dhabi "
R153,Meadowhall,0114 212 1000,meadowhall,GB,Upper High Street,Sheffield,South Yorkshire,,S9 1EN,https://www.apple.com/retail/meadowhall,Great Britain,"Upper High Street, Sheffield, South Yorkshire S9 1EN"
R176,The Oracle,0118 925 4500,theoracle,GB,The Oracle Shopping Centre,Reading,Berkshire,,RG1 2AG,https://www.apple.com/retail/theoracle,Great Britain,"The Oracle Shopping Centre, Reading, Berkshire RG1 2AG"
R391,Norwich,01603 216 600,norwich,GB,Merchants Hall,Norwich,Norfolk,,NR2 1SU,https://www.apple.com/retail/norwich,Great Britain,"Merchants Hall, Norwich, Norfolk NR2 1SU"
R270,Grand Arcade,01223 253 600,grandarcade,GB,Grand Arcade Shopping Centre,Cambridge,Cambridgeshire,,CB2 3AX,https://www.apple.com/retail/grandarcade,Great Britain,"Grand Arcade Shopping Centre, Cambridge, Cambridgeshire CB2 3AX"
R269,Milton Keynes,01908 856 650,miltonkeynes,GB,26 Midsummer Place,Milton Keynes,Buckinghamshire,,MK9 3GB,https://www.apple.com/retail/miltonkeynes,Great Britain,"26 Midsummer Place, Milton Keynes, Buckinghamshire MK9 3GB"
R242,Lakeside,01708 717 500,lakeside,GB,West Thurrock Way,Grays,Essex,,RM20 2ZP,https://www.apple.com/retail/lakeside,Great Britain,"West Thurrock Way, Grays, Essex RM20 2ZP"
R245,Covent Garden,020 7447 1400,coventgarden,GB,No. 1-7 The Piazza,London,Central London,,WC2E 8HB,https://www.apple.com/retail/coventgarden,Great Britain,"No. 1-7 The Piazza, London, Central London WC2E 8HB"
R092,Regent Street,020 7153 9000,regentstreet,GB,235 Regent Street,London,Central London,,W1B 2EL,https://www.apple.com/retail/regentstreet,Great Britain,"235 Regent Street, London, Central London W1B 2EL"
R329,Brompton Road,020 3089 3000,bromptonroad,GB,17-27 Brompton Road,London,Central London,,SW1X 9LF,https://www.apple.com/retail/bromptonroad,Great Britain,"17-27 Brompton Road, London, Central London SW1X 9LF"
R482,Festival Place,01256 696 000,festivalplace,GB,Upper Level,Basingstoke,Hampshire,,RG21 7BE,https://www.apple.com/retail/festivalplace,Great Britain,"Upper Level, Basingstoke, Hampshire RG21 7BE"
R174,Southampton,023 8030 3100,southampton,GB,Upper Shopping,Southampton,Hampshire,,SO15 1QE,https://www.apple.com/retail/southampton,Great Britain,"Upper Shopping, Southampton, Hampshire SO15 1QE"
R363,Union Square,01224 287 900,unionsquare,GB,27/28 Ground Level Mall,Aberdeen,Aberdeen,,AB11 5PN,https://www.apple.com/retail/unionsquare,Great Britain,"27/28 Ground Level Mall, Aberdeen, Aberdeen AB11 5PN"
R136,Trafford Centre,0161 240 1000,traffordcentre,GB,146 Peel Avenue,Manchester,Greater Manchester,,M17 8BL,https://www.apple.com/retail/traffordcentre,Great Britain,"146 Peel Avenue, Manchester, Greater Manchester M17 8BL"
R215,Manchester Arndale,0161 455 1900,manchesterarndale,GB,New Cannon Street Mall,Manchester,Greater Manchester,,M4 3AJ,https://www.apple.com/retail/manchesterarndale,Great Britain,"New Cannon Street Mall, Manchester, Greater Manchester M4 3AJ"
R496,Bromley,020 8225 5500,bromley,GB,The Glades Shopping Centre,Bromley,Kent,,BR1 1DN,https://www.apple.com/retail/bromley,Great Britain,"The Glades Shopping Centre, Bromley, Kent BR1 1DN"
R113,Bluewater,01322 640 100,bluewater,GB,Upper Mall,Greenhithe,Kent,,DA9 9ST,https://www.apple.com/retail/bluewater,Great Britain,"Upper Mall, Greenhithe, Kent DA9 9ST"
R527,Watford,01923 421 700,watford,GB,Atria Watford,Watford,Hertfordshire,,WD17 2TN,https://www.apple.com/retail/watford,Great Britain,"Atria Watford, Watford, Hertfordshire WD17 2TN"
R135,Glasgow,0141 300 4700,glasgow,GB,147 Buchanan Street,Glasgow,Glasgow,,G1 2JX,https://www.apple.com/retail/glasgow,Great Britain,"147 Buchanan Street, Glasgow, Glasgow G1 2JX"
R340,Braehead,0141 885 4200,braehead,GB,Braehead Shopping Centre,Glasgow,Glasgow,,G51 4BP,https://www.apple.com/retail/braehead,Great Britain,"Braehead Shopping Centre, Glasgow, Glasgow G51 4BP"
R423,Metrocentre,0191 402 2500,metrocentre,GB,Metrocentre,Gateshead,Tyne and Wear,,NE11 9YG,https://www.apple.com/retail/metrocentre,Great Britain,"Metrocentre, Gateshead, Tyne and Wear NE11 9YG"
R341,Eldon Square,0191 270 6100,eldonsquare,GB,St Andrew’s Way,Newcastle upon Tyne,Tyne and Wear,,NE1 7JB,https://www.apple.com/retail/eldonsquare,Great Britain,"St Andrew’s Way, Newcastle upon Tyne, Tyne and Wear NE1 7JB"
R328,Edinburgh,0131 242 8200,edinburgh,GB,10 Princes Street,Edinburgh,Edinburgh,,EH2 2AN,https://www.apple.com/retail/edinburgh,Great Britain,"10 Princes Street, Edinburgh, Edinburgh EH2 2AN"
R308,Highcross,0116 201 1900,highcross,GB,"Upper Mall, Highcross",Leicester,Leicestershire,,LE1 4FT,https://www.apple.com/retail/highcross,Great Britain,"Upper Mall, Highcross, Leicester, Leicestershire LE1 4FT"
R410,Stratford City,020 8277 2200,stratfordcity,GB,The Arcade,London,Greater London,,E20 1EQ,https://www.apple.com/retail/stratfordcity,Great Britain,"The Arcade, London, Greater London E20 1EQ"
R227,Bentall Centre,020 8233 3400,bentallcentre,GB,The Bentall Centre,Kingston upon Thames,Greater London,,KT1 1TP,https://www.apple.com/retail/bentallcentre,Great Britain,"The Bentall Centre, Kingston upon Thames, Greater London KT1 1TP"
R226,White City,020 8433 4600,whitecity,GB,Westfield London,London,Greater London,,W12 7GF,https://www.apple.com/retail/whitecity,Great Britain,"Westfield London, London, Greater London W12 7GF"
R762,Battersea,020 3062 6700,battersea,GB,Ground Floor Turbine Hall A,London,Greater London,,SW11 8AL,https://www.apple.com/retail/battersea,Great Britain,"Ground Floor Turbine Hall A, London, Greater London SW11 8AL"
R163,Brent Cross,020 3126 9200,brentcross,GB,Upper West Mall,London,Greater London,,NW4 3FP,https://www.apple.com/retail/brentcross,Great Britain,"Upper West Mall, London, Greater London NW4 3FP"
R244,Churchill Square,01273 740 500,churchillsquare,GB,"Upper Mall, Churchill Square",Brighton,East Sussex,,BN1 2TE,https://www.apple.com/retail/churchillsquare,Great Britain,"Upper Mall, Churchill Square, Brighton, East Sussex BN1 2TE"
R255,Touchwood Centre,0121 224 1300,touchwoodcentre,GB,The Touchwood Centre,Solihull,West Midlands,,B91 3GJ,https://www.apple.com/retail/touchwoodcentre,Great Britain,"The Touchwood Centre, Solihull, West Midlands B91 3GJ"
R118,Birmingham,0121 224 2100,birmingham,GB,128 New Street,Birmingham,West Midlands,,B2 4JH,https://www.apple.com/retail/birmingham,Great Britain,"128 New Street, Birmingham, West Midlands B2 4JH"
R372,Trinity Leeds,0113 251 1000,trinityleeds,GB,Albion Street,Leeds,West Yorkshire,,LS1 5AR,https://www.apple.com/retail/trinityleeds,Great Britain,"Albion Street, Leeds, West Yorkshire LS1 5AR"
R335,SouthGate,01225 487 000,southgate,GB,"SU39, Southgate Place",Bath,Somerset,,BA1 1AP,https://www.apple.com/retail/southgate,Great Britain,"SU39, Southgate Place, Bath, Somerset BA1 1AP"
R252,Bristol,0117 900 3450,bristol,GB,11 Philadelphia Street,Bristol,Bristol,,BS1 3BZ,https://www.apple.com/retail/bristol,Great Britain,"11 Philadelphia Street, Bristol, Bristol BS1 3BZ"
R393,Cribbs Causeway,0117 959 7600,cribbscauseway,GB,Upper Mall,Bristol,Bristol,,BS34 5DG,https://www.apple.com/retail/cribbscauseway,Great Britain,"Upper Mall, Bristol, Bristol BS34 5DG"
R239,Liverpool,0151 472 7200,liverpool,GB,Liverpool One,Liverpool,Merseyside,,L1 8BU,https://www.apple.com/retail/liverpool,Great Britain,"Liverpool One, Liverpool, Merseyside L1 8BU"
R313,Victoria Square,028 9016 1900,victoriasquare,GB,Upper Ground Floor,Belfast,Antrim,,BT1 4QG,https://www.apple.com/retail/victoriasquare,Great Britain,"Upper Ground Floor, Belfast, Antrim BT1 4QG"
R334,Cardiff,029 2055 6800,cardiff,GB,63-66 Grand Arcade,Cardiff,Cardiff,,CF10 2EL,https://www.apple.com/retail/cardiff,Great Britain,"63-66 Grand Arcade, Cardiff, Cardiff CF10 2EL"
R279,Princesshay,01392 316 600,princesshay,GB,24 Princesshay,Exeter,Devon,,EX1 1GE,https://www.apple.com/retail/princesshay,Great Britain,"24 Princesshay, Exeter, Devon EX1 1GE"
R545,Plymouth,01752 633 000,plymouth,GB,1 Charles Street,Plymouth,Devon,,PL1 1EA,https://www.apple.com/retail/plymouth,Great Britain,"1 Charles Street, Plymouth, Devon PL1 1EA"
