address1,city,state,zip,storetimezone,storenumber,latitude,longitude
357 Maine Mall Rd.,South Portland,ME,04106,-4,665,43.6361776,-70.3387282
1795 Andover St.,Tewksbury,MA,01876,-4,373,42.6422271,-71.2354022
16 Nashua Rd,Londonderry,NH,03053,-4,412,42.8737058,-71.3392933
1048 South Street Suite 40,Wrentham,MA,02093,-4,497,42.0370383,-71.34834
825 Centre of New England Blvd,Coventry,RI,02816,-4,452,41.66109,-71.546451
215 Charlton Rd.,Sturbridge,MA,01566,-4,462,42.1163011,-72.0671855
227 Whiting Farms Rd.,Holyoke,MA,01040,-4,294,42.1771241,-72.6421884
145 Prospect Hill Rd.,East Windsor,CT,06088,-4,436,41.9321563,-72.6062926
30 Research Dr.,Milford,CT,06460,-4,318,41.2386057,-73.0199779
4 Tower Way,Clifton Park,NY,12065,-4,293,42.8617156,-73.7697169
122 Troy Rd.,East Greenbush,NY,12061,-4,317,42.6247822,-73.699539
4 Merritt Blvd.,Fishkill,NY,12524,-4,350,41.5295698,-73.8922063
1289 Coffeen St.,Watertown,NY,13601,-4,302,43.9875874,-75.9431941
172 Howard Blvd.,Mount Arlington,NJ,07856,-4,406,40.902333,-74.6331811
825 Market Place Blvd.,Hamilton Township,NJ,08691,-4,504,40.1979334,-74.6379388
14 Frontage Rd.,Clinton,NJ,08809,-4,386,40.6288002,-74.9187307
8400 Pardee Rd.,Cicero,NY,13039,-4,306,43.1790843,-76.1154148
110 Hancock Ln.,Mount Holly,NJ,08060,-4,411,40.028441,-74.8150308
3611 Horizon Blvd,Trevose,PA,19053,-4,598,40.1368037,-74.9635274
876 Front St.,Binghamton,NY,13905,-4,410,42.1313338,-75.9049576
1240 Route 73,Mount Laurel,NJ,08054,-4,484,39.9194614,-74.947455
2095 Gallagher Rd.,Plymouth Meeting,PA,19462,-4,449,40.1006305,-75.2953436
2320 Wilkes Barre Township Mar,Wilkes Barre,PA,18702,-4,512,41.2364754,-75.8579168
7720 Main St. Suite 19,Fogelsville,PA,18051,-4,291,40.5834994,-75.6268553
125 S. Stewart Ave.,Ridley Park,PA,19078,-4,743,39.8702736,-75.3205374
427 North Broadway,Pennsville,NJ,08070,-4,342,39.6786487,-75.4946844
1215 E. Lancaster Ave.,Downingtown,PA,19335,-4,509,40.0211175,-75.6705374
21 Industrial Dr.,Hamburg,PA,19526,-4,312,40.5591678,-75.9967399
19550 Coastal Hwy.,Rehoboth Beach,DE,19971,-4,485,38.719275,-75.117595
1740 County Route 64,Horseheads,NY,14845,-4,699,42.1595766,-76.8594203
956 Schuylkill Mall,Frackville,PA,17931,-4,299,40.7697591,-76.2211873
300 Belle Hill Rd.,Elkton,MD,21921,-4,472,39.6369011,-75.8043201
228 Mall Blvd,Bloomsburg,PA,17815,-4,435,41.017896,-76.4916418
2075 Hylan Dr.,Rochester,NY,14623,-4,387,43.0728573,-77.6259313
35 S. Willowdale Dr Suite 1822,Lancaster,PA,17602,-4,442,40.0211734,-76.1945845
260 S Lycoming Mall Rd,Muncy,PA,17756,-4,696,41.2427424,-76.8335562
1440 Handlir Dr.,Bel Air,MD,21015,-4,333,39.4822129,-76.2513065
2525 Brindle Dr.,Harrisburg,PA,17110,-4,374,40.3027918,-76.8460144
236 Pauline Dr.,York,PA,17402,-4,199,39.9340341,-76.6852489
13600 Wolfe Rd,New Freedom,PA,17349,-4,555,39.7725153,-76.6642825
115 Blue Jay Ct,Stevensville,MD,21666,-4,608,38.9754696,-76.3091693
395 Cumberland Pkwy,Mechanicsburg,PA,17055,-4,550,40.194929,-76.9769525
1520 W. Nursery Rd,Linthicum Heights,MD,21090,-4,718,39.2091724,-76.679982
3 E. Garland Dr.,Carlisle,PA,17013,-4,431,40.186866,-77.1900774
6643 Transit Rd.,Williamsville,NY,14221,-4,298,42.9509304,-78.6959045
45315 Abell House Ln,California,MD,20619,-4,572,38.2990915,-76.5091241
215 Colonnade Blvd,State College,PA,16803,-4,681,40.8165398,-77.9004522
3742 Crain Hwy.,Waldorf,MD,20602,-4,687,38.6086847,-76.927319
757 Lynnhaven Pkwy.,Virginia Beach,VA,23452,-4,677,36.8159178,-76.0673832
1162 Wayne Ave,Chambersburg,PA,17202,-4,258,39.9078216,-77.6489144
7408 Shockley Dr.,Frederick,MD,21704,-4,262,39.3766667,-77.4069903
1440 Greenbrier Pkwy.,Chesapeake,VA,23320,-4,629,36.7792432,-76.2322057
106 Market place Dr,Hampton,VA,23666,-4,559,37.0380339,-76.4016183
18214 Col. Henry K. Douglas Dr.,Hagerstown,MD,21740,-4,434,39.6008566,-77.7307671
217 Hillcrest Pkwy,Chesapeake,VA,23322,-4,658,36.6564481,-76.2321402
23030 Indian Creek Dr.,Sterling,VA,20166,-4,704,38.9799544,-77.4327704
12357 Hornsby Ln.,Newport News,VA,23602,-4,184,37.1130718,-76.5018789
17115 Dumfries Rd.,Dumfries,VA,22025,-4,239,38.5814844,-77.3240966
4700 PORTSMOUTH BLVD.,Chesapeake,VA,23321,-4,652,36.8183544,-76.4380058
200 Bypass Rd.,Williamsburg,VA,23185,-4,72,37.2841246,-76.7167868
10801 Battleview Pkwy.,Manassas,VA,20109,-4,238,38.8046019,-77.5197521
100 Charlotte Dr.,Altoona,PA,16601,-4,482,40.4666484,-78.4095057
725 Foxcroft Ave.,Martinsburg,WV,25401,-4,280,39.4564796,-77.9887672
1971 Carl D. Silver Pkwy.,Fredericksburg,VA,22401,-4,537,38.3090792,-77.5126293
5200 Southpoint Pkwy.,Fredericksburg,VA,22407,-4,106,38.2323796,-77.4991442
200 Front Royal Pike,Winchester,VA,22602,-4,164,39.1598192,-78.1584473
7367 Bell Creek Rd. South,Mechanicsville,VA,23111,-4,207,37.6059779,-77.3564042
106 S Carter Rd.,Ashland,VA,23005,-4,248,37.7578975,-77.460052
4435 S Laburnum Ave,Richmond,VA,23231,-4,659,37.5282706,-77.3562204
15 Riverton Commons Plaza,Front Royal,VA,22630,-4,605,38.9620808,-78.1898399
12401 Red Water Creek Rd.,Chester,VA,23831,-4,329,37.3562841,-77.4071197
3620 Mayland Court,Richmond,VA,23233,-4,592,37.6393468,-77.5704917
4720 Craig Rath Blvd.,Midlothian,VA,23112,-4,502,37.4140376,-77.6425652
7810 Interstate Dr.,Erie,PA,16509,-4,261,42.0491226,-80.0855316
13 Campground Rd.,LaVale,MD,21502,-4,731,39.6375262,-78.8303452
451 West Reservoir Rd,Woodstock,VA,22664,-4,582,38.8717768,-78.5303244
103 Sadler Ln.,Emporia,VA,23847,-4,560,36.700986,-77.5429092
11311 Pennsylvania Ave.,Meadville,PA,16335,-4,371,41.6222983,-80.1743848
154 W Pennsylvania Ave.,New Stanton,PA,15672,-4,300,40.2162677,-79.6118621
1918 Julian Allsbrook Hwy.,Roanoke Rapids,NC,27870,-4,81,36.4322261,-77.6309703
1740 Route 228,Cranberry Township,PA,16066,-4,747,40.6843781,-80.0863873
710 SW Greenville Blvd.,Greenville,NC,27834,-4,495,35.5720163,-77.4004205
121 Pleasant Valley Rd.,Harrisonburg,VA,22801,-4,263,38.4044333,-78.9067668
1400 Country Ln.,South Hill,VA,23970,-4,570,36.7148302,-78.1182239
200 Davis Blvd.,Pittsburgh,PA,15275,-4,480,40.4499057,-80.1734693
101 Apple Tree Lane,Waynesboro,VA,22980,-4,568,38.0631963,-78.9402708
238 Enterprise Dr.,Rocky Mount,NC,27804,-4,606,35.975,-77.8445449
152 Rowe Rd.,Staunton,VA,24401,-4,128,38.1272428,-79.03674
1008 Trinity Circle,Washington,PA,15301,-4,441,40.185043,-80.2250731
5600 Interstate Blvd.,Austintown,OH,44515,-4,185,41.1227585,-80.7729658
345 Lewis Dr.,Morgantown,WV,26501,-4,640,39.654645,-80.0066739
1260 Western Blvd.,Jacksonville,NC,28546,-4,478,34.7852327,-77.3992776
5006 Hayes Place West,Wilson,NC,27896,-4,309,35.7642943,-78.006026
1002 Ruin Creek Rd.,Henderson,NC,27536,-4,343,36.322214,-78.4514821
2206 Pleasant Valley Rd.,Fairmont,WV,26554,-4,376,39.4413686,-80.1689786
6055 SOM Center Rd,Willoughby,OH,44094,-4,525,41.605108,-81.4388088
3820 Wards Rd.,Lynchburg,VA,24502,-4,463,37.3549343,-79.1837305
4367 SR 44,Rootstown,OH,44272,-4,418,41.1084386,-81.2433645
2371 East Aurora Rd.,Twinsburg,OH,44087,-4,383,41.3120423,-81.4534332
1109 Outlet Center Dr.,Smithfield,NC,27577,-4,108,35.509564,-78.31228
2303 Water St.,Port Huron,MI,48060,-4,218,42.9919964,-82.4547118
67781 Mall Rd.,Saint Clairsville,OH,43950,-4,474,40.0698629,-80.8625999
6940 Sunset Strip Ave. N.W.,North Canton,OH,44720,-4,215,40.8817316,-81.4331348
5199 NC Highway 42 W.,Garner,NC,27529,-4,363,35.6077716,-78.5615932
5100 Tiedeman Rd,Brooklyn,OH,44144,-4,508,41.4225258,-81.7606713
21 Van Campen Blvd.,Wilmington,NC,28403,-4,459,34.2440842,-77.8727701
76 Rothrock Loop,Copley,OH,44321,-4,114,41.1333553,-81.6489523
955 Airport Blvd.,Morrisville,NC,27560,-4,461,35.8584529,-78.8231334
3703 Hillsborough Rd.,Durham,NC,27705,-4,345,36.0245723,-78.9553483
1102 E. Cumberland Rd,Dunn,NC,28334,-4,539,35.2966186,-78.5982856
5205 Detroit Rd.,Sheffield Lake,OH,44054,-4,385,41.4258406,-82.0809292
3153 Lee Hwy.,Troutville,VA,24175,-4,281,37.3923642,-79.9008597
135 Spring Forrest Dr.,Mebane,NC,27302,-4,551,36.0673692,-79.2966416
30750 Little Mack Rd.,Roseville,MI,48066,-4,208,42.5216976,-82.9078796
2329 Southgate Pkwy.,Cambridge,OH,43725,-4,105,40.0005162,-81.5761369
1625 Jim Johnson Rd,Fayetteville,NC,28312,-4,271,35.0095719,-78.8216733
3212 NC 87 HWY SOUTH,Sanford,NC,27330,-4,675,35.4467584,-79.1307307
850 Huffman Mill Rd.,Burlington,NC,27215,-4,100,36.0689527,-79.4954338
1470 Skibo Rd.,Fayetteville,NC,28303,-4,717,35.0832677,-78.9544999
4216 Milan Rd,Sandusky,OH,44870,-4,490,41.4173151,-82.6722268
2854 E. Wilder Rd,Bay City,MI,48706,-4,538,43.6233923,-83.9404053
30 Hampton Blvd.,Christiansburg,VA,24073,-4,60,37.138909,-80.353641
6450 Dixie Hwy.,Bridgeport,MI,48722,-4,236,43.3498754,-83.8666279
40 Old Nicholette Rd.,Mineral Wells,WV,26150,-4,126,39.1906636,-81.5306289
3375 Lackey St.,Lumberton,NC,28360,-4,76,34.6418583,-79.0172243
4140 Pier North Blvd.,Flint,MI,48504,-4,180,43.0642755,-83.7639816
3701 Elmsley Ct,Greensboro,NC,27406,-4,564,36.0040707,-79.7931204
225 Scenic Crest Dr.,Zanesville,OH,43701,-4,370,39.9436449,-81.9999219
4402 Landview Dr.,Greensboro,NC,27407,-4,107,36.057246,-79.8964424
100 Stander Ave.,Mansfield,OH,44903,-4,224,40.6930612,-82.5105669
10975 US Hwy. 15-501,Southern Pines,NC,28387,-4,688,35.16114,-79.41949
4835 Hwy 17 S.,North Myrtle Beach,SC,29582,-4,194,33.7966111,-78.7435684
45525 N I94 Service Dr.,Belleville,MI,48111,-4,115,42.2209847,-83.4874829
1101 Ternes Dr.,Monroe,MI,48162,-4,222,41.924179,-83.3643718
1750 Pecan Lane,Kernersville,NC,27284,-4,604,36.0769392,-80.1100782
7925 Conference Center Dr.,Brighton,MI,48114,-4,234,42.5519817,-83.7946697
1208 N. Retail Court,Myrtle Beach,SC,29577,-4,566,33.7054741,-78.9218849
2112 Harper Rd.,Beckley,WV,25801,-4,348,37.7979576,-81.2197824
5720 MacCorkle Ave SE,Charleston,WV,25304,-4,510,38.3134874,-81.5669322
294 Meadowfield Ln.,Princeton,WV,24740,-4,65,37.3617013,-81.0530835
1948 Rockford St.,Mount Airy,NC,27030,-4,672,36.4829858,-80.6143922
6420 Sessions Court,Clemmons,NC,27012,-4,247,36.0324065,-80.3861014
12 Plaza Pkwy.,Lexington,NC,27292,-4,112,35.7827783,-80.2587034
1303 Tadlock Dr.,Murrells Inlet,SC,29576,-4,313,33.5756646,-79.0283956
11 Goff Xing,Cross Lanes,WV,25313,-4,193,38.409333,-81.7959272
27491 Helen Dr.,Perrysburg,OH,43551,-4,104,41.5518514,-83.5990022
1395 Ford St.,Maumee,OH,43537,-4,528,41.5794287,-83.6816295
60 Fourwinds Dr.,Sunbury,OH,43074,-4,466,40.2661578,-82.9356185
160 Lithia Rd.,Wytheville,VA,24382,-4,422,36.949655,-81.0567927
1860 Winderly Ln.,Pickerington,OH,43147,-4,121,39.9320667,-82.7904082
2285 Woodlake Dr.,Okemos,MI,48864,-4,517,42.6807272,-84.4335957
3620 North Country Dr.,Traverse City,MI,49684,-4,464,44.7188639,-85.6487857
1070 Free Land Dr.,Salisbury,NC,28144,-4,625,35.6572212,-80.4626802
1717 Nc Highway 67,Jonesville,NC,28642,-4,340,36.2399165,-80.8153728
1031 Interstate Ct.,Findlay,OH,45840,-4,68,41.0591614,-83.6701647
608 Commercial Dr.,Lansing,MI,48917,-4,195,42.7401941,-84.6721849
1824 West Lucas St.,Florence,SC,29501,-4,69,34.2261975,-79.7969719
4210 Marlane Dr.,Grove City,OH,43123,-4,85,39.8761166,-83.0524565
2494 Airport Rd.,Jackson,MI,49202,-4,136,42.2677415,-84.4543904
1313 Hilliard Rome Rd,Columbus,OH,43228,-4,183,39.9772294,-83.1504891
3 Cracker Barrel Dr.,Barboursville,WV,25504,-4,336,38.4151064,-82.2563785
1175 Copperfield Blvd.- NE,Concord,NC,28025,-4,249,35.4628062,-80.5871524
1043 Glenway Dr.,Statesville,NC,28625,-4,142,35.8087934,-80.8719309
7809 Lyles Ln.,Concord,NC,28027,-4,578,35.3659836,-80.7128223
123 Regency Center Dr.,Mooresville,NC,28117,-4,330,35.595115,-80.8614325
9330 E Independence Blvd.,Matthews,NC,28105,-4,663,35.1380647,-80.7176177
1930 Roschman Dr.,Lima,OH,45804,-4,133,40.7269052,-84.0739297
3203 Queen City Dr.,Charlotte,NC,28208,-4,39,35.2397877,-80.9181382
295 Carowinds Blvd.,Fort Mill,SC,29708,-4,607,35.0954257,-80.9386582
1250 11th Street Court SE,Hickory,NC,28602,-4,269,35.7128623,-81.3164319
909 Empire Dr.,Abingdon,VA,24210,-4,96,36.7161332,-81.9349823
4765 Beckley Rd.,Battle Creek,MI,49015,0,66,42.2613962,-85.2029235
1601 Blowing Rock Rd.,Boone,NC,28607,-4,695,36.2010458,-81.6604389
105 West Leffel Ln.,Springfield,OH,45506,-4,310,39.8936775,-83.8142705
1821 Remount Rd.,Gastonia,NC,28054,-4,41,35.2691831,-81.147399
2140 Manna Ct.,Rock Hill,SC,29730,-4,160,34.9387982,-80.9700542
4340 Kenowa Ave.,Grandville,MI,49418,-4,338,42.8864472,-85.7813209
125 Village Cir.,Bristol,VA,24201,-4,614,36.630175,-82.1186133
980 E. Ash St.,Piqua,OH,45356,-4,295,40.1516404,-84.225201
7351 Mazyck Rd.,North Charleston,SC,29406,-4,58,32.9334719,-80.0484715
135 Bush Dr.,Morganton,NC,28655,-4,693,35.7239824,-81.6533782
1370 N Main St.,Summerville,SC,29483,-4,678,33.0376524,-80.1532701
250 Britain St.,Santee,SC,29142,-4,328,33.483322,-80.4735415
1410 Shook Dr.,Auburn,IN,46706,-4,541,41.3660863,-85.0839321
7171 Miller Ln.,Dayton,OH,45414,-4,61,39.8512622,-84.1928377
253 Forum DR,Columbia,SC,29229,-4,642,34.1285219,-80.8727596
5770 Wilmington Pike,Centerville,OH,45459,-4,492,39.6598017,-84.1086605
10427 E. Maysville Rd.,Fort Wayne,IN,46835,-4,526,41.1317246,-85.0100513
2300 LeGrand Rd.,Columbia,SC,29223,-4,448,34.1005895,-80.9589699
1609 W. Washington Ctr. Rd.,Fort Wayne,IN,46818,-4,62,41.1318639,-85.1610431
10132 Airport Pkwy.,Kingsport,TN,37663,-4,83,36.5052054,-82.4327025
1698 Flemingsburg Rd,Morehead,KY,40351,-4,698,38.1906184,-83.476816
2692 Boones Creek Rd.,Johnson City,TN,37615,-4,311,36.3745258,-82.4259714
699 Citadel Rd,Orangeburg,SC,29118,-4,446,33.5554523,-80.8231161
8 Factory Shops Blvd.,Gaffney,SC,29341,-4,356,35.082377,-81.7085042
2208 Bush River Rd.,Columbia,SC,29210,-4,42,34.0318549,-81.1234848
1140 Kinley Rd.,Irmo,SC,29063,-4,635,34.0911688,-81.1624087
3280 Towne Blvd.,Middletown,OH,45044,-4,169,39.4920969,-84.3291186
4902 Fields Ertel Rd.,Cincinnati,OH,45249,-4,131,39.2945026,-84.3128663
475 River's Edge Dr.,Milford,OH,45150,-4,507,39.1620907,-84.2696241
2255 Sharon Rd,Sharonville,OH,45241,-4,553,39.2685229,-84.4387239
59 Cane Branch Rd.,Walterboro,SC,29488,-4,419,32.878271,-80.7187564
6050 National Rd. E.,Richmond,IN,47374,-4,95,39.83436,-84.8196556
110 Northpointe Blvd.,Elkhart,IN,46514,-4,113,41.7352012,-85.9752315
11993 Chase Plz.,Forest Park,OH,45240,-4,285,39.2967815,-84.5261106
9021 Fairforest Rd.,Spartanburg,SC,29301,-4,47,34.9672239,-82.0007312
4210 Alexandria Pike,Cold Spring,KY,41076,-4,751,39.0193116,-84.4378209
110 Stone Trace Dr.,Mount Sterling,KY,40353,-4,355,38.0789756,-83.9509826
1525 E Main St.,Duncan,SC,29334,-4,667,34.9103154,-82.1027935
34 Tunnel Rd.,Asheville,NC,28805,-4,581,35.5978621,-82.5340517
105 Commercial Blvd.,Flat Rock,NC,28731,-4,283,35.2961463,-82.4085266
7399 Turfway Rd.,Florence,KY,41042,-4,55,39.015675,-84.6343824
615 Ring Rd.,Harrison,OH,45030,-4,382,39.2598306,-84.7979149
344 Rockwood Rd,Arden,NC,28704,-4,628,35.4451399,-82.5398432
4984 Kay Bee Dr.,Gas City,IN,46933,-4,393,40.4810806,-85.5472569
2525 West Marquette Woods Rd.,Stevensville,MI,49127,-4,220,42.0326299,-86.5165894
5 Crowell Rd.,Asheville,NC,28806,-4,141,35.5620724,-82.6363054
1134 Woodruff Rd.,Greenville,SC,29607,-4,25,34.8277506,-82.3021545
1131 Fashion Ridge Rd.,Dry Ridge,KY,41035,-4,493,38.6865588,-84.6030181
3954 Grandview Dr.,Simpsonville,SC,29680,-4,491,34.710978,-82.2481014
157 Okatie Center Blvd. N,Okatie,SC,29909,-4,680,32.2992364,-80.9447051
2352 Whiskey Rd.,Aiken,SC,29803,-4,689,33.511091,-81.712278
591 Hwy 153,Piedmont,SC,29673,-4,579,34.7757469,-82.4659008
133 Cracker Rd.,Morristown,TN,37813,-4,423,36.139909,-83.2771082
2220 Elkhorn Rd.,Lexington,KY,40505,-4,77,38.0448023,-84.4221083
2012 East 59th St.,Anderson,IN,46013,-4,74,40.0557991,-85.6511137
1454 Cherry Blossom Way,Georgetown,KY,40324,-4,71,38.2207236,-84.5398291
1927 Stanton Way,Lexington,KY,40511,-4,19,38.1011235,-84.4808344
1021 Cosby Hwy.,Newport,TN,37821,-4,18,35.9464847,-83.206551
101 Commons Dr.,Greenwood,SC,29649,-4,473,34.2056314,-82.1905237
1797 Lexington Rd.,Richmond,KY,40475,-4,10,37.770542,-84.3138117
1049 N.12th St.,Middlesboro,KY,40965,-4,706,36.614289,-83.7017957
4089 Lexington Rd.,Nicholasville,KY,40356,-4,651,37.9563478,-84.5406235
101 McKinney Dr.,Berea,KY,40403,-4,549,37.567876,-84.310126
80 Alamo Dr.,London,KY,40741,-4,556,37.1510242,-84.1140317
404 Kentucky Dr.,Kokomo,IN,46902,-4,440,40.4356904,-86.126436
2265 N State St.,Greenfield,IN,46140,-4,554,39.8190684,-85.7688929
161 Bizzack Blvd.,Frankfort,KY,40601,-4,358,38.1717958,-84.8116956
84 Adams Rd.,Corbin,KY,40701,-4,8,36.9782292,-84.1127532
1000 Hwy. 80 E.,Pooler,GA,31322,-4,192,32.1129193,-81.2359976
126 Interstate Blvd.,Anderson,SC,29621,-4,124,34.5747627,-82.7083257
544 N Belair Rd.,Evans,GA,30809,-4,657,33.5362922,-82.1294981
154 Stadium Dr.,Kodak,TN,37764,-4,586,35.9859479,-83.6051784
1898 N. Morristown Rd.,Shelbyville,IN,46176,-4,400,39.5532208,-85.7749142
460 Parkwest Dr.,Grovetown,GA,30813,-4,171,33.4806462,-82.1324992
17017 Abercorn St.,Savannah,GA,31419,-4,52,32.004495,-81.2777451
9700 N By Northeast Blvd.,Fishers,IN,46037,-4,88,39.9284836,-86.0269442
690 Winfield Dunn Pkwy,Sevierville,TN,37876,-4,514,35.8798445,-83.5732059
3960 Parkway,Pigeon Forge,TN,37863,-4,53,35.7767585,-83.5466099
W176n9778 Rivercrest Dr.,Germantown,WI,53022,0,175,43.1950744,-88.1273962
2285 Parkway,Pigeon Forge,TN,37863,-4,360,35.8148808,-83.5768722
2340 Post Dr.,Indianapolis,IN,46219,-4,116,39.8015735,-86.0122221
1510 Cracker Barrel Ln.,Knoxville,TN,37914,-4,170,36.0016806,-83.7785709
40 Cassidy Ave.,Danville,KY,40422,-4,483,37.61542,-84.775433
2920 South Mall Rd,Knoxville,TN,37917,-4,546,36.0288883,-83.8736005
4350 East Southport Rd.,Indianapolis,IN,46237,-4,45,39.6666387,-86.0940098
216 Henry Blvd.,Statesboro,GA,30458,-4,685,32.4285921,-81.7575945
1565 Mt. Eden Rd.,Shelbyville,KY,40065,-4,415,38.1890963,-85.2108552
7015 122nd Ave.,Kenosha,WI,53142,0,120,42.5720464,-87.9543865
1414 East Crystal Dr.,Lagrange,KY,40031,-4,290,38.4018914,-85.3764136
6200 Opportunity Ln.,Merrillville,IN,46410,-5,84,41.5042516,-87.3184631
6398 Crane Dr.,Whitestown,IN,46075,-4,694,39.9473509,-86.3518542
3840 Eagle View Dr.,Indianapolis,IN,46254,-4,49,39.82466,-86.2789013
11701 North US Highway 31,Edinburgh,IN,46124,-4,256,39.317569,-85.9685014
5001 Central Ave. Pike,Knoxville,TN,37912,-4,12,36.0092035,-83.9687373
1899 S. Hwy 27,Somerset,KY,42501,-4,454,37.0675035,-84.6200159
5706 Northridge Dr.,Gurnee,IL,60031,0,122,42.3772353,-87.9441261
111 Colonial Ln.,Rocky Top,TN,37769,-4,4,36.2315017,-84.1607837
7750 Corinne Dr.,Hammond,IN,46323,0,369,41.571765,-87.4629123
211 N Sandy Creek Dr.,Seymour,IN,47274,-4,64,38.9598767,-85.8461043
725 Ross Place,Lavonia,GA,30553,-4,750,34.444933,-83.1243957
40 Frontage Rd.,Lafayette,IN,47905,-4,37,40.4184054,-86.8177193
6256 Cambridge Way,Plainfield,IN,46168,-4,132,39.6712218,-86.3690821
771 Louisville Rd.,Alcoa,TN,37701,-4,494,35.7716164,-83.9876945
9214 Park West Blvd.,Knoxville,TN,37923,-4,16,35.9185231,-84.0927506
1265 Allen St.,Scottsburg,IN,47170,-4,542,38.683125,-85.7859652
1401 Kentucky Mills Dr.,Jeffersontown,KY,40299,-4,153,38.2221133,-85.5395607
716 N Campbell Station Rd.,Knoxville,TN,37934,-4,75,35.8972604,-84.1746086
10150 Brookridge Village Blvd.,Louisville,KY,40291,-4,522,38.1443844,-85.5836398
350 Triangle Rd.,Sellersburg,IN,47172,-4,303,38.3946822,-85.7597354
10 Old Filiatreau Ln.,Bardstown,KY,40004,-4,691,37.7986093,-85.4323815
18531 North Creek Dr.,Tinley Park,IL,60477,0,176,41.5542518,-87.7946621
325 Ft Loudoun Medical Cent Dr,Lenoir City,TN,37772,-4,573,35.8248225,-84.2721158
I-95 & U.S. 341,Brunswick,GA,31520,-4,54,31.2180671,-81.5232221
1005 Candle View Ln.,Crawfordsville,IN,47933,-4,705,40.0768506,-86.9059397
2701 Crittenden Dr,Louisville,KY,40209,-4,417,38.2052,-85.7501195
275 Brenton Way,Shepherdsville,KY,40165,-4,223,38.0654609,-85.6976931
138 Eisenhower Dr.,Commerce,GA,30529,-4,339,34.2566683,-83.4623128
1855 West Diehl Rd.,Naperville,IL,60563,0,196,41.8021396,-88.2087584
1295 Lakeview Dr.,Romeoville,IL,60446,0,307,41.6578506,-88.1238764
11000 Dixie Hwy.,Louisville,KY,40272,-4,650,38.0954721,-85.874889
380 N. Jacob Dr.,Bloomington,IN,47404,-4,487,39.1712685,-86.5709073
50 Ken Hayes Dr.,Bourbonnais,IL,60914,0,221,41.1708109,-87.8489132
1839 South Roane St.,Harriman,TN,37748,-4,6,35.9057887,-84.5923414
1913 Epps Bridge Pkwy.,Athens,GA,30606,-4,505,33.9177953,-83.4440958
1511 Riverboat Center,Joliet,IL,60431,0,235,41.4940028,-88.1677857
2430 Fulton St.,Janesville,WI,53546,0,143,42.7280144,-88.9929067
2393 Pacer Court NW,Corydon,IN,47112,-4,443,38.2371343,-86.1279872
2147 East Springs Dr.,Madison,WI,53704,0,214,43.1296147,-89.2934051
1047 Executive Dr.,Elizabethtown,KY,42701,-4,48,37.7111431,-85.831106
1200 Boone Ave.,Kingsland,GA,31548,-4,361,30.790533,-81.6616899
301 Exchange Way,Braselton,GA,30517,-4,588,34.1187445,-83.7634424
1295 WI Dells Pkwy South,Baraboo,WI,53913,0,444,43.5728617,-89.7771024
2003 Eatonton Rd,Madison,GA,30650,-4,593,33.5568426,-83.4763993
438 Commerce Ctr. Dr.,Jacksonville,FL,32225,-4,511,30.3319029,-81.5515153
13250 City Station Dr.,Jacksonville,FL,32218,-4,589,30.4791341,-81.6422306
110 Burkett L. Witt Blvd.,Athens,TN,37303,-4,9,35.4682235,-84.6500785
730 North Lyford Rd.,Rockford,IL,61107,0,244,42.2746166,-88.96106
23 Executive Dr.,Crossville,TN,38555,-4,79,35.9992255,-85.0445363
4680 Lenoir Ave.,Jacksonville,FL,32216,-4,341,30.2484756,-81.5970886
104 Travel Center Blvd.,Dublin,GA,31021,-4,401,32.4872764,-82.937892
2441 State Rd. 16,St. Augustine,FL,32092,-4,289,29.9151623,-81.4130104
4758 Lanier Islands Pkwy.,Buford,GA,30518,-4,641,34.1404951,-83.952168
4 Kingswood Dr.,Palm Coast,FL,32137,-4,118,29.5537142,-81.2134243
125 Interchange Blvd.,Ormond Beach,FL,32174,-4,364,29.255332,-81.1168063
2325 W. International Speedway,Daytona Beach,FL,32114,-4,158,29.182874,-81.0776216
4272 Eldridge Loop,Orange Park,FL,32073,-4,157,30.1907493,-81.701891
2501 Memorial Dr.,Waycross,GA,31503,-4,744,31.1939691,-82.3187779
675 Buford Hwy.,Cumming,GA,30040,-4,697,34.185792,-84.139434
75 Celebration Dr.,Suwanee,GA,30024,-4,146,34.0282993,-84.0482686
429 E Margaret Dr.,Terre Haute,IN,47802,-4,156,39.4318882,-87.4107965
800 Happy Valley St.,Cave City,KY,42127,0,428,37.134625,-85.9726421
502 Chaffee Point Rd.,Jacksonville,FL,32221,-4,577,30.3085882,-81.844763
1740 Scenic Hwy.,Snellville,GA,30078,-4,746,33.8806956,-84.0108347
4745 Helen Hauser Blvd.,Titusville,FL,32780,-4,267,28.5519714,-80.8532605
1650 Clingan Ridge Dr. NW,Cleveland,TN,37312,-4,21,35.1923613,-84.883053
7225 George T. Edwards Dr.,Melbourne,FL,32940,-4,67,28.2315451,-80.7204889
4119 Columbus,Ottawa,IL,61350,0,437,41.3808581,-88.8367284
1295 S Walnut Ave.,Cookeville,TN,38501,0,15,36.1365271,-85.5041284
5580 Windward Pkwy.,Alpharetta,GA,30004,-4,611,34.0881096,-84.2644643
1182 Dogwood Dr SE,Conyers,GA,30012,-4,32,33.6551911,-84.0065792
1175 Palm Bay Rd.,Melbourne,FL,32905,-4,519,28.0358079,-80.6393252
6175 McDonough Dr.,Norcross,GA,30093,-4,28,33.9103894,-84.208817
715 Transit Ave.,Canton,GA,30114,-4,425,34.2539648,-84.4697253
4101 Federal Hwy.,Jensen Beach,FL,34957,-4,500,27.2556257,-80.2777343
9380 19th Ln.,Vero Beach,FL,32966,-4,250,27.6384825,-80.5194041
2550 Peters Rd.,Fort Pierce,FL,34945,-4,91,27.4188637,-80.3903076
2101 North Kenyon Rd.,Urbana,IL,61802,0,129,40.1334488,-88.1995086
3950 Riverside Dr.,Macon,GA,31210,-4,46,32.9038498,-83.6897284
7461 SW Lost River Rd.,Stuart,FL,34997,-4,241,27.1111801,-80.2597277
8852 Old Lee Hwy,Ooltewah,TN,37363,-4,610,35.0842624,-85.0705058
5000 Eisenhower Pkwy.,Macon,GA,31206,-4,22,32.813196,-83.7211174
2411 Metrocentre Blvd.,West Palm Beach,FL,33407,-4,240,26.7578619,-80.0928196
200 Hickman Dr.,Sanford,FL,32771,-4,190,28.8141885,-81.3355151
2700 Watson Blvd.,Warner Robins,GA,31093,-4,516,32.6188717,-83.6698739
2346 Shallowford Village Rd.,Chattanooga,TN,37421,-4,102,35.0449673,-85.1549444
1124 Hwy. 20 W.,McDonough,GA,30253,-4,515,33.4299035,-84.1822082
938 Market St.,Dalton,GA,30720,-4,5,34.7581291,-85.0008885
2150 Delk Rd.,Marietta,GA,30067,-4,30,33.9218634,-84.4915316
3389 Busbee Dr. NW,Kennesaw,GA,30144,-4,20,34.0327138,-84.5750745
50 Biscuit Way,Ringgold,GA,30736,-4,562,34.9116462,-85.1290144
1475 Southwest 8th St.,Boynton Beach,FL,33426,-4,287,26.5159281,-80.0780249
1460 North Mack Smith Rd.,East Ridge,TN,37412,-4,29,34.9907104,-85.2082654
1960 Mel Browning St.,Bowling Green,KY,42104,-5,86,36.9314321,-86.4183353
1458 Southlake Plaza Dr.,Morrow,GA,30260,-4,38,33.5789489,-84.342661
285 Douglas Ave.,Altamonte Springs,FL,32714,-4,503,28.6658845,-81.3893868
100 Cracker Barrel Dr.,Calhoun,GA,30701,-4,424,34.4704377,-84.9160132
5631 Hwy 20 NE,Cartersville,GA,30121,-4,59,34.2062801,-84.7637886
6699 S. Semoran Blvd,Orlando,FL,32822,-4,520,28.4663987,-81.308952
941 Hwy. 140,Adairsville,GA,30103,-4,584,34.378456,-84.9092091
101 Lect Dr.,Perry,GA,31069,-4,98,32.4475194,-83.7528638
970 W. Pointe Ct.,Lithia Springs,GA,30122,-4,543,33.7745722,-84.6058404
50 Birmingham Hwy,Chattanooga,TN,37419,-4,200,35.016175,-85.3837333
13300 S. Orange Blossom Trail,Orlando,FL,32837,-4,499,28.4501582,-81.4007641
1250 SW 11th Way,Deerfield Beach,FL,33441,-4,380,26.3012558,-80.1187369
5311 Frederica St.,Owensboro,KY,42301,0,420,37.7141725,-87.1250647
7995 Senoia Rd.,Fairburn,GA,30213,-4,700,33.5378628,-84.5776526
1101 Charleston Ave. E.,Mattoon,IL,61938,0,404,39.4836605,-88.3320537
155 Steele Rd.,Franklin,KY,42134,-4,7,36.6664501,-86.5576588
502 Brock Dr.,Bloomington,IL,61701,0,125,40.482955,-89.0257725
3316 Daniels Rd.,Winter Garden,FL,34787,-4,647,28.5207353,-81.5877885
7060 Concourse Pkwy.,Douglasville,GA,30134,-4,40,33.7294797,-84.7597504
635 South Cumberland,Lebanon,TN,37087,0,2,36.1902853,-86.2943645
5400 W. Irlo Bronson Memorial,Kissimmee,FL,34746,-4,151,28.331831,-81.4992027
9450 Hwy 441,Leesburg,FL,34788,-4,488,28.8263246,-81.8005076
8215 Eagel Lake Dr.,Evansville,IN,47715,0,216,37.9749139,-87.4535949
1005 Village Green Crossing,Gallatin,TN,37066,0,470,36.3779967,-86.4709111
1905 Central Ave.,Cordele,GA,31015,-4,456,31.9590263,-83.7532372
240 Southwest Commerce Dr.,Lake City,FL,32025,-4,56,30.178153,-82.6862711
13637 N. US Hwy. 27,Lady Lake,FL,32159,-4,524,28.9558621,-81.9598316
550 Kimball Crossing Dr.,Kimball,TN,37347,0,565,35.0392378,-85.6844577
7878 W. Irlo Bronson Memorial,Kissimmee,FL,34747,-4,529,28.342437,-81.6007226
1520 E. Hwy 50,Clermont,FL,34711,-4,489,28.5473936,-81.7270408
4001 S.W. 43rd St.,Gainesville,FL,32608,-4,167,29.6175147,-82.3884936
708 US Hwy. 319 S.,Tifton,GA,31794,-4,80,31.4489412,-83.528925
527 Bullsboro Dr.,Newnan,GA,30265,-4,212,33.3951469,-84.7597096
2130 US Highway 60 E,Henderson,KY,42420,-5,632,37.859628,-87.5666593
370 Hester Dr.,White House,TN,37188,0,521,36.46674,-86.6799127
3801 SW College Rd.,Ocala,FL,34474,-4,63,29.149819,-82.186461
213 Indian Lake Blvd.,Hendersonville,TN,37075,0,630,36.3206869,-86.6003799
103 Paradise St.,Manchester,TN,37355,0,3,35.5017714,-86.0882784
350 S. Mt. Juliet Rd.,Mount Juliet,TN,37122,0,87,36.1695969,-86.514537
111 Dunson Ln.,Davenport,FL,33896,-4,532,28.2436012,-81.6552611
5120 Hickory Point Frontage Rd.,Decatur,IL,62526,0,246,39.9107576,-88.9525709
13561 SW 17th Ct.,Ocala,FL,34473,-4,603,29.0248794,-82.1536426
1960 NW 150th Ave.,Pembroke Pines,FL,33028,-4,268,26.0253824,-80.3483767
150 E Ashland St.,Morton,IL,61550,0,209,40.6227584,-89.4602216
235 Long Hollow Pike,Goodlettsville,TN,37072,0,33,36.3240807,-86.702781
2115 South Church,Murfreesboro,TN,37130,0,11,35.8144026,-86.3942856
1195 St. Augustine Rd.,Valdosta,GA,31601,-4,35,30.8420359,-83.3233655
4914 Timber Dr.,Lake Park,GA,31636,-4,89,30.6809262,-83.225463
138 Chaffin Place,Murfreesboro,TN,37129,0,90,35.8449449,-86.4311465
3454 Percy Priest Dr.,Nashville,TN,37214,0,23,36.153814,-86.6269042
1101 Ave. of Mid-America,Effingham,IL,62401,0,101,39.1393967,-88.5588718
2406 Music Valley Dr.,Nashville,TN,37214,0,13,36.21813,-86.6967377
2697 Highwood Blvd.,Smyrna,TN,37167,0,429,35.9725062,-86.5741007
106 Price Creek Rd,Bremen,GA,30110,-4,613,33.6874775,-85.1540128
1780 E. Center St.,Madisonville,KY,42431,0,453,37.3260504,-87.4715797
4323 Sidco Dr.,Nashville,TN,37204,0,26,36.0829045,-86.762339
1013 Heitmann Dr.,Lincoln,IL,62656,0,391,40.1590795,-89.4137262
201 Cracker Barrel Row SW,Fort Payne,AL,35968,0,471,34.438928,-85.749467
6941 Charlotte Pike,Nashville,TN,37209,0,34,36.1290781,-86.9013974
105 Hoffman Dr.,LaGrange,GA,30241,-4,561,33.0409039,-84.9727329
4343 Lakeland Park Dr.,Lakeland,FL,33809,-4,189,28.097889,-81.9529234
1735 Mallory Ln.,Brentwood,TN,37027,0,530,35.9603808,-86.8165032
30405 Cracker Crossing,Brooksville,FL,34602,-4,357,28.5210544,-82.2358765
4210 Franklin Commons Ct.,Franklin,TN,37067,0,134,35.9123546,-86.8229329
300 Jason Way Ct.,Davenport,IA,52806,0,161,41.593153,-90.5684138
200 Cracker Barrel Dr,Clarksville,TN,37040,0,17,36.6024011,-87.2811911
1114 N. Westover Blvd.,Albany,GA,31707,-4,455,31.6162056,-84.2116171
155 N. Krome Ave.,Florida City,FL,33034,-4,545,25.4494129,-80.4760611
2020 Crossings Cir.,Spring Hill,TN,37174,0,639,35.7436616,-86.9379346
1534 Bear Creek Pike,Columbia,TN,38401,0,544,35.6421589,-86.9004967
1500 Bradley Park Dr.,Columbus,GA,31904,-4,523,32.53111,-84.9711061
74 Hospitality Ln.,Cadiz,KY,42211,0,394,36.8798283,-87.7355375
5636 Oakley Blvd.,Wesley Chapel,FL,33544,-4,82,28.2388865,-82.354126
5975 S 6th Street Rd.,Springfield,IL,62703,0,147,39.7151796,-89.6411246
1880 State Rd. 60 E.,Valrico,FL,33594,-4,534,27.9386098,-82.2567606
6150 Lazy Days Blvd.,Seffner,FL,33584,-4,251,28.0066983,-82.3053624
220 Leon Smith Pkwy.,Oxford,AL,36203,0,315,33.6127403,-85.7872508
115 Gumbranch Rd.,Dickson,TN,37055,0,92,36.0217447,-87.3369366
1371 Commercial Way,Spring Hill,FL,34606,-4,649,28.4540917,-82.6309979
3125 Cove Bend Dr.,Tampa,FL,33613,-4,498,28.0811784,-82.42504
11635 US Hwy. 431,Guntersville,AL,35976,0,664,34.3003711,-86.2756351
101 Taylor Dr.,Gadsden,AL,35904,0,396,33.9979603,-86.0901491
17189 Kenyon Ave.,Lakeville,MN,55044,0,191,44.7003898,-93.2883096
2001 Drake Ave. SW,Huntsville,AL,35801,0,612,34.7047206,-86.5891578
9370 Theater Dr.,Gibsonton,FL,33534,-4,771,27.8494702,-82.3495494
4425 Fairfax Dr.,Mount Vernon,IL,62864,0,93,38.3138323,-88.9552263
1051 Fox Run Ave.,Opelika,AL,36801,0,231,32.6454007,-85.3529874
5341 US Highway 19,New Port Richey,FL,34652,-4,626,28.2370567,-82.728578
4260 Boatways Rd.,Fort Myers,FL,33905,-4,119,26.6836047,-81.7968993
120 Cleghorn Blvd.,Madison,AL,35758,0,217,34.6710126,-86.7539009
13833 W. Hillsborough Ave.,Tampa,FL,33635,-4,547,28.0335547,-82.646192
800 Kings Hwy.,Port Charlotte,FL,33980,-4,225,27.0179346,-82.0493119
314 Kennedy Ave.,Calvert City,KY,42029,0,531,37.0052428,-88.3252595
10090 Daniels Parkway,Fort Myers,FL,33913,-4,527,26.5462346,-81.7909027
1212 Kelli Drive,Athens,AL,35613,0,97,34.7813652,-86.938076
4011 Ulmerton Rd.,Clearwater,FL,33762,-4,535,27.8945887,-82.6886329
2151 54th Ave. N.,St. Petersburg,FL,33714,-4,481,27.8217731,-82.6626549
2920 Hospitality Rd.,Tallahassee,FL,32303,-4,44,30.4804731,-84.3065767
636 67th St. Cir. E.,Bradenton,FL,34208,-4,73,27.4942413,-82.4748103
260 Vaughan Ln.,Pell City,AL,35125,0,599,33.6075017,-86.2766012
3845 Tollgate Blvd.,Naples,FL,34114,-4,117,26.1568818,-81.6854381
2602 West Main St.,Marion,IL,62959,0,78,37.7304247,-88.9615087
1909 Uncle Herschel Way S.E.,Hartselle,AL,35640,0,682,34.4484395,-86.8990477
650 N. 12th St.,Murray,KY,42071,0,460,36.6208825,-88.3144398
407 Beltline Rd. SW,Decatur,AL,35601,0,475,34.5592154,-86.991615
2203 Cortez Rd. W.,Bradenton,FL,34207,-4,506,27.4615939,-82.5838514
445 Commercial Court,Venice,FL,34292,-4,282,27.1104865,-82.3873134
5035 Hinkleville Rd.,Paducah,KY,42001,0,24,37.0773116,-88.6867386
6020 AL Highway 157,Cullman,AL,35058,0,51,34.2079919,-86.8755843
2003 Village Dr.,Leeds,AL,35094,0,123,33.56748,-86.519825
2001 Formosa Rd.,Troy,IL,62294,0,232,38.7339139,-89.9148951
4710 Norrell Dr.,Trussville,AL,35173,0,368,33.6406907,-86.6153982
33 Brian Dr.,Mayfield,KY,42066,0,745,36.7690849,-88.6426949
3160 Green Mount Crossing Dr.,Shiloh,IL,62269,0,569,38.5741873,-89.9268839
2421 Old Country Inn Dr.,Caseyville,IL,62232,0,111,38.6122939,-90.0478648
901 Fieldstown Rd.,Gardendale,AL,35071,0,237,33.6478301,-86.8309392
3415 Colonnade Pkwy.,Birmingham,AL,35243,0,580,33.4390344,-86.728338
150 Cox Creek Pkwy. S,Florence,AL,35630,0,476,34.8277123,-87.6281731
3431 Ross Clark Circle,Dothan,AL,36303,0,384,31.2456073,-85.429457
9191 Boyd-Cooper Pkwy.,Montgomery,AL,36117,0,574,32.3666857,-86.1405539
655 Cahaba Valley Rd.,Pelham,AL,35124,0,70,33.3368071,-86.7823585
199 Supercenter Dr.,Calera,AL,35040,0,558,33.1441344,-86.7500444
901 Veterans Memorial Pkwy.,Saint Charles,MO,63303,0,279,38.7690433,-90.5003139
240 Carl Cannon Blvd.,Jasper,AL,35501,0,712,33.7936526,-87.2427464
796 Business Park Dr.,Prattville,AL,36066,0,273,32.4888152,-86.411177
5040 Academy Ln.,Bessemer,AL,35022,0,301,33.3654575,-87.0035882
3261 Williams St.,Cape Girardeau,MO,63703,0,148,37.299711,-89.5770981
6233 Heimos Industrial Park Dr.,St. Louis,MO,63129,0,99,38.4627991,-90.3722608
1050 South Hwy. Dr.,Fenton,MO,63026,0,150,38.5419472,-90.4657915
120 Progress Point Ct,O'Fallon,MO,63368,0,533,38.7164721,-90.7019961
1193 Scenic Dr.,Herculaneum,MO,63048,0,567,38.2563317,-90.4009592
188 Vann Dr.,Jackson,TN,38305,0,284,35.6707673,-88.8345905
U.S. 45 & U.S. 72,Corinth,MS,38834,0,722,34.9316787,-88.5453567
4800 Doris Pate Dr.,Tuscaloosa,AL,35405,0,272,33.1759626,-87.474404
181 Interstate Dr.,Greenville,AL,36037,0,326,31.8553155,-86.6364278
3055 Lake Rd.,Dyersburg,TN,38024,0,716,36.0708718,-89.3980567
520 East 23rd St.,Panama City,FL,32405,0,749,30.1890784,-85.6523727
701 W. Springfield Rd,Sullivan,MO,63080,0,590,38.2105129,-91.171111
1270 Cross Creek Dr.,Saltillo,MS,38866,0,427,34.3166356,-88.6973141
11701 University Ave.,Clive,IA,50325,0,144,41.6010155,-93.7802592
201 Cracker Barrel Rd.,Crestview,FL,32536,0,265,30.7242329,-86.5711045
319 Coulter Cove,New Albany,MS,38652,0,724,34.4994117,-89.0317132
592 18th Ave. N.,Columbus,MS,39705,0,730,33.5136441,-88.4268708
34930 Emerald Coast Pkwy,Destin,FL,32541,0,479,30.3883897,-86.4249786
3304 Clark Ln.,Columbia,MO,65202,0,145,38.9631223,-92.2883573
9649 East Davies Plantation Rd.,Lakeland,TN,38002,-5,513,35.2220318,-89.7407173
6081 Shelby Oaks Dr.,Memphis,TN,38134,0,36,35.1671437,-89.8610601
8000 Lowrance Rd.,Memphis,TN,38125,0,465,35.036153,-89.7969623
706 Desoto Cove,Horn Lake,MS,38637,0,168,34.964537,-90.001433
1600 N 6th St.,West Memphis,AR,72301,0,372,35.1645173,-90.1771615
2621 Phillips Dr.,Jonesboro,AR,72401,0,457,35.8088129,-90.6742656
128 St. Robert Blvd.,Saint Robert,MO,65584,0,389,37.8253864,-92.1452547
8050 Lavelle Way,Pensacola,FL,32526,0,201,30.5219394,-87.3164057
225 Lakewood Dr.,Batesville,MS,38606,0,308,34.3111873,-89.9225128
118 Hwy 11 & 80,Meridian,MS,39301,0,109,32.3703765,-88.6707153
2409 S.Shirley Ave.,Sioux Falls,SD,57106,0,445,43.5250901,-96.7759594
30227 Eastern Shore Ct.,Spanish Fort,AL,36527,0,557,30.6650786,-87.8511656
3150 S McKenzie St,Foley,AL,36535,0,477,30.3678498,-87.6844236
88 Shell St.,Saraland,AL,36571,0,761,30.8063595,-88.105072
43 E I65 Service Rd. S,Mobile,AL,36606,0,94,30.685872,-88.125705
845-A Schillinger Rd. S.,Mobile,AL,36695,0,439,30.6729706,-88.2239041
530 30th Ave.,Council Bluffs,IA,51501,0,219,41.2313274,-95.8491799
915 N. Woodbine Rd.,Saint Joseph,MO,64506,0,319,39.7739475,-94.7946888
8225 North Church Rd.,Kansas City,MO,64158,0,163,39.2413929,-94.4597813
4110 S. Lee's Summit,Independence,MO,64055,0,179,39.0436947,-94.3887579
7920 NW Tiffany Springs Pkwy.,Kansas City,MO,64153,0,366,39.2729124,-94.6725668
6805 Hwy 63 N.,Moss Point,MS,39563,0,264,30.4395853,-88.5304296
9409 S 142nd St.,Omaha,NE,68138,0,296,41.1651101,-96.1358598
1685 N Grandview Ln,Bismarck,ND,58503,0,447,46.8286716,-100.8186142
2858 North Glenstone,Springfield,MO,65803,0,127,37.2489181,-93.2590698
6751 E. 163rd St.,Belton,MO,64012,0,762,38.8256925,-94.5189789
6659 Hwy 49,Hattiesburg,MS,39401,0,316,31.3537198,-89.3477791
12101 S Strangline Rd.,Olathe,KS,66062,0,243,38.9091731,-94.7732847
410 Riverwind Dr.,Pearl,MS,39208,0,274,32.2670422,-90.1376155
3765 West Hwy.76,Branson,MO,65616,0,140,36.65032,-93.2883289
15255 Crossroads Pkwy.,Gulfport,MS,39503,0,438,30.4368508,-89.0937222
6700 North 27th St.,Lincoln,NE,68521,0,365,40.8792475,-96.6812335
525 Skyline Drive,Conway,AR,72032,0,276,35.1107489,-92.4319122
3101 Springhill Dr.,North Little Rock,AR,72117,0,468,34.7811401,-92.2180559
2618 S Shackleford Rd.,Little Rock,AR,72205,0,634,34.7336284,-92.3954989
4001 S. Frontage Rd.,Vicksburg,MS,39180,0,304,32.3413004,-90.8420138
218 W Commerce St.,Bryant,AR,72022,0,275,34.6214651,-92.4997476
1421 South West Ashworth Place,Topeka,KS,66604,0,177,39.0408926,-95.758414
1207 Hampton Dr.,Brookhaven,MS,39601,0,395,31.5777804,-90.4730181
211 East Harrell Dr.,Russellville,AR,72802,0,347,35.3033123,-93.1334673
4010 Richard Joseph Rd.,Joplin,MO,64804,0,188,37.0445862,-94.4808612
790 E I 10 Service Rd.,Slidell,LA,70461,0,138,30.2809935,-89.7505412
2307 SE Walton Blvd.,Bentonville,AR,72712,0,720,36.3357085,-94.1858573
8001 Pinnacle Pkwy.,Covington,LA,70433,0,686,30.4442876,-90.1283972
1022 South 48th St.,Springdale,AR,72762,0,426,36.1773491,-94.1867776
170 Pakis St.,Hot Springs,AR,71913,0,467,34.4626764,-93.0595763
201 Westin Oaks Dr.,Hammond,LA,70403,0,352,30.50276,-90.5022075
173 Valley St.,Arkadelphia,AR,71923,0,414,34.1879489,-93.072412
115 N East St,Junction City,KS,66441,-5,392,39.0227534,-96.815577
431 Hwy. 71 North,Alma,AR,72921,0,332,35.4899478,-94.2279323
309 Constitution Dr.,West Monroe,LA,71292,0,278,32.5070796,-92.161333
10250 Plaza Americana Dr.,Baton Rouge,LA,70816,0,152,30.4262121,-91.0735796
2313 South Tanger Blvd.,Gonzales,LA,70737,0,353,30.2134862,-90.9515327
9475 N. Owasso Expressway,Owasso,OK,74055,0,636,36.2911582,-95.8350953
8008 E. 31st St.,Tulsa,OK,74145,0,325,36.1182373,-95.8879068
6108 West Calhoun Dr.,Alexandria,LA,71303,0,433,31.34635,-92.5209924
995 E. 61st N.,Wichita,KS,67219,0,213,37.7951604,-97.3269313
3302 St. Michaels Dr.,Texarkana,TX,75503,0,375,33.4604476,-94.081125
7128 S Olympia Ave,South Tulsa,OK,74132,0,661,36.0597615,-96.0047243
619 S. Ridge Rd.,Wichita,KS,67209,0,767,37.6747031,-97.4264256
116 Alcide Dominique Dr.,Lafayette,LA,70506,0,182,30.2491601,-92.0373839
6251 Westport Ave.,Shreveport,LA,71129,0,229,32.4489704,-93.8687958
822 S. Access Rd.,Longview,TX,75602,0,719,32.4496918,-94.7072636
27 W. Interstate Pkwy.,Shawnee,OK,74804,0,458,35.3829619,-96.9251903
1100 Pintail Rd.,Sulphur,LA,70665,0,320,30.2132907,-93.3266937
4901 N.E. 122nd S.,Edmond,OK,73013,0,351,35.5956205,-97.4341638
700 Cornell Pkwy.,Oklahoma City,OK,73108,0,174,35.4581232,-97.59592
13821 US Hwy 69 N,Tyler,TX,75706,0,430,32.4665957,-95.387534
800 North Interstate Dr.,Norman,OK,73072,0,181,35.2284954,-97.4867731
"US 59 & Whitehouse Dr, Exit 391",Lufkin,TX,75904,0,622,31.295842,-94.719176
3401 West I-30,Greenville,TX,75402,0,381,33.0937183,-96.1134088
3501 N US Hwy 75,Sherman,TX,75090,0,623,33.675,-96.6102443
5390 Walden Rd,Beaumont,TX,77705,0,451,30.0378426,-94.1545356
845 East Interstate 30,Rockwall,TX,75087,0,769,32.8998626,-96.4584247
1323 Central Expressway N.,Allen,TX,75013,0,714,33.1186192,-96.6703913
4327 N I-35,Gainesville,TX,76240,0,600,33.680464,-97.1572259
5304 North Galloway Ave.,Mesquite,TX,75150,0,197,32.8353003,-96.633869
889 South Stemmons,Lewisville,TX,75067,0,198,33.0362135,-97.0014237
4008 N I-35,Denton,TX,76207,0,149,33.231192,-97.173132
2700 Grapevine Mills Pkwy,Grapevine,TX,76051,0,609,32.9671302,-97.0358562
1421 N. Beckley Ave.,Desoto,TX,75115,0,266,32.6179177,-96.8243915
601 E. Gore Blvd.,Lawton,OK,73501,0,377,34.6083446,-98.3805226
1251 North Watson Rd.,Arlington,TX,76006,0,242,32.7701989,-97.0638743
15805 North Freeway,Fort Worth,TX,76177,-5,778,33.019434,-97.280785
5620 South Frontage Rd.,Billings,MT,59101,-6,346,45.7472304,-108.5590944
5173 Interstate 10 E,Baytown,TX,77521,0,172,29.80862,-94.97946
4300 South Bowen Rd.,Arlington,TX,76016,0,203,32.6759965,-97.1502834
24400 Eastex Freeway,Kingwood,TX,77339,0,679,30.0672491,-95.2465056
4691 Gemini Place,Fort Worth,TX,76106,0,205,32.8272133,-97.3142772
1301 League Line Rd.,Conroe,TX,77304,0,288,30.3663315,-95.4865473
13301 South Freeway,Burleson,TX,76028,0,327,32.5654596,-97.3176514
8010 SW Loop 820,Benbrook,TX,76126,0,322,32.6841443,-97.4200654
14765 N. Freeway,Houston,TX,77090,0,379,29.9804844,-95.4236569
231 Gulf Freeway S.,League City,TX,77573,0,202,29.5008371,-95.1140164
2400 Sierra Dr,Wichita Falls,TX,76306,0,631,33.9485641,-98.5256304
11019 Shadow Creek Pkwy.,Pearland,TX,77584,0,668,29.5834793,-95.387534
US 290 & Mueschke Rd.,Cypress,TX,77429,0,710,29.9790791,-95.7169835
132 East I-20,Weatherford,TX,76087,0,583,32.729905,-97.7846943
3110 Briarcrest Dr.,Bryan,TX,77802,0,676,30.6649427,-96.3247257
18151 Katy Freeway,Houston,TX,77094,0,206,29.7835882,-95.6920667
4275 North I-35,Lacy Lakeview,TX,76705,0,166,31.6032847,-97.108472
23801 SW Fwy.,Rosenberg,TX,77471,0,673,29.5450148,-95.747879
221 Enterprise Blvd.,Hewitt,TX,76643,0,766,31.4563865,-97.1740995
5800 McWhinney Blvd.,Loveland,CO,80538,-6,270,40.4102821,-104.9940619
3687 S General Bruce Dr.,Temple,TX,76504,0,692,31.0898145,-97.3855506
350 W. 120th Ave.,Northglenn,CO,80234,-6,226,39.9130686,-104.9915514
201 Central TX Expy.,Harker Heights,TX,76548,0,653,31.073724,-97.660408
2350 N IH35,Round Rock,TX,78761,0,173,30.5351727,-97.6941982
8355 Razorback Dr.,Colorado Springs,CO,80920,-6,227,38.9512407,-104.8030047
2323 I-40 East,Amarillo,TX,79104,0,210,35.1940751,-101.8111394
550 County Rd. 117,Buda,TX,78610,0,595,30.0849418,-97.8225609
4735 Elizabeth St. N.,Pueblo,CO,81008,-6,292,38.3228156,-104.6166898
1602 Hwy 351,Abilene,TX,79601,0,594,32.4784661,-99.6991035
2929 Expo Pkwy.,Missoula,MT,59808,-6,407,46.9151127,-114.0354522
4321 IH 35 S,San Marcos,TX,78666,0,228,29.743852,-98.0611485
6330 N Interstate 35,San Antonio,TX,78218,0,211,29.4863372,-98.4012045
98 NE Hwy.410,San Antonio,TX,78216,0,684,29.519343,-98.4844122
11030 I H 10 W.,San Antonio,TX,78230,0,154,29.5450975,-98.5814165
3327 SE Military Dr.,San Antonio,TX,78223,0,690,29.352263,-98.4344445
2110 Sidney Baker,Kerrville,TX,78028,0,421,30.0681152,-99.1153098
123 SW Loop 410,San Antonio,TX,78245,0,576,29.4367095,-98.6452345
5018 Milwaukee Ave,Lubbock,TX,79407,0,633,33.545217,-101.9575931
4229 South Padre Island Dr.,Corpus Christi,TX,78411,0,321,27.7185918,-97.3943296
1675 W Lee Ct,Coeur d'Alene,ID,83814,-6,729,47.7013429,-116.806583
3108 N Loop 250 West,Midland,TX,79707,0,637,32.009677,-102.1566164
110 Bass Pro Dr.,Harlingen,TX,78550,0,670,26.1901949,-97.720412
3817 W Expressway 83,McAllen,TX,78503,0,645,26.194103,-98.2650214
1792 N. Heritage Park Blvd.,Layton,UT,84041,-6,314,41.0865872,-111.9865614
2283 West City Center Court,West Valley,UT,84119,-6,323,40.6990631,-111.9502929
5200 San Antonio Dr.,Albuquerque,NM,87109,-6,245,35.1591071,-106.5858004
460 South 2000 West,Springville,UT,84663,-6,337,40.1601749,-111.6502822
5700 Redlands Rd. NW,Albuquerque,NM,87120,-6,617,35.1179406,-106.7023662
1733 South Cole Rd.,Boise,ID,83709,-6,359,43.5884692,-116.2749638
16853 N. Marketplace Blvd.,Nampa,ID,83687,-6,683,43.6126641,-116.5948296
1480 West Maloney,Gallup,NM,87301,-6,362,35.5286078,-108.7640409
1490 Hickory Dr.,Las Cruces,NM,88005,-6,253,32.2898052,-106.788131
13381 Gateway West,El Paso,TX,79928,2,774,31.8369053,-106.5680749
7540 Remcon Circle,El Paso,TX,79912,0,252,31.8369053,-106.5680749
2560 E. Lucky Ln.,Flagstaff,AZ,86004,-6,297,35.1963427,-111.6177928
1736 Convention Center Dr,Saint George,UT,84790,-6,602,37.0782119,-113.5838774
5707 E State Route 69,Prescott Valley,AZ,86314,-6,655,34.5764865,-112.3642791
1799 N. Higley Rd.,Gilbert,AZ,85234,-6,763,33.3823911,-111.7198817
1007 N. Dobson Rd.,Mesa,AZ,85201,-6,618,33.4346626,-111.8677578
21611 N. 26th Ave.,Phoenix,AZ,85027,-6,334,33.6817103,-112.114006
16845 N. 84th Ave.,Peoria,AZ,85382,-6,331,33.6368538,-112.2412425
5022 E. Chandler Blvd.,Chandler,AZ,85048,-6,335,33.3060605,-111.974932
8400 N Cracker Barrel Rd,Tucson,AZ,85743,-6,344,32.359897,-111.0926572
9312 W. Glendale Ave.,Glendale,AZ,85305,-6,619,33.5381597,-112.2599175
2815 E. Craig Rd.,N. Las Vegas,NV,89030,-7,742,36.2396499,-115.1107699
3520 Stockton Hill Rd.,Kingman,AZ,86409,-6,416,35.2256222,-114.0353279
2281 E Florence Blvd.,Casa Grande,AZ,85122,-6,388,32.8790125,-111.6889428
1209 N Litchfield Rd.,Goodyear,AZ,85395,-6,277,33.4596216,-112.3572939
1445 Center Dr.,Medford,OR,97501,-7,733,42.3099537,-122.8508231
8350 Dean Martin Dr.,Las Vegas,NV,89139,-7,741,36.0379427,-115.1818294
606 S. Watson Rd.,Buckeye,AZ,85326,-6,615,33.4414469,-112.5569628
935 West 5th Street,Reno,NV,89503,-7,779,39.5291105,-119.828255
4630 Sierra College Blvd.,Rocklin,CA,95677,-7,756,38.7995198,-121.2085361
1780 S Sunridge Dr.,Yuma,AZ,85365,-6,305,32.695398,-114.6037477
1000 Howe Ave.,Sacramento,CA,95825,-7,754,38.5837421,-121.4145233
11612 Amargosa Rd.,Victorville,CA,92392,-7,755,34.4619745,-117.3538951
1080 W. Renaissance Pkwy.,Rialto,CA,92376,-7,765,34.1344332,-117.3916672
3310 California Ave,Bakersfield,CA,93304,-7,770,35.3690611,-119.0410376
560 E. Ventura Blvd.,Camarillo,CA,93010,-7,764,34.2157248,-119.0680385
905 E Betteravia Rd.,Santa Maria,CA,93454,-7,753,34.9241454,-120.4216743
