index,id,timezone,name,url,address,city,state,zip,latitude,longitude
0,1820,America/Anchorage,Safeway,https://local.safeway.com/safeway/ak/juneau/3033-vintage-blvd.html,3033 Vintage Blvd,Juneau,AK,99801,58.37095802639047,-134.59489055078734
1,2754,America/Anchorage,Safeway,https://local.safeway.com/safeway/ak/fairbanks/3627-airport-way.html,3627 Airport Way,Fairbanks,AK,99709,64.8356859,-147.8084422
2,3410,America/Anchorage,Safeway,https://local.safeway.com/safeway/ak/fairbanks/30-college-rd.html,30 College Rd,Fairbanks,AK,99701,64.8514782,-147.7005299
3,1821,America/Anchorage,Safeway,https://local.safeway.com/safeway/ak/north-pole/301-n-santa-claus-ln.html,301 N Santa Claus Ln,North Pole,AK,99705,64.7576671,-147.3538528
4,548,America/Anchorage,Safeway,https://local.safeway.com/safeway/ak/soldotna/44428-sterling-hwy.html,44428 Sterling Hwy,Soldotna,AK,99669,60.48408568725479,-151.07114034889491
5,1808,America/Anchorage,Safeway,https://local.safeway.com/safeway/ak/kenai/10576-kenai-spur-hwy.html,10576 Kenai Spur Hwy,Kenai,AK,99611,60.560186913240265,-151.240808480426
6,1832,America/Anchorage,Safeway,https://local.safeway.com/safeway/ak/homer/90-sterling-hwy.html,90 Sterling Hwy,Homer,AK,99603,59.643345475824084,-151.53417670978695
7,307,America/Los_Angeles,Safeway,https://local.safeway.com/safeway/wa/walla-walla/215-e-rose-st.html,215 E Rose St,Walla Walla,WA,99362,46.070287113041466,-118.33773942324115
8,1160,America/Los_Angeles,Safeway,https://local.safeway.com/safeway/wa/walla-walla/1600-plaza-way.html,1600 Plaza Way,Walla Walla,WA,99362,46.048721,-118.3480009
9,1590,America/Los_Angeles,Safeway,https://local.safeway.com/safeway/or/milton-freewater/455-n-columbia-st.html,455 N Columbia St,Milton Freewater,OR,97862,45.9405942,-118.3879116
10,333,America/Los_Angeles,Safeway,https://local.safeway.com/safeway/wa/richland/1803-george-washington-way.html,1803 George Washington Way,Richland,WA,99354,46.29955299271049,-119.27592145040074
11,252,America/Los_Angeles,Safeway,https://local.safeway.com/safeway/wa/richland/690-gage-blvd.html,690 Gage Blvd,Richland,WA,99352,46.22799808843104,-119.26731830740967
12,3253,America/Los_Angeles,Safeway,https://local.safeway.com/safeway/wa/kennewick/5204-w-clearwater-ave.html,5204 W Clearwater Ave,Kennewick,WA,99336,46.21385421628509,-119.1927753465825
13,1593,America/Los_Angeles,Safeway,https://local.safeway.com/safeway/wa/grandview/610-e-wine-country-rd.html,610 E Wine Country Rd,Grandview,WA,98930,46.25548308161202,-119.89214247168884
14,563,America/Los_Angeles,Safeway,https://local.safeway.com/safeway/wa/sunnyside/613-s-6th-st.html,613 S 6th St,Sunnyside,WA,98944,46.3219754,-120.014042
15,444,America/Los_Angeles,Safeway,https://local.safeway.com/safeway/or/hermiston/990-hwy-395-s.html,990 Hwy 395 S,Hermiston,OR,97838,45.83266069793966,-119.28592859508171
16,1494,America/Los_Angeles,Safeway,https://local.safeway.com/safeway/wa/spokane/2507-w-wellesley-ave.html,2507 W Wellesley Ave,Spokane,WA,99205,47.69896785491462,-117.448361829247
17,342,America/Los_Angeles,Safeway,https://local.safeway.com/safeway/wa/spokane/1616-w-northwest-blvd.html,1616 W Northwest Blvd,Spokane,WA,99205,47.6806221,-117.4361099
18,206,America/Los_Angeles,Safeway,https://local.safeway.com/safeway/wa/spokane/9001-n-indian-trail-rd.html,9001 N Indian Trail Rd,Spokane,WA,99208,47.73966397062781,-117.48853059145404
19,3248,America/Los_Angeles,Safeway,https://local.safeway.com/safeway/wa/spokane/902-w-francis-ave.html,902 W Francis Ave,Spokane,WA,99205,47.71614661248905,-117.42445796728134
20,3255,America/Los_Angeles,Safeway,https://local.safeway.com/safeway/wa/spokane/933-e-mission-ave.html,933 E Mission Ave,Spokane,WA,99202,47.6722942,-117.3947643
21,1799,America/Los_Angeles,Safeway,https://local.safeway.com/safeway/wa/spokane/3919-n-market-st.html,3919 N Market St,Spokane,WA,99207,47.69415070726751,-117.36733333809815
22,1242,America/Los_Angeles,Safeway,https://local.safeway.com/safeway/wa/spokane/2509-e-29th-ave.html,2509 E 29th Ave,Spokane,WA,99223,47.629507103699034,-117.37470772513123
23,1299,America/Los_Angeles,Safeway,https://local.safeway.com/safeway/wa/spokane/10100-n-newport-hwy.html,10100 N Newport Hwy,Spokane,WA,99218,47.7504597,-117.3972307
24,1268,America/Los_Angeles,Safeway,https://local.safeway.com/safeway/wa/spokane/3010-e-57th-ave.html,3010 E 57th Ave,Spokane,WA,99223,47.60085329179939,-117.36723303794861
25,1740,America/Los_Angeles,Safeway,https://local.safeway.com/safeway/wa/cheney/2710-1st-st.html,2710 1st St,Cheney,WA,99004,47.50593026814812,-117.56740093231201
26,246,America/Los_Angeles,Safeway,https://local.safeway.com/safeway/wa/spokane/8851-e-trent-ave.html,8851 E Trent Ave,Spokane,WA,99212,47.681806289271655,-117.28571995177845
27,1473,America/Los_Angeles,Safeway,https://local.safeway.com/safeway/wa/spokane/14020-e-sprague-ave.html,14020 E Sprague Ave,Spokane,WA,99216,47.65576369046822,-117.21613080831958
28,258,America/Los_Angeles,Safeway,https://local.safeway.com/safeway/wa/spokane/13606-e-32nd-ave.html,13606 E 32nd Ave,Spokane,WA,99216,47.62596679611382,-117.22264421534422
29,2248,America/Los_Angeles,Safeway,https://local.safeway.com/safeway/wa/liberty-lake/1304-n-liberty-lake-rd.html,1304 N Liberty Lake Rd,Liberty Lake,WA,99019,47.6694942,-117.1034096
30,243,America/Los_Angeles,Safeway,https://local.safeway.com/safeway/id/coeur-d-alene/220-ironwood-dr.html,220 Ironwood Dr,Coeur d'Alene,ID,83814,47.69364016976588,-116.78984775396728
31,1470,America/Los_Angeles,Safeway,https://local.safeway.com/safeway/id/coeur-d-alene/121-w-neider-ave.html,121 W Neider Ave,Coeur d'Alene,ID,83815,47.70878475651545,-116.7878515042297
32,3295,America/Los_Angeles,Safeway,https://local.safeway.com/safeway/id/coeur-d-alene/1001-n-4th-st.html,1001 N 4th St,Coeur D'Alene,ID,83814,47.6831962,-116.7817444
33,2639,America/Los_Angeles,Safeway,https://local.safeway.com/safeway/wa/pullman/430-se-bishop-blvd.html,430 SE Bishop Blvd,Pullman,WA,99163,46.71607902669087,-117.17777387060778
34,383,America/Los_Angeles,Safeway,https://local.safeway.com/safeway/id/moscow/1320-s-blaine-st.html,1320 S Blaine St,Moscow,ID,83843,46.7223411,-116.9828314
35,1159,America/Los_Angeles,Safeway,https://local.safeway.com/safeway/wa/newport/121-w-walnut-st.html,121 W Walnut St,Newport,WA,99156,48.183339210818666,-117.04057024232787
36,385,America/Los_Angeles,Safeway,https://local.safeway.com/safeway/wa/colville/391-n-main-st.html,391 N Main St,Colville,WA,99114,48.5472298,-117.9064062
37,584,America/Los_Angeles,Safeway,https://local.safeway.com/safeway/wa/toppenish/711-w-1st-ave.html,711 W 1st Ave,Toppenish,WA,98948,46.376331380021796,-120.3215968803566
38,1660,America/Los_Angeles,Safeway,https://local.safeway.com/safeway/wa/yakima/905-e-meade-ave.html,905 E Meade Ave,Yakima,WA,98903,46.57833971749925,-120.48879938332824
39,462,America/Los_Angeles,Safeway,https://local.safeway.com/safeway/wa/yakima/205-n-5th-ave.html,205 N 5th Ave,Yakima,WA,98902,46.60328974085561,-120.51604150608215
40,1235,America/Los_Angeles,Safeway,https://local.safeway.com/safeway/wa/yakima/2204a-w-nob-hill-blvd.html,2204A W Nob Hill Blvd,Yakima,WA,98902,46.583904091167035,-120.53917185233325
41,149,America/Los_Angeles,Safeway,https://local.safeway.com/safeway/wa/yakima/1610-w-lincoln-ave.html,1610 W Lincoln Ave,Yakima,WA,98902,46.602507761209374,-120.53237681401674
42,502,America/Los_Angeles,Safeway,https://local.safeway.com/safeway/wa/yakima/5702-summitview-ave.html,5702 Summitview Ave,Yakima,WA,98908,46.598852262355095,-120.58501406572759
43,1630,America/Los_Angeles,Safeway,https://local.safeway.com/safeway/wa/ellensburg/400-n-ruby-st.html,400 N Ruby St,Ellensburg,WA,98926,46.99614337176971,-120.54294893148835
44,1135,America/Los_Angeles,Safeway,https://local.safeway.com/safeway/wa/cle-elum/804-w-1st-st.html,804 W 1st St,Cle Elum,WA,98922,47.19562244131276,-120.95365427724607
45,1544,America/Los_Angeles,Safeway,https://local.safeway.com/safeway/wa/ephrata/1150-basin-st-sw.html,1150 Basin St SW,Ephrata,WA,98823,47.30953254815424,-119.55852459695893
46,1194,America/Los_Angeles,Safeway,https://local.safeway.com/safeway/wa/omak/607-omache-dr.html,607 Omache Dr,Omak,WA,98841,48.41812920265319,-119.51058626174927
47,3252,America/Los_Angeles,Safeway,https://local.safeway.com/safeway/wa/moses-lake/601-s-pioneer-way.html,601 S Pioneer Way,Moses Lake,WA,98837,47.1303889784404,-119.26832111195836
48,3265,America/Los_Angeles,Safeway,https://local.safeway.com/safeway/wa/chelan/106-w-manson-rd.html,106 W Manson Rd,Chelan,WA,98816,47.842286,-120.0197539
49,1449,America/Los_Angeles,Safeway,https://local.safeway.com/safeway/wa/wenatchee/501-n-miller-st.html,501 N Miller St,Wenatchee,WA,98801,47.431090934593456,-120.3240427
50,1589,America/Los_Angeles,Safeway,https://local.safeway.com/safeway/wa/leavenworth/116-riverbend-dr.html,116 Riverbend Dr,Leavenworth,WA,98826,47.59719947896811,-120.64515290793457
51,3521,America/Los_Angeles,Safeway,https://local.safeway.com/safeway/wa/east-wenatchee/510-grant-rd.html,510 Grant Rd,East Wenatchee,WA,98802,47.404505,-120.2810635
52,1842,America/Los_Angeles,Safeway,https://local.safeway.com/safeway/wa/vancouver/13023-ne-hwy-99-suite-1.html,13023 NE Hwy 99 Suite 1,Vancouver,WA,98686,45.71543904118934,-122.64971160635628
53,580,America/Los_Angeles,Safeway,https://local.safeway.com/safeway/wa/vancouver/14300-ne-20th-ave.html,14300 NE 20th Ave,Vancouver,WA,98686,45.724501,-122.6532305
54,4405,America/Los_Angeles,Safeway,https://local.safeway.com/safeway/wa/vancouver/408-ne-81st-st.html,408 NE 81st St,Vancouver,WA,98665,45.6817079,-122.668011
55,1611,America/Los_Angeles,Safeway,https://local.safeway.com/safeway/wa/vancouver/6711-ne-63rd-st.html,6711 NE 63rd St,Vancouver,WA,98661,45.6665149,-122.603505
56,400,America/Los_Angeles,Safeway,https://local.safeway.com/safeway/wa/vancouver/3707-n-main-st.html,3707 N Main St,Vancouver,WA,98663,45.6485737,-122.6669292
57,4313,America/Los_Angeles,Safeway,https://local.safeway.com/safeway/wa/battle-ground/904-w-main-st.html,904 W Main St,Battle Ground,WA,98604,45.7817373,-122.5466005
58,1653,America/Los_Angeles,Safeway,https://local.safeway.com/safeway/wa/vancouver/2615-ne-112th-ave.html,2615 NE 112th Ave,Vancouver,WA,98684,45.6412317,-122.5571137
59,1704,America/Los_Angeles,Safeway,https://local.safeway.com/safeway/wa/vancouver/6700-ne-162nd-ave-suite-500.html,6700 NE 162nd Ave Suite 500,Vancouver,WA,98682,45.67075874687174,-122.50793822203354
60,1103,America/Los_Angeles,Safeway,https://local.safeway.com/safeway/wa/vancouver/6701-e-mill-plain-blvd.html,6701 E Mill Plain Blvd,Vancouver,WA,98661,45.62608380711882,-122.60295466349817
61,1519,America/Los_Angeles,Safeway,https://local.safeway.com/safeway/wa/vancouver/13719-se-mill-plain-blvd.html,13719 SE Mill Plain Blvd,Vancouver,WA,98684,45.616750292980804,-122.5311398506164
62,509,America/Los_Angeles,Safeway,https://local.safeway.com/safeway/or/portland/5920-ne-martin-luther-king-blvd.html,5920 NE Martin Luther King Blvd,Portland,OR,97211,45.565951896405245,-122.66010449097848
63,1951,America/Los_Angeles,Safeway,https://local.safeway.com/safeway/or/portland/8330-n-ivanhoe-st.html,8330 N Ivanhoe St,Portland,OR,97203,45.5877247,-122.7530193
64,1447,America/Los_Angeles,Safeway,https://local.safeway.com/safeway/or/portland/6901-ne-sandy-blvd.html,6901 NE Sandy Blvd,Portland,OR,97213,45.5476025,-122.5927272
65,1612,America/Los_Angeles,Safeway,https://local.safeway.com/safeway/or/portland/1100-ne-broadway.html,1100 NE Broadway,Portland,OR,97232,45.53470205197193,-122.65416474672747
66,2790,America/Los_Angeles,Safeway,https://local.safeway.com/safeway/or/portland/1303-nw-lovejoy-st.html,1303 NW Lovejoy St,Portland,OR,97209,45.5302653,-122.6846569
67,424,America/Los_Angeles,Safeway,https://local.safeway.com/safeway/or/saint-helens/795-lower-columbia-river-hwy.html,795 Lower Columbia River Hwy,Saint Helens,OR,97051,45.849713174164535,-122.83233852716876
68,1287,America/Los_Angeles,Safeway,https://local.safeway.com/safeway/wa/camas/800-ne-3rd-ave.html,800 NE 3rd Ave,Camas,WA,98607,45.586934233901864,-122.39949475634461
69,3134,America/Los_Angeles,Safeway,https://local.safeway.com/safeway/or/portland/2800-se-hawthorne-blvd.html,2800 SE Hawthorne Blvd,Portland,OR,97214,45.5118255,-122.6374664
70,2448,America/Los_Angeles,Safeway,https://local.safeway.com/safeway/or/portland/1030-sw-jefferson-st.html,1030 SW Jefferson St,Portland,OR,97201,45.5159939,-122.6851605
71,596,America/Los_Angeles,Safeway,https://local.safeway.com/safeway/or/portland/18425-nw-west-union-rd.html,18425 NW West Union Rd,Portland,OR,97229,45.5589934,-122.8664484
72,382,America/Los_Angeles,Safeway,https://local.safeway.com/safeway/or/portland/3527-se-122nd-ave.html,3527 SE 122nd Ave,Portland,OR,97236,45.4962789,-122.5392749
73,536,America/Los_Angeles,Safeway,https://local.safeway.com/safeway/or/troutdale/25691-se-stark.html,25691 SE Stark,Troutdale,OR,97060,45.52024798695067,-122.40019440650934
74,1687,America/Los_Angeles,Safeway,https://local.safeway.com/safeway/wa/washougal/3307-evergreen-way-bldg-5.html,3307 Evergreen Way Bldg 5,Washougal,WA,98671,45.578900717121584,-122.33471827976228
75,1070,America/Los_Angeles,Safeway,https://local.safeway.com/safeway/or/gresham/1001-sw-highland-dr.html,1001 SW Highland Dr,Gresham,OR,97080,45.4892190602371,-122.47677259391787
76,430,America/Los_Angeles,Safeway,https://local.safeway.com/safeway/or/gresham/1455-ne-division-st.html,1455 NE Division St,Gresham,OR,97030,45.5058941,-122.41697
77,1627,America/Los_Angeles,Safeway,https://local.safeway.com/safeway/or/portland/3930-se-powell-blvd.html,3930 SE Powell Blvd,Portland,OR,97202,45.496947250359554,-122.62199968099594
78,1762,America/Los_Angeles,Safeway,https://local.safeway.com/safeway/wa/woodland/1725-pacific-ave.html,1725 Pacific Ave,Woodland,WA,98674,45.91257990912126,-122.7483263764043
79,2637,America/Los_Angeles,Safeway,https://local.safeway.com/safeway/wa/kelso/411-three-rivers-dr.html,411 Three Rivers Dr,Kelso,WA,98626,46.1411574,-122.9021259
80,91,America/Los_Angeles,Safeway,https://local.safeway.com/safeway/wa/longview/1227-15th-ave.html,1227 15th Ave,Longview,WA,98632,46.1367721,-122.9385472
81,1078,America/Los_Angeles,Safeway,https://local.safeway.com/safeway/wa/longview/2930-ocean-beach-hwy.html,2930 Ocean Beach Hwy,Longview,WA,98632,46.1484185,-122.961106
82,782,America/Los_Angeles,Safeway,https://local.safeway.com/safeway/or/sandy/37601-hwy-26.html,37601 Hwy 26,Sandy,OR,97055,45.4012293,-122.2768953
83,521,America/Los_Angeles,Safeway,https://local.safeway.com/safeway/or/boring/20151-se-hwy-212.html,20151 SE Hwy 212,Boring,OR,97089,45.4185082,-122.4559535
84,1231,America/Los_Angeles,Safeway,https://local.safeway.com/safeway/or/clackamas/12032-se-sunnyside-rd.html,12032 SE Sunnyside Rd,Clackamas,OR,97015,45.428135,-122.5401987
85,1525,America/Los_Angeles,Safeway,https://local.safeway.com/safeway/or/portland/13485-nw-cornell-rd.html,13485 NW Cornell Rd,Portland,OR,97229,45.527960419831835,-122.81448574396563
86,1230,America/Los_Angeles,Safeway,https://local.safeway.com/safeway/or/hillsboro/2177-nw-185th-ave.html,2177 NW 185th Ave,Hillsboro,OR,97124,45.53609208860344,-122.86984920501709
87,4318,America/Los_Angeles,Safeway,https://local.safeway.com/safeway/or/clatskanie/401-w-columbia-river-hwy.html,401 W Columbia River Hwy,Clatskanie,OR,97016,46.1059696,-123.2075623
88,1619,America/Los_Angeles,Safeway,https://local.safeway.com/safeway/wa/yelm/1109-yelm-ave-e.html,1109 Yelm Ave E,Yelm,WA,98597,46.93363939039954,-122.59397018465576
89,3525,America/Los_Angeles,Safeway,https://local.safeway.com/safeway/wa/chehalis/1100-s-market-blvd.html,1100 S Market Blvd,Chehalis,WA,98532,46.654951147782064,-122.9540911306885
90,1495,America/Los_Angeles,Safeway,https://local.safeway.com/safeway/wa/centralia/1129-harrison-ave.html,1129 Harrison Ave,Centralia,WA,98531,46.72783,-122.9810218
91,543,America/Los_Angeles,Safeway,https://local.safeway.com/safeway/wa/lacey/4700-yelm-hwy-se.html,4700 Yelm Hwy SE,Lacey,WA,98503,46.99789187813001,-122.82219707965851
92,1407,America/Los_Angeles,Safeway,https://local.safeway.com/safeway/wa/tumwater/705-trosper-rd-sw.html,705 Trosper Rd SW,Tumwater,WA,98512,46.99843349344597,-122.91756436989999
93,1503,America/Los_Angeles,Safeway,https://local.safeway.com/safeway/wa/tumwater/520-cleveland-ave-se.html,520 Cleveland Ave SE,Tumwater,WA,98501,47.01907320460485,-122.89786824232787
94,1977,America/Los_Angeles,Safeway,https://local.safeway.com/safeway/wa/lacey/6200-pacific-ave-se.html,6200 Pacific Ave SE,Lacey,WA,98503,47.03927191160907,-122.79994363558197
95,1952,America/Los_Angeles,Safeway,https://local.safeway.com/safeway/wa/olympia/4280-martin-way-e.html,4280 Martin Way E,Olympia,WA,98516,47.049956873617816,-122.82927220793457
96,1464,America/Los_Angeles,Safeway,https://local.safeway.com/safeway/wa/olympia/3215-harrison-ave-nw.html,3215 Harrison Ave NW,Olympia,WA,98502,47.0454275,-122.9421357
97,1173,America/Los_Angeles,Safeway,https://local.safeway.com/safeway/wa/lacey/1243-marvin-rd-ne.html,1243 Marvin Rd NE,Lacey,WA,98516,47.05936006434643,-122.76655302645874
98,585,America/Los_Angeles,Safeway,https://local.safeway.com/safeway/wa/shelton/600-franklin-st.html,600 Franklin St,Shelton,WA,98584,47.214658008430284,-123.10649247499896
99,547,America/Los_Angeles,Safeway,https://local.safeway.com/safeway/wa/graham/10105-224th-st-e.html,10105 224th St E,Graham,WA,98338,47.05432833219798,-122.29668776322939
100,3228,America/Los_Angeles,Safeway,https://local.safeway.com/safeway/wa/puyallup/5616-176th-st-e.html,5616 176th St E,Puyallup,WA,98375,47.09509237997794,-122.35302689021302
101,3305,America/Los_Angeles,Safeway,https://local.safeway.com/safeway/wa/tacoma/15805-pacific-ave-s.html,15805 Pacific Ave S,Tacoma,WA,98444,47.11305,-122.4322881
102,1798,America/Los_Angeles,Safeway,https://local.safeway.com/safeway/wa/puyallup/11501-canyon-rd-e.html,11501 Canyon Rd E,Puyallup,WA,98373,47.15185120377339,-122.35525135819702
103,2640,America/Los_Angeles,Safeway,https://local.safeway.com/safeway/wa/puyallup/13308-meridian-e.html,13308 Meridian E,Puyallup,WA,98373,47.1352475,-122.2950287
104,1645,America/Los_Angeles,Safeway,https://local.safeway.com/safeway/wa/lakewood/10223-gravelly-lake-dr-sw.html,10223 Gravelly Lake Dr SW,Lakewood,WA,98499,47.1642791,-122.5184065
105,1844,America/Los_Angeles,Safeway,https://local.safeway.com/safeway/wa/orting/215-whitsell-st-nw.html,215 Whitsell St NW,Orting,WA,98360,47.09874254712358,-122.20957250925494
106,3411,America/Los_Angeles,Safeway,https://local.safeway.com/safeway/wa/tacoma/8611-steilacoom-blvd-sw.html,8611 Steilacoom Blvd SW,Tacoma,WA,98498,47.18038089272093,-122.5521064669342
107,1436,America/Los_Angeles,Safeway,https://local.safeway.com/safeway/wa/tacoma/1624-72nd-st-e.html,1624 72nd St E,Tacoma,WA,98404,47.19005821583907,-122.40710704232787
108,1594,America/Los_Angeles,Safeway,https://local.safeway.com/safeway/wa/tacoma/707-s-56th-st.html,707 S 56th St,Tacoma,WA,98408,47.206909022671894,-122.44072480608216
109,422,America/Los_Angeles,Safeway,https://local.safeway.com/safeway/wa/puyallup/611-s-meridian.html,611 S Meridian,Puyallup,WA,98371,47.1870073,-122.2930657
110,2729,America/Los_Angeles,Safeway,https://local.safeway.com/safeway/wa/puyallup/708-shaw-rd-e.html,708 Shaw Rd E,Puyallup,WA,98372,47.18499081663024,-122.25922416693419
111,1437,America/Los_Angeles,Safeway,https://local.safeway.com/safeway/wa/tacoma/1302-s-38th-st.html,1302 S 38th St,Tacoma,WA,98418,47.22223885557227,-122.45146402883606
112,1546,America/Los_Angeles,Safeway,https://local.safeway.com/safeway/wa/aberdeen/221-w-heron-st.html,221 W Heron St,Aberdeen,WA,98520,46.97202798352183,-123.81839662142639
113,1571,America/Los_Angeles,Safeway,https://local.safeway.com/safeway/wa/belfair/23961-ne-state-route-3.html,23961 NE State Route 3,Belfair,WA,98528,47.4539743,-122.8226694
114,419,America/Los_Angeles,Safeway,https://local.safeway.com/safeway/wa/port-orchard/370-sw-sedgwick-rd.html,370 SW Sedgwick Rd,Port Orchard,WA,98367,47.49617578692049,-122.65214139629516
115,3317,America/Los_Angeles,Safeway,https://local.safeway.com/safeway/wa/port-orchard/3355-bethel-rd-se.html,3355 Bethel Rd SE,Port Orchard,WA,98366,47.51812843516262,-122.63030381533099
116,1467,America/Los_Angeles,Safeway,https://local.safeway.com/safeway/wa/bremerton/900-n-callow-ave.html,900 N Callow Ave,Bremerton,WA,98312,47.56966054870909,-122.6527109894414
117,1680,America/Los_Angeles,Safeway,https://local.safeway.com/safeway/wa/silverdale/2890-nw-bucklin-hill-rd.html,2890 NW Bucklin Hill Rd,Silverdale,WA,98383,47.6526667,-122.6881157
118,1524,America/Los_Angeles,Safeway,https://local.safeway.com/safeway/wa/bremerton/1401-ne-mcwilliams-rd.html,1401 NE McWilliams Rd,Bremerton,WA,98311,47.62056826327232,-122.63080350740967
119,3321,America/Los_Angeles,Safeway,https://local.safeway.com/safeway/wa/gig-harbor/4831-point-fosdick-dr-nw.html,4831 Point Fosdick Dr NW,Gig Harbor,WA,98335,47.3023058,-122.5758672
120,486,America/Los_Angeles,Safeway,https://local.safeway.com/safeway/wa/tacoma/3842-bridgeport-way.html,3842 Bridgeport Way,Tacoma,WA,98466,47.2216712,-122.5393458
121,1978,America/Los_Angeles,Safeway,https://local.safeway.com/safeway/wa/tacoma/2637-n-pearl-st.html,2637 N Pearl St,Tacoma,WA,98407,47.27279937067019,-122.51373501154376
122,3424,America/Los_Angeles,Safeway,https://local.safeway.com/safeway/wa/tacoma/2411-n-proctor-st.html,2411 N Proctor St,Tacoma,WA,98406,47.2695434,-122.4881592
123,329,America/Los_Angeles,Safeway,https://local.safeway.com/safeway/wa/tacoma/1112-s-m-st.html,1112 S M St,Tacoma,WA,98405,47.2512023,-122.4552832
124,3545,America/Los_Angeles,Safeway,https://local.safeway.com/safeway/wa/milton/900-e-meridian-ave-suite-12.html,900 E Meridian Ave Suite 12,Milton,WA,98354,47.248900643087254,-122.29589278538896
125,3501,America/Los_Angeles,Safeway,https://local.safeway.com/safeway/wa/federal-way/2109-sw-336th-st.html,2109 SW 336th St,Federal Way,WA,98023,47.2996937,-122.3618854
126,1555,America/Los_Angeles,Safeway,https://local.safeway.com/safeway/wa/federal-way/1207-s-320th-st.html,1207 S 320th St,Federal Way,WA,98003,47.3136405,-122.3179706
127,477,America/Los_Angeles,Safeway,https://local.safeway.com/safeway/wa/federal-way/28810-military-rd-s.html,28810 Military Rd S,Federal Way,WA,98003,47.3425128,-122.3000461
128,4483,America/Los_Angeles,Safeway,https://local.safeway.com/safeway/wa/auburn/4010-a-st.html,4010 A St,Auburn,WA,98002,47.2728838,-122.2271082
129,531,America/Los_Angeles,Safeway,https://local.safeway.com/safeway/wa/auburn/101-auburn-way-s.html,101 Auburn Way S,Auburn,WA,98002,47.306318775064305,-122.22744284180298
130,1186,America/Los_Angeles,Safeway,https://local.safeway.com/safeway/wa/des-moines/27035-pacific-hwy-s.html,27035 Pacific Hwy S,Des Moines,WA,98198,47.359341,-122.3106631
131,1294,America/Los_Angeles,Safeway,https://local.safeway.com/safeway/wa/kent/210-washington-ave-s.html,210 Washington Ave S,Kent,WA,98032,47.38048319316379,-122.2465768785736
132,544,America/Los_Angeles,Safeway,https://local.safeway.com/safeway/wa/bonney-lake/21301-hwy-410.html,21301 Hwy 410,Bonney Lake,WA,98391,47.1661242,-122.1448631
133,494,America/Los_Angeles,Safeway,https://local.safeway.com/safeway/wa/enumclaw/152-roosevelt-ave-e.html,152 Roosevelt Ave E,Enumclaw,WA,98022,47.1982382,-121.9797307
134,1966,America/Los_Angeles,Safeway,https://local.safeway.com/safeway/wa/kent/13101-se-kent-kangley-rd.html,13101 SE Kent-Kangley Rd,Kent,WA,98030,47.3566626,-122.1666924
135,792,America/Los_Angeles,Safeway,https://local.safeway.com/safeway/wa/covington/17023-se-272nd.html,17023 SE 272nd,Covington,WA,98042,47.35668388654585,-122.1150086283111
136,3148,America/Los_Angeles,Safeway,https://local.safeway.com/safeway/wa/poulsbo/19245-10th-ave-ne.html,19245 10th Ave NE,Poulsbo,WA,98370,47.738065504101066,-122.63680539940566
137,1252,America/Los_Angeles,Safeway,https://local.safeway.com/safeway/wa/bainbridge-island/253-high-school-rd-ne.html,253 High School Rd NE,Bainbridge Island,WA,98110,47.6350953,-122.5197055
138,186,America/Los_Angeles,Safeway,https://local.safeway.com/safeway/wa/kingston/8196-ne-hwy-104.html,8196 NE Hwy 104,Kingston,WA,98346,47.8115701,-122.5406391
139,1477,America/Los_Angeles,Safeway,https://local.safeway.com/safeway/wa/seattle/1423-nw-market-st.html,1423 NW Market St,Seattle,WA,98107,47.66831804692875,-122.37442083298407
140,1143,America/Los_Angeles,Safeway,https://local.safeway.com/safeway/wa/seattle/8340-15th-ave-nw.html,8340 15th Ave NW,Seattle,WA,98117,47.690075616821204,-122.37624031904907
141,2932,America/Los_Angeles,Safeway,https://local.safeway.com/safeway/wa/seattle/2622-california-ave-sw.html,2622 California Ave SW,Seattle,WA,98116,47.57996947228789,-122.38622631415559
142,1885,America/Los_Angeles,Safeway,https://local.safeway.com/safeway/wa/seattle/516-1st-ave-w.html,516 1st Ave W,Seattle,WA,98119,47.6235999,-122.357705
143,1062,America/Los_Angeles,Safeway,https://local.safeway.com/safeway/wa/seattle/4754-42nd-ave-sw.html,4754 42nd Ave SW,Seattle,WA,98116,47.55965742209878,-122.38520488904214
144,3213,America/Los_Angeles,Safeway,https://local.safeway.com/safeway/wa/shoreline/15332-aurora-ave-n.html,15332 Aurora Ave N,Shoreline,WA,98133,47.7409711,-122.3436026
145,1550,America/Los_Angeles,Safeway,https://local.safeway.com/safeway/wa/seattle/7300-roosevelt-way-ne.html,7300 Roosevelt Way NE,Seattle,WA,98115,47.68197097039437,-122.31700034471942
146,2980,America/Los_Angeles,Safeway,https://local.safeway.com/safeway/wa/seattle/4732-brooklyn-ave-ne.html,4732 Brooklyn Ave NE,Seattle,WA,98105,47.66423881263178,-122.31391172734116
147,1551,America/Los_Angeles,Safeway,https://local.safeway.com/safeway/wa/seattle/1410-e-john-st.html,1410 E John St,Seattle,WA,98112,47.62042,-122.3130222
148,1448,America/Los_Angeles,Safeway,https://local.safeway.com/safeway/wa/sequim/680f-w-washington-st.html,680F W Washington St,Sequim,WA,98382,48.0809763,-123.1172171
149,1922,America/Los_Angeles,Safeway,https://local.safeway.com/safeway/wa/port-angeles/2709-e-hwy-101.html,2709 E Hwy 101,Port Angeles,WA,98362,48.10598742018216,-123.3804903111145
150,1492,America/Los_Angeles,Safeway,https://local.safeway.com/safeway/wa/port-angeles/110-e-3rd-st.html,110 E 3rd St,Port Angeles,WA,98362,48.11598605499776,-123.43518310370483
151,538,America/Los_Angeles,Safeway,https://local.safeway.com/safeway/wa/port-townsend/442-w-sims-way.html,442 W Sims Way,Port Townsend,WA,98368,48.1080976,-122.7826349
152,1297,America/Los_Angeles,Safeway,https://local.safeway.com/safeway/wa/edmonds/23632-hwy-99.html,23632 Hwy 99,Edmonds,WA,98026,47.7845357,-122.3439971
153,497,America/Los_Angeles,Safeway,https://local.safeway.com/safeway/wa/shoreline/17202-15th-ave-ne.html,17202 15th Ave NE,Shoreline,WA,98155,47.7542707,-122.312978
154,1586,America/Los_Angeles,Safeway,https://local.safeway.com/safeway/wa/seattle/12318-15th-ave-ne.html,12318 15th Ave NE,Seattle,WA,98125,47.718022810464774,-122.31192722513124
155,485,America/Los_Angeles,Safeway,https://local.safeway.com/safeway/wa/lynnwood/19500-hwy-99-suite-110.html,19500 Hwy 99 Suite 110,Lynnwood,WA,98036,47.8221315,-122.316576
156,402,America/Los_Angeles,Safeway,https://local.safeway.com/safeway/wa/oak-harbor/1450-sw-erie-st.html,1450 SW Erie St,Oak Harbor,WA,98277,48.28647783903825,-122.66154319444274
157,1923,America/Los_Angeles,Safeway,https://local.safeway.com/safeway/wa/seattle/9620-28th-ave-sw.html,9620 28th Ave SW,Seattle,WA,98126,47.5166889,-122.3666833
158,1664,America/Los_Angeles,Safeway,https://local.safeway.com/safeway/wa/burien/138-sw-148th-st.html,138 SW 148th St,Burien,WA,98166,47.4718113,-122.336927
159,3120,America/Los_Angeles,Safeway,https://local.safeway.com/safeway/wa/burien/12725-1st-ave-s.html,12725 1st Ave S,Burien,WA,98168,47.48917349958429,-122.33576230919266
160,219,America/Los_Angeles,Safeway,https://local.safeway.com/safeway/wa/seattle/3900-s-othello-st.html,3900 S Othello St,Seattle,WA,98118,47.5374346,-122.2830543
161,1508,America/Los_Angeles,Safeway,https://local.safeway.com/safeway/wa/seattle/3820-rainier-ave-s.html,3820 Rainier Ave S,Seattle,WA,98118,47.5692087,-122.2881353
162,414,America/Los_Angeles,Safeway,https://local.safeway.com/safeway/wa/mountlake-terrace/4301-212th-st-sw.html,4301 212th St SW,Mountlake Terrace,WA,98043,47.8076542,-122.2904178
163,3523,America/Los_Angeles,Safeway,https://local.safeway.com/safeway/wa/lynnwood/14826-hwy-99-n.html,14826 Hwy 99 N,Lynnwood,WA,98087,47.86360042463472,-122.2844217761963
164,469,America/Los_Angeles,Safeway,https://local.safeway.com/safeway/wa/lynnwood/12811-beverly-park-rd.html,12811 Beverly Park Rd,Lynnwood,WA,98087,47.8811291,-122.2808973
165,3500,America/Los_Angeles,Safeway,https://local.safeway.com/safeway/wa/kenmore/6850-ne-bothell-way.html,6850 NE Bothell Way,Kenmore,WA,98028,47.75921734832783,-122.24764185767211
166,1461,America/Los_Angeles,Safeway,https://local.safeway.com/safeway/wa/everett/520-128th-st-sw.html,520 128th St SW,Everett,WA,98204,47.8808041,-122.2404267
167,1471,America/Los_Angeles,Safeway,https://local.safeway.com/safeway/wa/maple-valley/26916-maple-valley-rd.html,26916 Maple Valley Rd,Maple Valley,WA,98038,47.3602762096313,-122.0183189288582
168,1993,America/Los_Angeles,Safeway,https://local.safeway.com/safeway/wa/seattle/2201-e-madison-st.html,2201 E Madison St,Seattle,WA,98112,47.618171063850255,-122.30379285648347
169,3419,America/Los_Angeles,Safeway,https://local.safeway.com/safeway/wa/snohomish/17520-sr-9-se.html,17520 SR 9 SE,Snohomish,WA,98296,47.8388977,-122.1253051
170,2645,America/Los_Angeles,Safeway,https://local.safeway.com/safeway/wa/everett/5802-134th-place-se.html,5802 134th Place SE,Everett,WA,98208,47.87535556269321,-122.15362624655762
171,533,America/Los_Angeles,Safeway,https://local.safeway.com/safeway/wa/woodinville/19150-ne-woodinville-duvall-rd.html,19150 NE Woodinville Duvall Rd,Woodinville,WA,98077,47.75642353655473,-122.08068176137697
172,1413,America/Los_Angeles,Safeway,https://local.safeway.com/safeway/wa/mill-creek/3322-132nd-st-se.html,3322 132nd St SE,Mill Creek,WA,98012,47.8766097,-122.1871291
173,535,America/Los_Angeles,Safeway,https://local.safeway.com/safeway/wa/bothell/20711-bothell-hwy.html,20711 Bothell Hwy,Bothell,WA,98012,47.8101643,-122.2055137
174,458,America/Los_Angeles,Safeway,https://local.safeway.com/safeway/wa/mill-creek/16304-bothell-everett-hwy.html,16304 Bothell Everett Hwy,Mill Creek,WA,98012,47.8507938,-122.2200898
175,537,America/Los_Angeles,Safeway,https://local.safeway.com/safeway/wa/monroe/19651-hwy-2.html,19651 Hwy 2,Monroe,WA,98272,47.8600292,-121.9676364
176,1076,America/Los_Angeles,Safeway,https://local.safeway.com/safeway/wa/snohomish/1119-13th-st.html,1119 13th St,Snohomish,WA,98290,47.9260904,-122.0955213
177,503,America/Los_Angeles,Safeway,https://local.safeway.com/safeway/wa/everett/11031-19th-ave-se.html,11031 19th Ave SE,Everett,WA,98208,47.8972942,-122.2051138
178,1864,America/Los_Angeles,Safeway,https://local.safeway.com/safeway/wa/bothell/24040-bothell-everett-hwy.html,24040 Bothell Everett Hwy,Bothell,WA,98021,47.7788214,-122.2207651
179,526,America/Los_Angeles,Safeway,https://local.safeway.com/safeway/wa/kirkland/14444-124th-ave-ne.html,14444 124th Ave NE,Kirkland,WA,98034,47.73252259785012,-122.1740734577179
180,1572,America/Los_Angeles,Safeway,https://local.safeway.com/safeway/wa/duvall/14020-main-st-ne.html,14020 Main St NE,Duvall,WA,98019,47.726301917608225,-121.98469340801239
181,3298,America/Los_Angeles,Safeway,https://local.safeway.com/safeway/wa/everett/7601-evergreen-way.html,7601 Evergreen Way,Everett,WA,98203,47.92945089999999,-122.21885602142639
182,2734,America/Los_Angeles,Safeway,https://local.safeway.com/safeway/wa/kirkland/10020-ne-137th-st.html,10020 NE 137th St,Kirkland,WA,98034,47.723516291611666,-122.20631798650818
183,534,America/Los_Angeles,Safeway,https://local.safeway.com/safeway/wa/arlington/3532-172nd-st-ne.html,3532 172nd St NE,Arlington,WA,98223,48.15136162759264,-122.18119473771367
184,1522,America/Los_Angeles,Safeway,https://local.safeway.com/safeway/wa/arlington/20500-olympic-pl.html,20500 Olympic Pl,Arlington,WA,98223,48.18235649342193,-122.12784423439331
185,1485,America/Los_Angeles,Safeway,https://local.safeway.com/safeway/wa/marysville/1258-state-st.html,1258 State St,Marysville,WA,98270,48.0626036,-122.1745764
186,1472,America/Los_Angeles,Safeway,https://local.safeway.com/safeway/wa/mount-vernon/315-e-college-way.html,315 E College Way,Mount Vernon,WA,98273,48.4375184,-122.3371547
187,474,America/Los_Angeles,Safeway,https://local.safeway.com/safeway/wa/everett/1715-broadway-ave.html,1715 Broadway Ave,Everett,WA,98201,47.994166814037634,-122.20021619477848
188,1803,America/Los_Angeles,Safeway,https://local.safeway.com/safeway/wa/lake-stevens/717-sr-9-ne.html,717 SR 9 NE,Lake Stevens,WA,98258,48.003368,-122.103773
189,1484,America/Los_Angeles,Safeway,https://local.safeway.com/safeway/wa/everett/4128-rucker-ave.html,4128 Rucker Ave,Everett,WA,98203,47.9625499,-122.2120566
190,593,America/Los_Angeles,Safeway,https://local.safeway.com/safeway/wa/anacortes/911-11th-st.html,911 11th St,Anacortes,WA,98221,48.5124138,-122.6117759
191,1930,America/Los_Angeles,Safeway,https://local.safeway.com/safeway/wa/lynden/8071-guide-meridian-rd--101.html,8071 Guide Meridian Rd #101,Lynden,WA,98264,48.93432237785254,-122.48770596862147
192,3285,America/Los_Angeles,Safeway,https://local.safeway.com/safeway/wa/bellingham/1275-e-sunset-dr.html,1275 E Sunset Dr,Bellingham,WA,98226,48.7745817,-122.4583883
193,423,America/Los_Angeles,Safeway,https://local.safeway.com/safeway/wa/seattle/7340-35th-ave-ne.html,7340 35th Ave NE,Seattle,WA,98115,47.6826096,-122.2894321
194,3540,America/Los_Angeles,Safeway,https://local.safeway.com/safeway/wa/des-moines/21401-pacific-hwy-s.html,21401 Pacific Hwy S,Des Moines,WA,98198,47.40998773029228,-122.29943930507488
195,1493,America/Los_Angeles,Safeway,https://local.safeway.com/safeway/wa/seattle/4011-s-164th.html,4011 S 164th,Seattle,WA,98188,47.455652,-122.2824069
196,459,America/Los_Angeles,Safeway,https://local.safeway.com/safeway/wa/kent/20830-108th-ave-se.html,20830 108th Ave SE,Kent,WA,98031,47.4152078,-122.1955206
197,1563,America/Los_Angeles,Safeway,https://local.safeway.com/safeway/wa/renton/200-s-3rd-st.html,200 S 3rd St,Renton,WA,98057,47.4802287,-122.2143743
198,519,America/Los_Angeles,Safeway,https://local.safeway.com/safeway/wa/renton/17230-140th-ave-se.html,17230 140th Ave SE,Renton,WA,98058,47.44742836573113,-122.15245218607379
199,1965,America/Los_Angeles,Safeway,https://local.safeway.com/safeway/wa/seattle/9262-rainier-ave-s.html,9262 Rainier Ave S,Seattle,WA,98118,47.520927347134254,-122.268073983992
200,366,America/Los_Angeles,Safeway,https://local.safeway.com/safeway/wa/renton/2725-ne-sunset-blvd.html,2725 NE Sunset Blvd,Renton,WA,98056,47.4990134,-122.1802101
201,3319,America/Los_Angeles,Safeway,https://local.safeway.com/safeway/wa/renton/4300-ne-4th-st.html,4300 NE 4th St,Renton,WA,98059,47.489908393994,-122.16141529206543
202,558,America/Los_Angeles,Safeway,https://local.safeway.com/safeway/wa/newcastle/6911-coal-creek-pkwy-se.html,6911 Coal Creek Pkwy SE,Newcastle,WA,98059,47.539564371988945,-122.16783833995055
203,1444,America/Los_Angeles,Safeway,https://local.safeway.com/safeway/wa/bellevue/15100-se-38th-st.html,15100 SE 38th St,Bellevue,WA,98006,47.5765527,-122.1381125
204,1600,America/Los_Angeles,Safeway,https://local.safeway.com/safeway/wa/bellevue/300-bellevue-way-ne.html,300 Bellevue Way NE,Bellevue,WA,98004,47.6130438,-122.2008265
205,490,America/Los_Angeles,Safeway,https://local.safeway.com/safeway/wa/bellevue/1645-140th-ave-ne.html,1645 140th Ave NE,Bellevue,WA,98005,47.6258693,-122.1548252
206,1142,America/Los_Angeles,Safeway,https://local.safeway.com/safeway/wa/kirkland/12519-ne-85th-st.html,12519 NE 85th St,Kirkland,WA,98033,47.6788233,-122.1734283
207,496,America/Los_Angeles,Safeway,https://local.safeway.com/safeway/wa/redmond/15000-ne-24th-st.html,15000 NE 24th St,Redmond,WA,98052,47.6325722,-122.1402277
208,464,America/Los_Angeles,Safeway,https://local.safeway.com/safeway/wa/redmond/17246-redmond-way.html,17246 Redmond Way,Redmond,WA,98052,47.671967849046936,-122.10969980793458
209,555,America/Los_Angeles,Safeway,https://local.safeway.com/safeway/wa/sammamish/630-228th-ave-ne.html,630 228th Ave NE,Sammamish,WA,98074,47.6152195,-122.0334793
210,1624,America/Los_Angeles,Safeway,https://local.safeway.com/safeway/wa/issaquah/735-nw-gilman-blvd.html,735 NW Gilman Blvd,Issaquah,WA,98027,47.5415923,-122.0478441
211,3006,America/Los_Angeles,Safeway,https://local.safeway.com/safeway/wa/issaquah/1451-highlands-dr.html,1451 Highlands Dr,Issaquah,WA,98029,47.54134246130687,-122.01951564973754
212,3613,America/Los_Angeles,Safeway,https://local.safeway.com/safeway/wa/snoqualmie/34828-se-douglas-st.html,34828 SE Douglas St,Snoqualmie,WA,98065,47.52759032054692,-121.87370896339417
213,1528,America/Los_Angeles,Safeway,https://local.safeway.com/safeway/wa/north-bend/460-sw-mt-si-blvd.html,460 SW Mt Si Blvd,North Bend,WA,98045,47.4872754,-121.7913939
214,1827,America/Los_Angeles,Safeway,https://local.safeway.com/safeway/or/la-grande/2111-adams-ave.html,2111 Adams Ave,La Grande,OR,97850,45.32134278116949,-118.08084451156998
215,4381,America/Los_Angeles,Safeway,https://local.safeway.com/safeway/or/baker-city/1205-campbell-st.html,1205 Campbell St,Baker City,OR,97814,44.780883,-117.8189918
216,1642,America/Los_Angeles,Safeway,https://local.safeway.com/safeway/or/pendleton/201-sw-20th-st.html,201 SW 20th St,Pendleton,OR,97801,45.66594910696854,-118.80796479895389
217,1665,America/Los_Angeles,Safeway,https://local.safeway.com/safeway/or/redmond/1705-s-hwy-97.html,1705 S Hwy 97,Redmond,OR,97756,44.2607574,-121.1796264
218,1960,America/Los_Angeles,Safeway,https://local.safeway.com/safeway/or/madras/80-ne-cedar-st.html,80 NE Cedar St,Madras,OR,97741,44.643775,-121.1279016
219,1504,America/Los_Angeles,Safeway,https://local.safeway.com/safeway/or/bend/2650-ne-hwy-20.html,2650 NE Hwy 20,Bend,OR,97701,44.0577934,-121.2646382
220,514,America/Los_Angeles,Safeway,https://local.safeway.com/safeway/or/bend/642-ne-3rd.html,642 NE 3rd,Bend,OR,97701,44.0565812,-121.3014092
221,1888,America/Los_Angeles,Safeway,https://local.safeway.com/safeway/or/bend/320-w-century-blvd.html,320 W Century Blvd,Bend,OR,97702,44.0471572,-121.3296966
222,3553,America/Los_Angeles,Safeway,https://local.safeway.com/safeway/or/bend/61155-s-hwy-97.html,61155 S Hwy 97,Bend,OR,97702,44.021039,-121.3179977
223,3212,America/Los_Angeles,Safeway,https://local.safeway.com/safeway/or/ashland/585-siskiyou-blvd.html,585 Siskiyou Blvd,Ashland,OR,97520,42.1934195,-122.7062893
224,525,America/Los_Angeles,Safeway,https://local.safeway.com/safeway/or/medford/1003-medford-ctr.html,1003 Medford Ctr,Medford,OR,97504,42.33340795854104,-122.86374048151629
225,1643,America/Los_Angeles,Safeway,https://local.safeway.com/safeway/or/medford/3169-crater-lake-hwy.html,3169 Crater Lake Hwy,Medford,OR,97504,42.3626251,-122.8586044
226,290,America/Los_Angeles,Safeway,https://local.safeway.com/safeway/or/grants-pass/115-e-7th-st.html,115 E 7th St,Grants Pass,OR,97526,42.438655,-123.324786
227,379,America/Los_Angeles,Safeway,https://local.safeway.com/safeway/or/grants-pass/1640-williams-hwy.html,1640 Williams Hwy,Grants Pass,OR,97527,42.42106073149295,-123.33630681037903
228,1666,America/Los_Angeles,Safeway,https://local.safeway.com/safeway/or/roseburg/1539-ne-stephens-st.html,1539 NE Stephens St,Roseburg,OR,97470,43.2292752,-123.3495781
229,4513,America/Los_Angeles,Safeway,https://local.safeway.com/safeway/or/eugene/350-e-40th-ave.html,350 E 40th Ave,Eugene,OR,97405,44.0109087,-123.0886439
230,4288,America/Los_Angeles,Safeway,https://local.safeway.com/safeway/or/eugene/145-e-18th-ave.html,145 E 18th Ave,Eugene,OR,97401,44.0405404,-123.0906309
231,420,America/Los_Angeles,Safeway,https://local.safeway.com/safeway/or/eugene/1500-coburg-rd.html,1500 Coburg Rd,Eugene,OR,97401,44.0782518,-123.069937
232,1458,America/Los_Angeles,Safeway,https://local.safeway.com/safeway/or/cottage-grove/1500-e-main-st.html,1500 E Main St,Cottage Grove,OR,97424,43.798268,-123.0518825
233,1094,America/Los_Angeles,Safeway,https://local.safeway.com/safeway/or/springfield/1891-pioneer-pkwy-e.html,1891 Pioneer Pkwy E,Springfield,OR,97477,44.06349634794682,-123.02377595833588
234,386,America/Los_Angeles,Safeway,https://local.safeway.com/safeway/or/junction-city/1755-ivy-st.html,1755 Ivy St,Junction City,OR,97448,44.2294085,-123.2063766
235,1557,America/Los_Angeles,Safeway,https://local.safeway.com/safeway/or/north-bend/1735-virginia-ave.html,1735 Virginia Ave,North Bend,OR,97459,43.4054199,-124.2356592
236,1556,America/Los_Angeles,Safeway,https://local.safeway.com/safeway/or/coos-bay/230-e-johnson-ave.html,230 E Johnson Ave,Coos Bay,OR,97420,43.358686,-124.2108733
237,284,America/Los_Angeles,Safeway,https://local.safeway.com/safeway/or/reedsport/1499-hwy-101.html,1499 Hwy 101,Reedsport,OR,97467,43.699151,-124.1120359
238,363,America/Los_Angeles,Safeway,https://local.safeway.com/safeway/or/florence/700-hwy-101.html,700 Hwy 101,Florence,OR,97439,43.97297656053095,-124.10299693425446
239,4262,America/Los_Angeles,Safeway,https://local.safeway.com/safeway/or/coquille/155-e-1st-st.html,155 E 1st St,Coquille,OR,97423,43.17439199010379,-124.18732748196817
240,1710,America/Los_Angeles,Safeway,https://local.safeway.com/safeway/or/sweet-home/1540-main-st.html,1540 Main St,Sweet Home,OR,97386,44.3994707,-122.725782
241,1558,America/Los_Angeles,Safeway,https://local.safeway.com/safeway/or/lebanon/1983-s-main-st.html,1983 S Main St,Lebanon,OR,97355,44.5274232,-122.9054558
242,1527,America/Los_Angeles,Safeway,https://local.safeway.com/safeway/or/stayton/1535-n-first-st.html,1535 N First St,Stayton,OR,97383,44.80573497211727,-122.79600802128698
243,1580,America/Los_Angeles,Safeway,https://local.safeway.com/safeway/or/silverton/301-westfield-st.html,301 Westfield St,Silverton,OR,97381,45.00324558727095,-122.79393465849353
244,1935,America/Los_Angeles,Safeway,https://local.safeway.com/safeway/or/salem/5660-commercial-st-se.html,5660 Commercial St SE,Salem,OR,97306,44.8728552,-123.0221568
245,429,America/Los_Angeles,Safeway,https://local.safeway.com/safeway/or/salem/3380-lancaster-dr-ne.html,3380 Lancaster Dr NE,Salem,OR,97305,44.9687592,-122.9819208
246,1629,America/Los_Angeles,Safeway,https://local.safeway.com/safeway/or/salem/1265-center-st.html,1265 Center St,Salem,OR,97301,44.9408371,-123.0242462
247,1751,America/Los_Angeles,Safeway,https://local.safeway.com/safeway/or/molalla/1525-w-main-st.html,1525 W Main St,Molalla,OR,97038,45.1516281,-122.6035692
248,1976,America/Los_Angeles,Safeway,https://local.safeway.com/safeway/or/woodburn/1550-n-pacific-hwy.html,1550 N Pacific Hwy,Woodburn,OR,97071,45.150145848541406,-122.82970924577967
249,1516,America/Los_Angeles,Safeway,https://local.safeway.com/safeway/or/keizer/4990-river-rd.html,4990 River Rd,Keizer,OR,97303,44.9964053,-123.0242787
250,412,America/Los_Angeles,Safeway,https://local.safeway.com/safeway/or/salem/1455-edgewater-st-nw.html,1455 Edgewater St NW,Salem,OR,97304,44.93940848865539,-123.06333170102334
251,4404,America/Los_Angeles,Safeway,https://local.safeway.com/safeway/or/dallas/138-w-ellendale-ave.html,138 W Ellendale Ave,Dallas,OR,97338,44.93070658265428,-123.3128036465223
252,1601,America/Los_Angeles,Safeway,https://local.safeway.com/safeway/or/mcminnville/2490-n-hwy-99-w.html,2490 N Hwy 99 W,McMinnville,OR,97128,45.2273021079604,-123.17276449533892
253,1765,America/Los_Angeles,Safeway,https://local.safeway.com/safeway/or/corvallis/5270-sw-philomath-blvd.html,5270 SW Philomath Blvd,Corvallis,OR,97333,44.55043293460608,-123.30876858564807
254,4333,America/Los_Angeles,Safeway,https://local.safeway.com/safeway/or/corvallis/450-sw-3rd-st.html,450 SW 3rd St,Corvallis,OR,97333,44.56079961426244,-123.26334805818988
255,1690,America/Los_Angeles,Safeway,https://local.safeway.com/safeway/or/corvallis/590-ne-circle-blvd.html,590 NE Circle Blvd,Corvallis,OR,97330,44.586906,-123.2510589
256,1659,America/Los_Angeles,Safeway,https://local.safeway.com/safeway/or/albany/1990-14th-ave-se.html,1990 14th Ave SE,Albany,OR,97322,44.6272589,-123.0795751
257,415,America/Los_Angeles,Safeway,https://local.safeway.com/safeway/or/lincoln-city/4101-nw-logan-rd.html,4101 NW Logan Rd,Lincoln City,OR,97367,44.9971885,-124.0063247
258,378,America/Los_Angeles,Safeway,https://local.safeway.com/safeway/or/newport/2220-n-coast-hwy.html,2220 N Coast Hwy,Newport,OR,97365,44.6525374,-124.0521099
259,2623,America/Los_Angeles,Safeway,https://local.safeway.com/safeway/or/newberg/1140-n-springbrook-rd.html,1140 N Springbrook Rd,Newberg,OR,97132,45.30857590426072,-122.9454541087307
260,2696,America/Los_Angeles,Safeway,https://local.safeway.com/safeway/or/milwaukie/14840-se-webster-rd.html,14840 SE Webster Rd,Milwaukie,OR,97267,45.415975,-122.591075
261,2690,America/Los_Angeles,Safeway,https://local.safeway.com/safeway/or/milwaukie/4320-se-king-rd.html,4320 SE King Rd,Milwaukie,OR,97222,45.446920854744356,-122.61820441031188
262,4387,America/Los_Angeles,Safeway,https://local.safeway.com/safeway/or/gladstone/95-82nd-dr.html,95 82nd Dr,Gladstone,OR,97027,45.38169174017873,-122.58202897934439
263,508,America/Los_Angeles,Safeway,https://local.safeway.com/safeway/or/lake-oswego/401-a-ave.html,401 A Ave,Lake Oswego,OR,97034,45.4206682,-122.668533
264,1713,America/Los_Angeles,Safeway,https://local.safeway.com/safeway/or/west-linn/22000-salamo-rd.html,22000 Salamo Rd,West Linn,OR,97068,45.3645715,-122.6475579
265,1523,America/Los_Angeles,Safeway,https://local.safeway.com/safeway/or/portland/4515-se-woodstock-blvd.html,4515 SE Woodstock Blvd,Portland,OR,97206,45.4799239,-122.6158737
266,2993,America/Los_Angeles,Safeway,https://local.safeway.com/safeway/or/oregon-city/13434-colton-pl.html,13434 Colton Pl,Oregon City,OR,97045,45.3345565,-122.5913196
267,3136,America/Los_Angeles,Safeway,https://local.safeway.com/safeway/or/portland/8145-sw-barbur-blvd.html,8145 SW Barbur Blvd,Portland,OR,97219,45.4658458,-122.698705
268,1047,America/Los_Angeles,Safeway,https://local.safeway.com/safeway/or/lake-oswego/17779-boones-ferry-rd.html,17779 Boones Ferry Rd,Lake Oswego,OR,97035,45.39847634351874,-122.74190247058863
269,1478,America/Los_Angeles,Safeway,https://local.safeway.com/safeway/or/king-city/15570-sw-pacific-hwy.html,15570 SW Pacific Hwy,King City,OR,97224,45.4072213,-122.7927096
270,1073,America/Los_Angeles,Safeway,https://local.safeway.com/safeway/or/beaverton/6194-sw-murray-blvd.html,6194 SW Murray Blvd,Beaverton,OR,97008,45.4751577,-122.8251802
271,2631,America/Los_Angeles,Safeway,https://local.safeway.com/safeway/or/beaverton/14555-sw-teal-blvd.html,14555 SW Teal Blvd,Beaverton,OR,97007,45.44230249084747,-122.82685742543435
272,1889,America/Los_Angeles,Safeway,https://local.safeway.com/safeway/or/aloha/20535-sw-tualatin-valley-hwy.html,20535 SW Tualatin Valley Hwy,Aloha,OR,97006,45.4967798,-122.8880088
273,3557,America/Los_Angeles,Safeway,https://local.safeway.com/safeway/or/aloha/6055-sw-185th-ave.html,6055 SW 185th Ave,Aloha,OR,97078,45.4755691,-122.8691329
274,591,America/Los_Angeles,Safeway,https://local.safeway.com/safeway/or/hillsboro/888-ne-25th-ave.html,888 NE 25th Ave,Hillsboro,OR,97124,45.5301504,-122.9551186
275,1203,America/Los_Angeles,Safeway,https://local.safeway.com/safeway/or/hillsboro/2525-se-tualatin-valley-hwy.html,2525 SE Tualatin Valley Hwy,Hillsboro,OR,97123,45.50593490879454,-122.95440049501849
276,3542,America/Los_Angeles,Safeway,https://local.safeway.com/safeway/or/tigard/14300-sw-barrows-rd.html,14300 SW Barrows Rd,Tigard,OR,97223,45.4312625,-122.8237717
277,1800,America/Los_Angeles,Safeway,https://local.safeway.com/safeway/or/sherwood/20685-sw-roy-rogers.html,20685 SW Roy Rogers,Sherwood,OR,97140,45.369708188563784,-122.84533248112893
278,285,America/Los_Angeles,Safeway,https://local.safeway.com/safeway/or/wilsonville/8255-sw-wilsonville-rd.html,8255 SW Wilsonville Rd,Wilsonville,OR,97070,45.3043799,-122.7624514
279,2723,America/Los_Angeles,Safeway,https://local.safeway.com/safeway/or/tillamook/1815-4th-st.html,1815 4th St,Tillamook,OR,97141,45.4554347,-123.8457106
280,2604,America/Los_Angeles,Safeway,https://local.safeway.com/safeway/or/canby/1051-sw-1st-ave.html,1051 SW 1st Ave,Canby,OR,97013,45.255351359492415,-122.70259201526642
281,1260,America/Los_Angeles,Safeway,https://local.safeway.com/safeway/or/seaside/401-s-roosevelt-dr.html,401 S Roosevelt Dr,Seaside,OR,97138,45.9910649,-123.9201238
282,2627,America/Los_Angeles,Safeway,https://local.safeway.com/safeway/or/astoria/3250-leif-erickson-dr.html,3250 Leif Erickson Dr,Astoria,OR,97103,46.1922934,-123.8081615
283,406,America/Los_Angeles,Safeway,https://local.safeway.com/safeway/or/forest-grove/2836-pacific-ave.html,2836 Pacific Ave,Forest Grove,OR,97116,45.519578,-123.0954314
284,1489,America/Los_Angeles,Safeway,https://local.safeway.com/safeway/or/the-dalles/520-mt-hood-st.html,520 Mt Hood St,The Dalles,OR,97058,45.604311525840096,-121.19354426494294
285,1123,America/Los_Angeles,Safeway,https://local.safeway.com/safeway/or/hood-river/2249-cascade-ave.html,2249 Cascade Ave,Hood River,OR,97031,45.7090057,-121.5349336
286,2747,Pacific/Honolulu,Safeway,https://local.safeway.com/safeway/hi/honolulu/888-kapahulu-ave.html,888 Kapahulu Ave,Honolulu,HI,96816,21.2839357,-157.8146742
287,2944,Pacific/Honolulu,Safeway,https://local.safeway.com/safeway/hi/honolulu/1234-s-beretania-st.html,1234 S Beretania St,Honolulu,HI,96814,21.301705766544515,-157.8420685865082
288,204,Pacific/Honolulu,Safeway,https://local.safeway.com/safeway/hi/honolulu/2855-e-manoa-rd.html,2855 E Manoa Rd,Honolulu,HI,96822,21.308744120673683,-157.81028174232787
289,203,Pacific/Honolulu,Safeway,https://local.safeway.com/safeway/hi/honolulu/1360-pali-hwy.html,1360 Pali Hwy,Honolulu,HI,96813,21.313344636359,-157.85783802325113
290,211,Pacific/Honolulu,Safeway,https://local.safeway.com/safeway/hi/honolulu/848-ala-lilikoi-st.html,848 Ala Lilikoi St,Honolulu,HI,96818,21.344402970642616,-157.91397905952454
291,215,Pacific/Honolulu,Safeway,https://local.safeway.com/safeway/hi/honolulu/377-keahole-st.html,377 Keahole St,Honolulu,HI,96825,21.285152918180223,-157.70685209444275
292,205,Pacific/Honolulu,Safeway,https://local.safeway.com/safeway/hi/kailua/1060-keolu-dr.html,1060 Keolu Dr,Kailua,HI,96734,21.377204130098026,-157.72928779179438
293,1087,Pacific/Honolulu,Safeway,https://local.safeway.com/safeway/hi/kailua/200-hamakua-dr.html,200 Hamakua Dr,Kailua,HI,96734,21.39053728386157,-157.73974058095092
294,207,Pacific/Honolulu,Safeway,https://local.safeway.com/safeway/hi/kaneohe/46065-kamehameha-hwy.html,46065 Kamehameha Hwy,Kaneohe,HI,96744,21.421908634819175,-157.80280138095094
295,2208,Pacific/Honolulu,Safeway,https://local.safeway.com/safeway/hi/kailua/25-kaneohe-bay-dr.html,25 Kaneohe Bay Dr,Kailua,HI,96734,21.423224919656448,-157.74809772209014
296,214,Pacific/Honolulu,Safeway,https://local.safeway.com/safeway/hi/aiea/98-1277-kaahumanu-st.html,98-1277 Kaahumanu St,Aiea,HI,96701,21.39031115959129,-157.95163303613663
297,2897,Pacific/Honolulu,Safeway,https://local.safeway.com/safeway/hi/ewa-beach/91-1119-keaunui-dr.html,91-1119 Keaunui Dr,Ewa Beach,HI,96706,21.326910246940216,-158.02017905158996
298,275,Pacific/Honolulu,Safeway,https://local.safeway.com/safeway/hi/waipahu/94-809-lumiaina-st.html,94-809 Lumiaina St,Waipahu,HI,96797,21.398514323277563,-158.00792815337294
299,2218,Pacific/Honolulu,Safeway,https://local.safeway.com/safeway/hi/mililani/94-780b-meheula-pkwy.html,94-780B Meheula Pkwy,Mililani,HI,96789,21.44204920092012,-158.02266061305994
300,1263,Pacific/Honolulu,Safeway,https://local.safeway.com/safeway/hi/kapolei/590-farrington-n-400.html,590 Farrington N 400,Kapolei,HI,96707,21.3390519,-158.0793691
301,3092,Pacific/Honolulu,Safeway,https://local.safeway.com/safeway/hi/wailuku/58-maui-lani-pkwy-suite-5000.html,58 Maui Lani Pkwy Suite 5000,Wailuku,HI,96793,20.88743214801068,-156.49307170716833
302,1222,Pacific/Honolulu,Safeway,https://local.safeway.com/safeway/hi/lahaina/1221-honoapiilani-hwy.html,1221 Honoapiilani Hwy,Lahaina,HI,96761,20.887005482154365,-156.68408130919266
303,280,Pacific/Honolulu,Safeway,https://local.safeway.com/safeway/hi/kahului/1090-ho-okele-st.html,1090 Ho'okele St,Kahului,HI,96732,20.879256198078515,-156.44447640608215
304,1500,Pacific/Honolulu,Safeway,https://local.safeway.com/safeway/hi/kihei/277-pi-ikea-ave.html,277 Pi'Ikea Ave,Kihei,HI,96753,20.752825870172224,-156.44852713511682
305,2894,Pacific/Honolulu,Safeway,https://local.safeway.com/safeway/hi/lihue/4454-nuhou-st-suite--301.html,4454 Nuhou St Suite #301,Lihue,HI,96766,21.96867570501419,-159.38570000025481
306,1209,Pacific/Honolulu,Safeway,https://local.safeway.com/safeway/hi/kapaa/4-831-kuhio-hwy.html,4-831 Kuhio Hwy,Kapaa,HI,96746,22.062250386330952,-159.32180732488632
307,2893,Pacific/Honolulu,Safeway,https://local.safeway.com/safeway/hi/hilo/381-e-maka-ala-st.html,381 E Maka'Ala St,Hilo,HI,96720,19.700636215276777,-155.0607611441803
308,1117,Pacific/Honolulu,Safeway,https://local.safeway.com/safeway/hi/kailua-kona/75-971-henry-st.html,75-971 Henry St,Kailua Kona,HI,96740,19.643907248099897,-155.99098721182258
309,1266,America/Los_Angeles,Safeway,https://local.safeway.com/safeway/ca/truckee/11290-donner-pass-rd.html,11290 Donner Pass Rd,Truckee,CA,96161,39.32726798116469,-120.20650429999999
310,2258,America/Los_Angeles,Safeway,https://local.safeway.com/safeway/ca/tahoe-city/850-n-lake-blvd.html,850 N Lake Blvd,Tahoe City,CA,96145,39.17331653461841,-120.13682174047547
311,1592,America/Los_Angeles,Safeway,https://local.safeway.com/safeway/ca/kings-beach/7815-n-lake-blvd.html,7815 N Lake Blvd,Kings Beach,CA,96143,39.23925372494502,-120.03387670000001
312,1824,America/Los_Angeles,Safeway,https://local.safeway.com/safeway/ca/south-lake-tahoe/1020-johnson-ln.html,1020 Johnson Ln,South Lake Tahoe,CA,96150,38.943972449916686,-119.96733705581971
313,1537,America/Los_Angeles,Safeway,https://local.safeway.com/safeway/nv/zephyr-cove/212-elks-point-rd.html,212 Elks Point Rd,Zephyr Cove,NV,89448,38.98638604743675,-119.9436806558197
314,1218,America/Los_Angeles,Safeway,https://local.safeway.com/safeway/ca/susanville/2970-main-st.html,2970 Main St,Susanville,CA,96130,40.40600486012466,-120.63454985618591
315,2295,America/Los_Angeles,Safeway,https://local.safeway.com/safeway/ca/corning/600-edith-st.html,600 Edith St,Corning,CA,96021,39.92956674637532,-122.19811677932739
316,273,America/Los_Angeles,Safeway,https://local.safeway.com/safeway/ca/anderson/2601-balls-ferry-rd.html,2601 Balls Ferry Rd,Anderson,CA,96007,40.45279197296027,-122.28840214169882
317,1954,America/Los_Angeles,Safeway,https://local.safeway.com/safeway/ca/redding/2275-pine-st.html,2275 Pine St,Redding,CA,96001,40.57661656378324,-122.38495239259034
318,1826,America/Los_Angeles,Safeway,https://local.safeway.com/safeway/ca/redding/1070-e-cypress-ave.html,1070 E Cypress Ave,Redding,CA,96002,40.572696,-122.3511975
319,1761,America/Los_Angeles,Safeway,https://local.safeway.com/safeway/ca/lincoln/67-lincoln-blvd.html,67 Lincoln Blvd,Lincoln,CA,95648,38.878012,-121.29420196560669
320,1125,America/Los_Angeles,Safeway,https://local.safeway.com/safeway/ca/chico/1366-east-ave.html,1366 East Ave,Chico,CA,95926,39.7623885,-121.8225505
321,1651,America/Los_Angeles,Safeway,https://local.safeway.com/safeway/ca/chico/720-mangrove-ave.html,720 Mangrove Ave,Chico,CA,95926,39.73653953942398,-121.83362066745758
322,256,America/Los_Angeles,Safeway,https://local.safeway.com/safeway/ca/chico/1016-w-sacramento-ave.html,1016 W Sacramento Ave,Chico,CA,95926,39.73198728581041,-121.85947792757797
323,262,America/Los_Angeles,Safeway,https://local.safeway.com/safeway/ca/quincy/20-e-main-st.html,20 E Main St,Quincy,CA,95971,39.936777843257445,-120.93753634692803
324,2287,America/Los_Angeles,Safeway,https://local.safeway.com/safeway/ca/gridley/1596-st-hwy-99.html,1596 St Hwy 99,Gridley,CA,95948,39.3623457,-121.6864449
325,2842,America/Los_Angeles,Safeway,https://local.safeway.com/safeway/ca/grass-valley/867-sutton-way.html,867 Sutton Way,Grass Valley,CA,95945,39.23543150952257,-121.03232563677064
326,111,America/Los_Angeles,Safeway,https://local.safeway.com/safeway/ca/grass-valley/105-neal-st.html,105 Neal St,Grass Valley,CA,95945,39.21603345589571,-121.06276988983154
327,3122,America/Los_Angeles,Safeway,https://local.safeway.com/safeway/ca/auburn/2550-bell-rd.html,2550 Bell Rd,Auburn,CA,95603,38.94404156736884,-121.09287603862305
328,1530,America/Los_Angeles,Safeway,https://local.safeway.com/safeway/ca/sacramento/3320-arden-way.html,3320 Arden Way,Sacramento,CA,95825,38.59443263677919,-121.38662920555726
329,190,America/Los_Angeles,Safeway,https://local.safeway.com/safeway/ca/sacramento/424-howe-ave.html,424 Howe Ave,Sacramento,CA,95825,38.57329599713887,-121.41322110945566
330,2242,America/Los_Angeles,Safeway,https://local.safeway.com/safeway/ca/sacramento/1025-alhambra-blvd.html,1025 Alhambra Blvd,Sacramento,CA,95816,38.57163581292695,-121.46461501719666
331,1560,America/Los_Angeles,Safeway,https://local.safeway.com/safeway/ca/carmichael/4040-manzanita-ave.html,4040 Manzanita Ave,Carmichael,CA,95608,38.6381291,-121.3263428
332,1746,America/Los_Angeles,Safeway,https://local.safeway.com/safeway/ca/rancho-cordova/10635-folsom-blvd.html,10635 Folsom Blvd,Rancho Cordova,CA,95670,38.5953415,-121.2933838
333,2684,America/Los_Angeles,Safeway,https://local.safeway.com/safeway/ca/sacramento/1814-19th-st.html,1814 19th St,Sacramento,CA,95811,38.5679278,-121.4860899
334,3013,America/Los_Angeles,Safeway,https://local.safeway.com/safeway/ca/sacramento/3680-crocker-dr.html,3680 Crocker Dr,Sacramento,CA,95818,38.540703893499,-121.48376364973755
335,1895,America/Los_Angeles,Safeway,https://local.safeway.com/safeway/ca/fair-oaks/5450-dewey-dr.html,5450 Dewey Dr,Fair Oaks,CA,95628,38.6651672,-121.3071786
336,2263,America/Los_Angeles,Safeway,https://local.safeway.com/safeway/ca/sacramento/5345-elkhorn-blvd.html,5345 Elkhorn Blvd,Sacramento,CA,95842,38.6864094,-121.3394634
337,1531,America/Los_Angeles,Safeway,https://local.safeway.com/safeway/ca/citrus-heights/7301-greenback-ln.html,7301 Greenback Ln,Citrus Heights,CA,95621,38.680075,-121.2939502
338,1289,America/Los_Angeles,Safeway,https://local.safeway.com/safeway/ca/sacramento/8377-elk-grove-florin-rd.html,8377 Elk Grove Florin Rd,Sacramento,CA,95829,38.4534347,-121.3698699
339,2697,America/Los_Angeles,Safeway,https://local.safeway.com/safeway/ca/sacramento/2851-del-paso-rd.html,2851 Del Paso Rd,Sacramento,CA,95835,38.65757433094581,-121.52465164661407
340,1846,America/Los_Angeles,Safeway,https://local.safeway.com/safeway/ca/fair-oaks/8925-madison-ave.html,8925 Madison Ave,Fair Oaks,CA,95628,38.665356183796696,-121.22407938095093
341,1647,America/Los_Angeles,Safeway,https://local.safeway.com/safeway/ca/elk-grove/5021-laguna-blvd.html,5021 Laguna Blvd,Elk Grove,CA,95758,38.42428555407852,-121.44653146321161
342,1899,America/Los_Angeles,Safeway,https://local.safeway.com/safeway/ca/roseville/989-sunrise-ave.html,989 Sunrise Ave,Roseville,CA,95661,38.731030559204754,-121.27134326137697
343,1794,America/Los_Angeles,Safeway,https://local.safeway.com/safeway/ca/folsom/1850-prairie-city-rd.html,1850 Prairie City Rd,Folsom,CA,95630,38.649807447141804,-121.16582242090149
344,1617,America/Los_Angeles,Safeway,https://local.safeway.com/safeway/ca/roseville/8640-sierra-college-blvd.html,8640 Sierra College Blvd,Roseville,CA,95661,38.7419085,-121.228556
345,1890,America/Los_Angeles,Safeway,https://local.safeway.com/safeway/ca/roseville/1080-pleasant-grove-blvd.html,1080 Pleasant Grove Blvd,Roseville,CA,95678,38.777314345274654,-121.2916206111145
346,2620,America/Los_Angeles,Safeway,https://local.safeway.com/safeway/ca/roseville/9045-woodcreek-oaks-blvd.html,9045 Woodcreek Oaks Blvd,Roseville,CA,95747,38.79406974092022,-121.33065016600085
347,1866,America/Los_Angeles,Safeway,https://local.safeway.com/safeway/ca/rocklin/2220-sunset-blvd.html,2220 Sunset Blvd,Rocklin,CA,95765,38.8029637,-121.2742609
348,2286,America/Los_Angeles,Safeway,https://local.safeway.com/safeway/ca/rocklin/4805-granite-dr.html,4805 Granite Dr,Rocklin,CA,95677,38.79008478723164,-121.22222024208895
349,1561,America/Los_Angeles,Safeway,https://local.safeway.com/safeway/ca/davis/2121-cowell-blvd.html,2121 Cowell Blvd,Davis,CA,95618,38.5413699,-121.725185
350,1205,America/Los_Angeles,Safeway,https://local.safeway.com/safeway/ca/davis/1451-w-covell-blvd.html,1451 W Covell Blvd,Davis,CA,95616,38.5621327,-121.766313
351,1258,America/Los_Angeles,Safeway,https://local.safeway.com/safeway/ca/dixon/1235-stratford-ave.html,1235 Stratford Ave,Dixon,CA,95620,38.4569502,-121.8391123
352,2683,America/Los_Angeles,Safeway,https://local.safeway.com/safeway/ca/el-dorado-hills/2207-francisco-dr.html,2207 Francisco Dr,El Dorado Hills,CA,95762,38.7114317,-121.0840452
353,748,America/Los_Angeles,Safeway,https://local.safeway.com/safeway/ca/el-dorado-hills/3383-bass-lake-rd.html,3383 Bass Lake Rd,El Dorado Hills,CA,95762,38.6751702,-121.0282322
354,1618,America/Los_Angeles,Safeway,https://local.safeway.com/safeway/ca/cameron-park/3380-coach-ln.html,3380 Coach Ln,Cameron Park,CA,95682,38.65643909282075,-120.97107589244843
355,1724,America/Los_Angeles,Safeway,https://local.safeway.com/safeway/ca/placerville/3955-missouri-flat-rd.html,3955 Missouri Flat Rd,Placerville,CA,95667,38.7143978,-120.8396697
356,1648,America/Los_Angeles,Safeway,https://local.safeway.com/safeway/ca/lodi/2449-w-kettleman-ln.html,2449 W Kettleman Ln,Lodi,CA,95242,38.117687527333736,-121.305761087483
357,1825,America/Los_Angeles,Safeway,https://local.safeway.com/safeway/ca/pollock-pines/6498-pony-express-trail.html,6498 Pony Express Trail,Pollock Pines,CA,95726,38.76206849368378,-120.5768322981476
358,1109,America/Los_Angeles,Safeway,https://local.safeway.com/safeway/ca/vacaville/2090-harbison-dr.html,2090 Harbison Dr,Vacaville,CA,95687,38.362202962465275,-121.96175136560667
359,1127,America/Los_Angeles,Safeway,https://local.safeway.com/safeway/ca/fairfield/2401-waterman-dr.html,2401 Waterman Dr,Fairfield,CA,94534,38.27161324755087,-122.0529697883606
360,1722,America/Los_Angeles,Safeway,https://local.safeway.com/safeway/ca/fairfield/5051-business-ctr-dr.html,5051 Business Ctr Dr,Fairfield,CA,94534,38.2168383,-122.1413456
361,2449,America/Los_Angeles,Safeway,https://local.safeway.com/safeway/ca/napa/3375-jefferson-st.html,3375 Jefferson St,Napa,CA,94558,38.321184055893376,-122.30182707309723
362,2778,America/Los_Angeles,Safeway,https://local.safeway.com/safeway/ca/jackson/12110-industry-blvd.html,12110 Industry Blvd,Jackson,CA,95642,38.3682341,-120.8000667
363,2707,America/Los_Angeles,Safeway,https://local.safeway.com/safeway/ca/stockton/6445-pacific-ave.html,6445 Pacific Ave,Stockton,CA,95207,38.008507,-121.3213217
364,975,America/Los_Angeles,Safeway,https://local.safeway.com/safeway/ca/fortuna/701-s-fortuna-blvd.html,701 S Fortuna Blvd,Fortuna,CA,95540,40.58425017979282,-124.14493248627878
365,2908,America/Los_Angeles,Safeway,https://local.safeway.com/safeway/ca/eureka/2555-harris-st.html,2555 Harris St,Eureka,CA,95503,40.78075209473384,-124.13850637116394
366,793,America/Los_Angeles,Safeway,https://local.safeway.com/safeway/ca/arcata/600-f-st.html,600 F St,Arcata,CA,95521,40.86599831570743,-124.08397660420633
367,954,America/Los_Angeles,Safeway,https://local.safeway.com/safeway/ca/crescent-city/475-m-st.html,475 M St,Crescent City,CA,95531,41.756236,-124.1930556
368,1640,America/Los_Angeles,Safeway,https://local.safeway.com/safeway/ca/mckinleyville/1503-city-ctr-rd.html,1503 City Ctr Rd,Mckinleyville,CA,95519,40.943640391851595,-124.10313239206545
369,1434,America/Los_Angeles,Safeway,https://local.safeway.com/safeway/ca/windsor/9080-brooks-rd.html,9080 Brooks Rd,Windsor,CA,95492,38.55170104778972,-122.806303
370,998,America/Los_Angeles,Safeway,https://local.safeway.com/safeway/ca/healdsburg/1115-vine-st.html,1115 Vine St,Healdsburg,CA,95448,38.609174609718394,-122.87341117858887
371,956,America/Los_Angeles,Safeway,https://local.safeway.com/safeway/ca/santa-rosa/1799-marlow-rd.html,1799 Marlow Rd,Santa Rosa,CA,95401,38.4520504,-122.7528692
372,1576,America/Los_Angeles,Safeway,https://local.safeway.com/safeway/ca/santa-rosa/2300-mendocino-ave.html,2300 Mendocino Ave,Santa Rosa,CA,95403,38.4636712,-122.7174085
373,2457,America/Los_Angeles,Safeway,https://local.safeway.com/safeway/ca/santa-rosa/1211-w-college-ave.html,1211 W College Ave,Santa Rosa,CA,95401,38.446687,-122.7415005
374,1562,America/Los_Angeles,Safeway,https://local.safeway.com/safeway/ca/santa-rosa/2751-4th-st.html,2751 4th St,Santa Rosa,CA,95405,38.45090215717838,-122.69103169441223
375,933,America/Los_Angeles,Safeway,https://local.safeway.com/safeway/ca/sebastopol/406-n-main-st.html,406 N Main St,Sebastopol,CA,95472,38.4044915,-122.8270553
376,950,America/Los_Angeles,Safeway,https://local.safeway.com/safeway/ca/guerneville/16405-hwy-116.html,16405 Hwy 116,Guerneville,CA,95446,38.5008094648993,-123.00078767544613
377,713,America/Los_Angeles,Safeway,https://local.safeway.com/safeway/ca/santa-rosa/100-calistoga-rd.html,100 Calistoga Rd,Santa Rosa,CA,95409,38.4656483,-122.6516644
378,1265,America/Los_Angeles,Safeway,https://local.safeway.com/safeway/ca/santa-rosa/2785-yulupa-ave.html,2785 Yulupa Ave,Santa Rosa,CA,95405,38.42578152558107,-122.66847968101501
379,918,America/Los_Angeles,Safeway,https://local.safeway.com/safeway/ca/rohnert-park/6340-commerce-blvd.html,6340 Commerce Blvd,Rohnert Park,CA,94928,38.3475707,-122.7083386
380,2605,America/Los_Angeles,Safeway,https://local.safeway.com/safeway/ca/saint-helena/1026-hunt-ave.html,1026 Hunt Ave,Saint Helena,CA,94574,38.50588872958853,-122.46810604722137
381,965,America/Los_Angeles,Safeway,https://local.safeway.com/safeway/ca/willits/845-s-main-st.html,845 S Main St,Willits,CA,95490,39.4035389,-123.3497464
382,1583,America/Los_Angeles,Safeway,https://local.safeway.com/safeway/ca/ukiah/653-s-state-st.html,653 S State St,Ukiah,CA,95482,39.14451498176883,-123.20601046085358
383,983,America/Los_Angeles,Safeway,https://local.safeway.com/safeway/ca/lakeport/1071-11th-st.html,1071 11th St,Lakeport,CA,95453,39.04853874379422,-122.9256243521843
384,911,America/Los_Angeles,Safeway,https://local.safeway.com/safeway/ca/sonoma/477-w-napa-st.html,477 W Napa St,Sonoma,CA,95476,38.2915431,-122.4676758
385,3011,America/Los_Angeles,Safeway,https://local.safeway.com/safeway/ca/petaluma/389-s-mcdowell-blvd.html,389 S Mcdowell Blvd,Petaluma,CA,94954,38.249035320484865,-122.62166851719665
386,2456,America/Los_Angeles,Safeway,https://local.safeway.com/safeway/ca/petaluma/701-sonoma-mountain-pkwy.html,701 Sonoma Mountain Pkwy,Petaluma,CA,94954,38.269622,-122.6387418
387,979,America/Los_Angeles,Safeway,https://local.safeway.com/safeway/ca/novato/900-diablo-ave.html,900 Diablo Ave,Novato,CA,94947,38.1037625,-122.5714639
388,2828,America/Los_Angeles,Safeway,https://local.safeway.com/safeway/ca/novato/5720-nave-dr.html,5720 Nave Dr,Novato,CA,94949,38.0623833,-122.5322898
389,1883,America/Los_Angeles,Safeway,https://local.safeway.com/safeway/ca/american-canyon/103-american-canyon-rd.html,103 American Canyon Rd,American Canyon,CA,94503,38.1646328,-122.2550382
390,989,America/Los_Angeles,Safeway,https://local.safeway.com/safeway/ca/vallejo/774-admiral-callaghan-ln.html,774 Admiral Callaghan Ln,Vallejo,CA,94591,38.1255108,-122.2266398
391,968,America/Los_Angeles,Safeway,https://local.safeway.com/safeway/ca/vallejo/709-lincoln-rd-w.html,709 Lincoln Rd W,Vallejo,CA,94590,38.09907058221986,-122.23058278895492
392,932,America/Los_Angeles,Safeway,https://local.safeway.com/safeway/ca/san-rafael/950-las-gallinas-ave.html,950 Las Gallinas Ave,San Rafael,CA,94903,38.00845257213722,-122.54833014341784
393,1631,America/Los_Angeles,Safeway,https://local.safeway.com/safeway/ca/vallejo/122-robles-dr.html,122 Robles Dr,Vallejo,CA,94591,38.08454853201613,-122.21023030957667
394,1723,America/Los_Angeles,Safeway,https://local.safeway.com/safeway/ca/san-anselmo/838-sir-francis-drake.html,838 Sir Francis Drake,San Anselmo,CA,94960,37.980704,-122.5641412
395,653,America/Los_Angeles,Safeway,https://local.safeway.com/safeway/ca/san-rafael/700-b-st.html,700 B St,San Rafael,CA,94901,37.97030554789753,-122.52923746745911
396,2874,America/Los_Angeles,Safeway,https://local.safeway.com/safeway/ca/hercules/4080-san-pablo-ave.html,4080 San Pablo Ave,Hercules,CA,94547,38.01474856144823,-122.27156188216566
397,1714,America/Los_Angeles,Safeway,https://local.safeway.com/safeway/ca/pinole/1421-tara-hill-dr.html,1421 Tara Hill Dr,Pinole,CA,94564,37.9943051,-122.3043027
398,984,America/Los_Angeles,Safeway,https://local.safeway.com/safeway/ca/clearlake/14922-olympic-dr.html,14922 Olympic Dr,Clearlake,CA,95422,38.9627409,-122.6318329
399,978,America/Los_Angeles,Safeway,https://local.safeway.com/safeway/ca/fort-bragg/660-s-main-st.html,660 S Main St,Fort Bragg,CA,95437,39.43349954085333,-123.80547376315994
400,55,America/Los_Angeles,Safeway,https://local.safeway.com/safeway/ca/mountain-house/19555-s-mountain-house-pkwy.html,19555 S Mountain House Pkwy,Mountain House,CA,95391,37.78262768148931,-121.53322576571082
401,2600,America/Los_Angeles,Safeway,https://local.safeway.com/safeway/ca/tracy/1801-w-11th-st.html,1801 W 11th St,Tracy,CA,95376,37.740177951249535,-121.44947939259033
402,1917,America/Los_Angeles,Safeway,https://local.safeway.com/safeway/ca/discovery-bay/14840-hwy-4.html,14840 Hwy 4,Discovery Bay,CA,94505,37.89070040657853,-121.62151868280334
403,1257,America/Los_Angeles,Safeway,https://local.safeway.com/safeway/ca/livermore/4495-first-st.html,4495 First St,Livermore,CA,94551,37.6951811,-121.7428648
404,910,America/Los_Angeles,Safeway,https://local.safeway.com/safeway/ca/livermore/1554-first-st.html,1554 First St,Livermore,CA,94550,37.6804056,-121.7771987
405,1234,America/Los_Angeles,Safeway,https://local.safeway.com/safeway/ca/brentwood/1125-2nd-st.html,1125 2nd St,Brentwood,CA,94513,37.93582408101433,-121.69917903742368
406,2621,America/Los_Angeles,Safeway,https://local.safeway.com/safeway/ca/brentwood/3110-balfour-rd.html,3110 Balfour Rd,Brentwood,CA,94513,37.9239947,-121.7218519
407,3124,America/Los_Angeles,Safeway,https://local.safeway.com/safeway/ca/manteca/1187-s-main-st.html,1187 S Main St,Manteca,CA,95337,37.7866315,-121.2187526
408,1932,America/Los_Angeles,Safeway,https://local.safeway.com/safeway/ca/dublin/4440-tassajara-rd.html,4440 Tassajara Rd,Dublin,CA,94568,37.7066902,-121.874053
409,1769,America/Los_Angeles,Safeway,https://local.safeway.com/safeway/ca/stockton/2808-country-club-blvd.html,2808 Country Club Blvd,Stockton,CA,95204,37.96231225572493,-121.33754258210047
410,1502,America/Los_Angeles,Safeway,https://local.safeway.com/safeway/ca/pleasanton/1701-santa-rita-rd.html,1701 Santa Rita Rd,Pleasanton,CA,94566,37.674842231523044,-121.87440567116394
411,1968,America/Los_Angeles,Safeway,https://local.safeway.com/safeway/ca/turlock/3051-countryside-dr.html,3051 Countryside Dr,Turlock,CA,95380,37.5209567,-120.8835037
412,1661,America/Los_Angeles,Safeway,https://local.safeway.com/safeway/ca/modesto/2001-mchenry-ave-suite-c.html,2001 Mchenry Ave Suite C,Modesto,CA,95350,37.67188032390543,-120.99576495297003
413,3127,America/Los_Angeles,Safeway,https://local.safeway.com/safeway/ca/sonora/1291-sanguinetti-rd.html,1291 Sanguinetti Rd,Sonora,CA,95370,37.9736938,-120.362001
414,1259,America/Los_Angeles,Safeway,https://local.safeway.com/safeway/ca/antioch/3365-deer-valley-rd.html,3365 Deer Valley Rd,Antioch,CA,94531,37.98776526566442,-121.78400919602609
415,3095,America/Los_Angeles,Safeway,https://local.safeway.com/safeway/ca/san-jose/2980-e-capitol-expy.html,2980 E Capitol Expy,San Jose,CA,95148,37.331392342865094,-121.81083648650818
416,316,America/Los_Angeles,Safeway,https://local.safeway.com/safeway/ca/san-jose/179-branham-ln.html,179 Branham Ln,San Jose,CA,95136,37.2672166,-121.8332545
417,2900,America/Los_Angeles,Safeway,https://local.safeway.com/safeway/ca/san-jose/5760-cottle-rd.html,5760 Cottle Rd,San Jose,CA,95123,37.246438077781825,-121.80286474047547
418,929,America/Los_Angeles,Safeway,https://local.safeway.com/safeway/ca/san-jose/2558-berryessa-rd.html,2558 Berryessa Rd,San Jose,CA,95132,37.388142199876285,-121.85785778247464
419,2776,America/Los_Angeles,Safeway,https://local.safeway.com/safeway/ca/san-jose/1455-berryessa-rd.html,1455 Berryessa Rd,San Jose,CA,95133,37.370371969938226,-121.88169398650818
420,2150,America/Los_Angeles,Safeway,https://local.safeway.com/safeway/ca/san-jose/1489-bird-ave.html,1489 Bird Ave,San Jose,CA,95125,37.30591979407638,-121.89069068280332
421,1574,America/Los_Angeles,Safeway,https://local.safeway.com/safeway/ca/san-jose/4950-almaden-expy.html,4950 Almaden Expy,San Jose,CA,95118,37.26018353902111,-121.87443205026246
422,1476,America/Los_Angeles,Safeway,https://local.safeway.com/safeway/ca/san-jose/1300-w-san-carlos-st.html,1300 W San Carlos St,San Jose,CA,95126,37.322867682977865,-121.91205942513125
423,1483,America/Los_Angeles,Safeway,https://local.safeway.com/safeway/ca/san-jose/1530-hamilton-ave.html,1530 Hamilton Ave,San Jose,CA,95125,37.29322579118567,-121.91103728147937
424,763,America/Los_Angeles,Safeway,https://local.safeway.com/safeway/ca/santa-clara/2605-the-alameda-ave.html,2605 The Alameda Ave,Santa Clara,CA,95050,37.3452351,-121.9365793
425,695,America/Los_Angeles,Safeway,https://local.safeway.com/safeway/ca/san-jose/6477-almaden-expwy.html,6477 Almaden Expwy,San Jose,CA,95120,37.219534287504935,-121.8615049123764
426,997,America/Los_Angeles,Safeway,https://local.safeway.com/safeway/ca/san-jose/1663-branham-ln.html,1663 Branham Ln,San Jose,CA,95118,37.25300388296866,-121.90825842149582
427,1879,America/Los_Angeles,Safeway,https://local.safeway.com/safeway/ca/milpitas/555-e-calaveras-blvd.html,555 E Calaveras Blvd,Milpitas,CA,95035,37.4350391,-121.8980612
428,2968,America/Los_Angeles,Safeway,https://local.safeway.com/safeway/ca/san-jose/1305-s-winchester-blvd.html,1305 S Winchester Blvd,San Jose,CA,95117,37.30089,-121.951807
429,1293,America/Los_Angeles,Safeway,https://local.safeway.com/safeway/ca/campbell/2341-s-winchester-blvd.html,2341 S Winchester Blvd,Campbell,CA,95008,37.27999211769306,-121.95111762275391
430,1990,America/Los_Angeles,Safeway,https://local.safeway.com/safeway/ca/santa-clara/3970-rivermark-plaza.html,3970 Rivermark Plaza,Santa Clara,CA,95054,37.39474500872606,-121.94763397486878
431,1245,America/Los_Angeles,Safeway,https://local.safeway.com/safeway/ca/los-gatos/15549-union-ave.html,15549 Union Ave,Los Gatos,CA,95032,37.2424439,-121.9325905
432,3241,America/Los_Angeles,Safeway,https://local.safeway.com/safeway/ca/campbell/950-w-hamilton-ave.html,950 W Hamilton Ave,Campbell,CA,95008,37.292836435053964,-121.96663458095092
433,700,America/Los_Angeles,Safeway,https://local.safeway.com/safeway/ca/santa-clara/2760-homestead-rd.html,2760 Homestead Rd,Santa Clara,CA,95051,37.33795567735469,-121.97496236686477
434,1465,America/Los_Angeles,Safeway,https://local.safeway.com/safeway/ca/san-jose/5146-stevens-creek-blvd.html,5146 Stevens Creek Blvd,San Jose,CA,95129,37.32055653172539,-121.99272691719665
435,1455,America/Los_Angeles,Safeway,https://local.safeway.com/safeway/ca/morgan-hill/840-e-dunne-ave.html,840 E Dunne Ave,Morgan Hill,CA,95037,37.128725031517725,-121.63641929626465
436,1891,America/Los_Angeles,Safeway,https://local.safeway.com/safeway/ca/morgan-hill/235-tennant-station.html,235 Tennant Station,Morgan Hill,CA,95037,37.112800268720086,-121.63932681083679
437,2815,America/Los_Angeles,Safeway,https://local.safeway.com/safeway/ca/los-gatos/470-n-santa-cruz-ave.html,470 N Santa Cruz Ave,Los Gatos,CA,95030,37.231462175228515,-121.97908458769683
438,742,America/Los_Angeles,Safeway,https://local.safeway.com/safeway/ca/los-gatos/1500-pollard-rd.html,1500 Pollard Rd,Los Gatos,CA,95032,37.2636481,-121.9844815
439,1931,America/Los_Angeles,Safeway,https://local.safeway.com/safeway/ca/fremont/46848-mission-blvd.html,46848 Mission Blvd,Fremont,CA,94539,37.4896436,-121.9274557
440,1439,America/Los_Angeles,Safeway,https://local.safeway.com/safeway/ca/sunnyvale/785-e-el-camino-real.html,785 E El Camino Real,Sunnyvale,CA,94087,37.35723278833769,-122.01772089814759
441,2887,America/Los_Angeles,Safeway,https://local.safeway.com/safeway/ca/sunnyvale/150-e-el-camino-real.html,150 E El Camino Real,Sunnyvale,CA,94087,37.364657646310704,-122.03071244662705
442,993,America/Los_Angeles,Safeway,https://local.safeway.com/safeway/ca/fremont/3902-washington-blvd.html,3902 Washington Blvd,Fremont,CA,94538,37.53162494818064,-121.95715134477463
443,1196,America/Los_Angeles,Safeway,https://local.safeway.com/safeway/ca/sunnyvale/639-s-bernardo-ave.html,639 S Bernardo Ave,Sunnyvale,CA,94087,37.372791221290946,-122.05811724973753
444,705,America/Los_Angeles,Safeway,https://local.safeway.com/safeway/ca/mountain-view/570-n-shoreline-blvd.html,570 N Shoreline Blvd,Mountain View,CA,94043,37.403126475635524,-122.07936649376734
445,3403,America/Los_Angeles,Safeway,https://local.safeway.com/safeway/ca/mountain-view/580-n-rengstorff-ave.html,580 N Rengstorff Ave,Mountain View,CA,94043,37.4111327,-122.0944938
446,3251,America/Los_Angeles,Safeway,https://local.safeway.com/safeway/ca/cupertino/20620-w-homestead-rd.html,20620 W Homestead Rd,Cupertino,CA,95014,37.33618266569059,-122.03463264603272
447,309,America/Los_Angeles,Safeway,https://local.safeway.com/safeway/ca/fremont/39100-argonaut-way.html,39100 Argonaut Way,Fremont,CA,94538,37.54533192180601,-121.98943825098468
448,1108,America/Los_Angeles,Safeway,https://local.safeway.com/safeway/ca/mountain-view/1750-miramonte-ave.html,1750 Miramonte Ave,Mountain View,CA,94040,37.37234235775041,-122.08844114788513
449,2948,America/Los_Angeles,Safeway,https://local.safeway.com/safeway/ca/mountain-view/645-san-antonio-rd.html,645 San Antonio Rd,Mountain View,CA,94040,37.40180919359313,-122.11184352698365
450,767,America/Los_Angeles,Safeway,https://local.safeway.com/safeway/ca/san-jose/6150-bollinger-rd.html,6150 Bollinger Rd,San Jose,CA,95129,37.30968383329732,-122.01191488465577
451,919,America/Los_Angeles,Safeway,https://local.safeway.com/safeway/ca/saratoga/12876-saratoga-sunnyvale-rd.html,12876 Saratoga Sunnyvale Rd,Saratoga,CA,95070,37.2812192,-122.03125
452,2840,America/Los_Angeles,Safeway,https://local.safeway.com/safeway/ca/freedom/2010-freedom-blvd.html,2010 Freedom Blvd,Freedom,CA,95019,36.9400549,-121.775432
453,1204,America/Los_Angeles,Safeway,https://local.safeway.com/safeway/ca/prunedale/17539-vierra-canyon-rd.html,17539 Vierra Canyon Rd,Prunedale,CA,93907,36.793605320088865,-121.66587934651034
454,640,America/Los_Angeles,Safeway,https://local.safeway.com/safeway/ca/aptos/16-rancho-del-mar.html,16 Rancho Del Mar,Aptos,CA,95003,36.97867565833804,-121.90854896137695
455,1505,America/Los_Angeles,Safeway,https://local.safeway.com/safeway/ca/gilroy/905-first-st.html,905 First St,Gilroy,CA,95020,37.0144901,-121.5891065
456,1929,America/Los_Angeles,Safeway,https://local.safeway.com/safeway/ca/soquel/2720-41st-ave.html,2720 41st Ave,Soquel,CA,95073,36.98610863019925,-121.96328401565552
457,1110,America/Los_Angeles,Safeway,https://local.safeway.com/safeway/ca/salinas/1546-n-main-st.html,1546 N Main St,Salinas,CA,93906,36.71268226118698,-121.65221214294434
458,799,America/Los_Angeles,Safeway,https://local.safeway.com/safeway/ca/santa-cruz/117-morrissey-blvd.html,117 Morrissey Blvd,Santa Cruz,CA,95062,36.982118922681956,-122.00743138591383
459,2654,America/Los_Angeles,Safeway,https://local.safeway.com/safeway/ca/salinas/1516-constitution-blvd.html,1516 Constitution Blvd,Salinas,CA,93905,36.6989148,-121.6205797
460,2607,America/Los_Angeles,Safeway,https://local.safeway.com/safeway/ca/santa-cruz/2203-mission-st.html,2203 Mission St,Santa Cruz,CA,95060,36.96142208167954,-122.0452125251312
461,300,America/Los_Angeles,Safeway,https://local.safeway.com/safeway/ca/scotts-valley/253-mt-hermon-rd.html,253 Mt Hermon Rd,Scotts Valley,CA,95066,37.04622938856273,-122.03105004164172
462,786,America/Los_Angeles,Safeway,https://local.safeway.com/safeway/ca/felton/6255-graham-hill-rd.html,6255 Graham Hill Rd,Felton,CA,95018,37.0529651,-122.0687549
463,1757,America/Los_Angeles,Safeway,https://local.safeway.com/safeway/ca/hollister/591-tres-pinos-rd.html,591 Tres Pinos Rd,Hollister,CA,95023,36.8384895,-121.3918151
464,2814,America/Los_Angeles,Safeway,https://local.safeway.com/safeway/ca/los-altos/160-1st-st.html,160 1st St,Los Altos,CA,94022,37.378974470224655,-122.11904516137696
465,2841,America/Los_Angeles,Safeway,https://local.safeway.com/safeway/ca/del-rey-oaks/815-canyon-del-rey-blvd.html,815 Canyon Del Rey Blvd,Del Rey Oaks,CA,93940,36.59778712628898,-121.85038842761269
466,761,America/Los_Angeles,Safeway,https://local.safeway.com/safeway/ca/pacific-grove/1212-forest-ave.html,1212 Forest Ave,Pacific Grove,CA,93950,36.60485766594414,-121.92107039510651
467,706,America/Los_Angeles,Safeway,https://local.safeway.com/safeway/ca/carmel/104-mid-valley-center.html,104 Mid Valley Center,Carmel,CA,93923,36.52247314223728,-121.81020498275757
468,2669,America/Los_Angeles,Safeway,https://local.safeway.com/safeway/ca/carmel/5-crossroads-blvd.html,5 Crossroads Blvd,Carmel,CA,93923,36.53643197578092,-121.91111306078264
469,788,America/Los_Angeles,Safeway,https://local.safeway.com/safeway/ca/mill-valley/1-camino-alto.html,1 Camino Alto,Mill Valley,CA,94941,37.8940869664233,-122.53131716137695
470,2718,America/Los_Angeles,Safeway,https://local.safeway.com/safeway/ca/mill-valley/800-redwood-hwy-frontage-rd--110.html,800 Redwood Hwy Frontage Rd #110,Mill Valley,CA,94941,37.899246496260275,-122.51484045211487
471,785,America/Los_Angeles,Safeway,https://local.safeway.com/safeway/ca/san-francisco/850-la-playa-st.html,850 La Playa St,San Francisco,CA,94121,37.77251376157095,-122.50947650426447
472,1711,America/Los_Angeles,Safeway,https://local.safeway.com/safeway/ca/san-francisco/15-marina-blvd.html,15 Marina Blvd,San Francisco,CA,94123,37.80446714603007,-122.43286506094591
473,2646,America/Los_Angeles,Safeway,https://local.safeway.com/safeway/ca/san-francisco/735-7th-ave.html,735 7th Ave,San Francisco,CA,94118,37.774507955961255,-122.46526206197129
474,2318,America/Los_Angeles,Safeway,https://local.safeway.com/safeway/ca/corte-madera/137-corte-madera-town-ctr.html,137 Corte Madera Town Ctr,Corte Madera,CA,94925,37.9279695,-122.5177114
475,995,America/Los_Angeles,Safeway,https://local.safeway.com/safeway/ca/san-francisco/1335-webster-st.html,1335 Webster St,San Francisco,CA,94115,37.782717634768105,-122.43149802091466
476,985,America/Los_Angeles,Safeway,https://local.safeway.com/safeway/ca/san-francisco/2350-noriega-st.html,2350 Noriega St,San Francisco,CA,94122,37.754172,-122.4888173
477,1507,America/Los_Angeles,Safeway,https://local.safeway.com/safeway/ca/san-francisco/2020-market-st.html,2020 Market St,San Francisco,CA,94114,37.76917545663558,-122.42787480354309
478,4601,America/Los_Angeles,Safeway,https://local.safeway.com/safeway/ca/san-francisco/145-jackson-st.html,145 Jackson St,San Francisco,CA,94111,37.79689897826482,-122.3986159341166
479,909,America/Los_Angeles,Safeway,https://local.safeway.com/safeway/ca/san-francisco/730-taraval-st.html,730 Taraval St,San Francisco,CA,94116,37.7434468,-122.4740564
480,1490,America/Los_Angeles,Safeway,https://local.safeway.com/safeway/ca/san-francisco/2300-16th-st-unit-203.html,2300 16th St Unit 203,San Francisco,CA,94103,37.7669091,-122.4093346
481,2606,America/Los_Angeles,Safeway,https://local.safeway.com/safeway/ca/san-francisco/298-king-st.html,298 King St,San Francisco,CA,94107,37.776778641486,-122.39407171779096
482,667,America/Los_Angeles,Safeway,https://local.safeway.com/safeway/ca/san-francisco/5290-diamond-heights-blvd.html,5290 Diamond Heights Blvd,San Francisco,CA,94131,37.74357069982952,-122.43900636387798
483,739,America/Los_Angeles,Safeway,https://local.safeway.com/safeway/ca/san-francisco/3350-mission-st.html,3350 Mission St,San Francisco,CA,94110,37.743194531962324,-122.42245004342294
484,759,America/Los_Angeles,Safeway,https://local.safeway.com/safeway/ca/san-francisco/625-monterey-blvd.html,625 Monterey Blvd,San Francisco,CA,94127,37.73129574823335,-122.44996834788512
485,964,America/Los_Angeles,Safeway,https://local.safeway.com/safeway/ca/san-francisco/4950-mission-st.html,4950 Mission St,San Francisco,CA,94112,37.719878244696424,-122.43886005033188
486,2940,America/Los_Angeles,Safeway,https://local.safeway.com/safeway/ca/el-cerrito/11450-san-pablo-ave.html,11450 San Pablo Ave,El Cerrito,CA,94530,37.9223669760277,-122.31547148558093
487,676,America/Los_Angeles,Safeway,https://local.safeway.com/safeway/ca/albany/1500-solano-ave.html,1500 Solano Ave,Albany,CA,94707,37.89026962600329,-122.28690595957232
488,691,America/Los_Angeles,Safeway,https://local.safeway.com/safeway/ca/berkeley/1444-shattuck-place.html,1444 Shattuck Place,Berkeley,CA,94709,37.88079066181641,-122.27001982933865
489,2870,America/Los_Angeles,Safeway,https://local.safeway.com/safeway/ca/oakland/6310-college-ave.html,6310 College Ave,Oakland,CA,94618,37.8505799880469,-122.2521212852501
490,967,America/Los_Angeles,Safeway,https://local.safeway.com/safeway/ca/orinda/2-camino-sobrante.html,2 Camino Sobrante,Orinda,CA,94563,37.883810718762696,-122.19098709058017
491,3132,America/Los_Angeles,Safeway,https://local.safeway.com/safeway/ca/oakland/5100-broadway.html,5100 Broadway,Oakland,CA,94611,37.834873607229355,-122.24861882083206
492,774,America/Los_Angeles,Safeway,https://local.safeway.com/safeway/ca/benicia/50-solano-square.html,50 Solano Square,Benicia,CA,94510,38.05479526747755,-122.15592832895709
493,939,America/Los_Angeles,Safeway,https://local.safeway.com/safeway/ca/martinez/3334-alhambra-ave.html,3334 Alhambra Ave,Martinez,CA,94553,38.0007472397193,-122.13303028531952
494,1119,America/Los_Angeles,Safeway,https://local.safeway.com/safeway/ca/oakland/3747-grand-ave.html,3747 Grand Ave,Oakland,CA,94610,37.81728308865214,-122.24568750555726
495,654,America/Los_Angeles,Safeway,https://local.safeway.com/safeway/ca/oakland/2096-mountain-blvd.html,2096 Mountain Blvd,Oakland,CA,94611,37.825454,-122.2088815938484
496,3281,America/Los_Angeles,Safeway,https://local.safeway.com/safeway/ca/alameda/2600-5th-st.html,2600 5th St,Alameda,CA,94501,37.78549742120383,-122.28056788444519
497,908,America/Los_Angeles,Safeway,https://local.safeway.com/safeway/ca/oakland/3550-fruitvale-ave.html,3550 Fruitvale Ave,Oakland,CA,94602,37.801328897628615,-122.21548637605743
498,783,America/Los_Angeles,Safeway,https://local.safeway.com/safeway/ca/lafayette/3540-mt-diablo-blvd.html,3540 Mt Diablo Blvd,Lafayette,CA,94549,37.89285781881071,-122.11946442883605
499,972,America/Los_Angeles,Safeway,https://local.safeway.com/safeway/ca/martinez/6688-alhambra-ave.html,6688 Alhambra Ave,Martinez,CA,94553,37.95792609052568,-122.09395051002502
500,928,America/Los_Angeles,Safeway,https://local.safeway.com/safeway/ca/pleasant-hill/600-patterson-blvd.html,600 Patterson Blvd,Pleasant Hill,CA,94523,37.9341789,-122.0723389
501,638,America/Los_Angeles,Safeway,https://local.safeway.com/safeway/ca/oakland/4100-redwood-rd.html,4100 Redwood Rd,Oakland,CA,94619,37.79832307832353,-122.18244194984436
502,2708,America/Los_Angeles,Safeway,https://local.safeway.com/safeway/ca/alameda/2227-s-shore-ctr.html,2227 S Shore Ctr,Alameda,CA,94501,37.757255517747666,-122.25083360859833
503,969,America/Los_Angeles,Safeway,https://local.safeway.com/safeway/ca/moraga/1355-moraga-way.html,1355 Moraga Way,Moraga,CA,94556,37.836296819128165,-122.12853579629517
504,951,America/Los_Angeles,Safeway,https://local.safeway.com/safeway/ca/alameda/867-island-dr.html,867 Island Dr,Alameda,CA,94502,37.7379044,-122.2394204
505,697,America/Los_Angeles,Safeway,https://local.safeway.com/safeway/ca/walnut-creek/1972-tice-valley-blvd.html,1972 Tice Valley Blvd,Walnut Creek,CA,94595,37.878372271150006,-122.07190946505762
506,994,America/Los_Angeles,Safeway,https://local.safeway.com/safeway/ca/san-leandro/1499-washington-ave.html,1499 Washington Ave,San Leandro,CA,94577,37.72313713423333,-122.15613619254327
507,790,America/Los_Angeles,Safeway,https://local.safeway.com/safeway/ca/san-leandro/555-bancroft-ave.html,555 Bancroft Ave,San Leandro,CA,94577,37.734478148908956,-122.15247229502893
508,2315,America/Los_Angeles,Safeway,https://local.safeway.com/safeway/ca/san-leandro/699-lewelling-blvd.html,699 Lewelling Blvd,San Leandro,CA,94579,37.68933487029175,-122.13829815387726
509,768,America/Los_Angeles,Safeway,https://local.safeway.com/safeway/ca/castro-valley/20629-redwood-rd.html,20629 Redwood Rd,Castro Valley,CA,94546,37.6964207,-122.0751464
510,971,America/Los_Angeles,Safeway,https://local.safeway.com/safeway/ca/hayward/22280-foothill-blvd.html,22280 Foothill Blvd,Hayward,CA,94541,37.679823065462514,-122.08348696382372
511,797,America/Los_Angeles,Safeway,https://local.safeway.com/safeway/ca/hayward/231-w-jackson-st.html,231 W Jackson St,Hayward,CA,94544,37.6526998,-122.0915008
512,3010,America/Los_Angeles,Safeway,https://local.safeway.com/safeway/ca/castro-valley/4015-e-castro-valley-blvd.html,4015 E Castro Valley Blvd,Castro Valley,CA,94552,37.694781,-122.0504044
513,962,America/Los_Angeles,Safeway,https://local.safeway.com/safeway/ca/alamo/200-alamo-plaza.html,200 Alamo Plaza,Alamo,CA,94507,37.850763635807205,-122.0350825767212
514,3026,America/Los_Angeles,Safeway,https://local.safeway.com/safeway/ca/walnut-creek/2800-ygnacio-valley-rd.html,2800 Ygnacio Valley Rd,Walnut Creek,CA,94598,37.92724842930093,-122.01854825019836
515,936,America/Los_Angeles,Safeway,https://local.safeway.com/safeway/ca/walnut-creek/710-bancroft-rd.html,710 Bancroft Rd,Walnut Creek,CA,94598,37.928198058500485,-122.03934247605743
516,917,America/Los_Angeles,Safeway,https://local.safeway.com/safeway/ca/walnut-creek/600-s-broadway.html,600 S Broadway,Walnut Creek,CA,94596,37.89810801953052,-122.05667209014359
517,1195,America/Los_Angeles,Safeway,https://local.safeway.com/safeway/ca/clayton/5431-clayton-rd.html,5431 Clayton Rd,Clayton,CA,94517,37.953745175980195,-121.95345586375427
518,1192,America/Los_Angeles,Safeway,https://local.safeway.com/safeway/ca/concord/4309-clayton-rd.html,4309 Clayton Rd,Concord,CA,94521,37.966126733593235,-121.99071603677064
519,1541,America/Los_Angeles,Safeway,https://local.safeway.com/safeway/ca/pleasant-hill/1978-contra-costa-blvd.html,1978 Contra Costa Blvd,Pleasant Hill,CA,94523,37.948935,-122.0579308
520,955,America/Los_Angeles,Safeway,https://local.safeway.com/safeway/ca/concord/2600-willow-pass-rd.html,2600 Willow Pass Rd,Concord,CA,94519,37.978221499350056,-122.02821091570507
521,2941,America/Los_Angeles,Safeway,https://local.safeway.com/safeway/ca/pleasant-hill/707-contra-costa-blvd.html,707 Contra Costa Blvd,Pleasant Hill,CA,94523,37.9710644,-122.0615782
522,1211,America/Los_Angeles,Safeway,https://local.safeway.com/safeway/ca/danville/3496-camino-tassajara.html,3496 Camino Tassajara,Danville,CA,94506,37.798083584717006,-121.9177857041359
523,982,America/Los_Angeles,Safeway,https://local.safeway.com/safeway/ca/san-ramon/2505-san-ramon-valley-blvd.html,2505 San Ramon Valley Blvd,San Ramon,CA,94583,37.77319957217542,-121.97688817977905
524,1215,America/Los_Angeles,Safeway,https://local.safeway.com/safeway/ca/pittsburg/660-bailey-rd.html,660 Bailey Rd,Pittsburg,CA,94565,38.016088125769315,-121.94353222846985
525,2712,America/Los_Angeles,Safeway,https://local.safeway.com/safeway/ca/san-ramon/11050-bollinger-canyon-rd.html,11050 Bollinger Canyon Rd,San Ramon,CA,94582,37.77486401177679,-121.92206298167093
526,1953,America/Los_Angeles,Safeway,https://local.safeway.com/safeway/ca/dublin/7499-dublin-blvd.html,7499 Dublin Blvd,Dublin,CA,94568,37.7060094,-121.9273886
527,2856,America/Los_Angeles,Safeway,https://local.safeway.com/safeway/ca/pleasanton/6790-bernal-ave.html,6790 Bernal Ave,Pleasanton,CA,94566,37.6560808728586,-121.89952604788513
528,1197,America/Los_Angeles,Safeway,https://local.safeway.com/safeway/ca/union-city/1790-decoto-rd.html,1790 Decoto Rd,Union City,CA,94587,37.587601187689195,-122.01944207909851
529,1224,America/Los_Angeles,Safeway,https://local.safeway.com/safeway/ca/newark/5877-jarvis-ave.html,5877 Jarvis Ave,Newark,CA,94560,37.5518892,-122.0499185
530,1682,America/Los_Angeles,Safeway,https://local.safeway.com/safeway/ca/palo-alto/2811-middlefield-rd.html,2811 Middlefield Rd,Palo Alto,CA,94306,37.4328752,-122.1272763
531,2719,America/Los_Angeles,Safeway,https://local.safeway.com/safeway/ca/menlo-park/525-el-camino-real.html,525 El Camino Real,Menlo Park,CA,94025,37.4505321,-122.1791572
532,305,America/Los_Angeles,Safeway,https://local.safeway.com/safeway/ca/redwood-city/1071-el-camino-real.html,1071 El Camino Real,Redwood City,CA,94063,37.484634518618435,-122.23044996315821
533,999,America/Los_Angeles,Safeway,https://local.safeway.com/safeway/ca/foster-city/921-e-hillsdale-blvd.html,921 E Hillsdale Blvd,Foster City,CA,94404,37.5568552,-122.2757994
534,1709,America/Los_Angeles,Safeway,https://local.safeway.com/safeway/ca/menlo-park/325-s-sharon-park-dr.html,325 S Sharon Park Dr,Menlo Park,CA,94025,37.42344220611438,-122.19700367764744
535,747,America/Los_Angeles,Safeway,https://local.safeway.com/safeway/ca/redwood-city/850-woodside-rd.html,850 Woodside Rd,Redwood City,CA,94061,37.46568,-122.2253797
536,1138,America/Los_Angeles,Safeway,https://local.safeway.com/safeway/ca/belmont/1100-el-camino.html,1100 El Camino,Belmont,CA,94002,37.51867425403605,-122.27583110332489
537,970,America/Los_Angeles,Safeway,https://local.safeway.com/safeway/ca/san-mateo/1655-el-camino-real.html,1655 El Camino Real,San Mateo,CA,94402,37.5532143,-122.3136738
538,668,America/Los_Angeles,Safeway,https://local.safeway.com/safeway/ca/belmont/2100-ralston-ave.html,2100 Ralston Ave,Belmont,CA,94002,37.512294044261786,-122.29562227780207
539,694,America/Los_Angeles,Safeway,https://local.safeway.com/safeway/ca/san-mateo/860-n-delaware-st.html,860 N Delaware St,San Mateo,CA,94401,37.58036693509351,-122.33282402157784
540,639,America/Los_Angeles,Safeway,https://local.safeway.com/safeway/ca/san-mateo/100-de-anza-blvd.html,100 De Anza Blvd,San Mateo,CA,94402,37.5208108,-122.337834
541,1547,America/Los_Angeles,Safeway,https://local.safeway.com/safeway/ca/burlingame/1450-howard-ave.html,1450 Howard Ave,Burlingame,CA,94010,37.576421,-122.3482986
542,2878,America/Los_Angeles,Safeway,https://local.safeway.com/safeway/ca/millbrae/525-el-camino-real.html,525 El Camino Real,Millbrae,CA,94030,37.60336988650399,-122.39421311085607
543,308,America/Los_Angeles,Safeway,https://local.safeway.com/safeway/ca/half-moon-bay/70-cabrillo-hwy.html,70 Cabrillo Hwy,Half Moon Bay,CA,94019,37.4692701546819,-122.43613868951797
544,777,America/Los_Angeles,Safeway,https://local.safeway.com/safeway/ca/south-san-francisco/30-chestnut-ave.html,30 Chestnut Ave,South San Francisco,CA,94080,37.65555572895225,-122.43162319825387
545,3116,America/Los_Angeles,Safeway,https://local.safeway.com/safeway/ca/south-san-francisco/2255-gellert-blvd.html,2255 Gellert Blvd,South San Francisco,CA,94080,37.64658654528197,-122.45203378413086
546,304,America/Los_Angeles,Safeway,https://local.safeway.com/safeway/ca/pacifica/1380-linda-mar-shopping-center.html,1380 Linda Mar Shopping Center,Pacifica,CA,94044,37.594446,-122.5029562
547,2843,America/Los_Angeles,Safeway,https://local.safeway.com/safeway/ca/pacifica/709-hickey-blvd.html,709 Hickey Blvd,Pacifica,CA,94044,37.6610701,-122.4776216
548,3008,America/Los_Angeles,Safeway,https://local.safeway.com/safeway/ca/pacifica/12-manor-plz.html,12 Manor Plz,Pacifica,CA,94044,37.650237,-122.4918734
549,3031,America/Los_Angeles,Safeway,https://local.safeway.com/safeway/ca/daly-city/601-westlake-ctr.html,601 Westlake Ctr,Daly City,CA,94015,37.69961233917686,-122.48155788348413
550,1232,America/Los_Angeles,Safeway,https://local.safeway.com/safeway/ca/king-city/530-canal-st.html,530 Canal St,King City,CA,93930,36.2044585,-121.1332737
551,248,America/Phoenix,Safeway,https://local.safeway.com/safeway/az/bullhead-city/1751-hwy-95.html,1751 Hwy 95,Bullhead City,AZ,86442,35.12186584150059,-114.58853693338824
552,1474,America/Phoenix,Safeway,https://local.safeway.com/safeway/az/fort-mohave/4823-s-hwy-95.html,4823 S Hwy 95,Fort Mohave,AZ,86426,35.01663370851899,-114.59944144652582
553,2017,America/Phoenix,Safeway,https://local.safeway.com/safeway/az/kingman/3125-stockton-hill-rd.html,3125 Stockton Hill Rd,Kingman,AZ,86401,35.214612905891066,-114.03692722320557
554,1887,America/Phoenix,Safeway,https://local.safeway.com/safeway/az/kingman/3970-stockton-hill-rd.html,3970 Stockton Hill Rd,Kingman,AZ,86409,35.23822204433013,-114.03589255211487
555,216,America/Phoenix,Safeway,https://local.safeway.com/safeway/az/lake-havasu-city/1650-mcculloch-blvd-n.html,1650 Mcculloch Blvd N,Lake Havasu City,AZ,86403,34.474153140560546,-114.34203635886078
556,1207,America/Phoenix,Safeway,https://local.safeway.com/safeway/az/sedona/2300-w-hwy-89a.html,2300 W Hwy 89A,Sedona,AZ,86336,34.864679647119544,-111.80037101719665
557,2052,America/Phoenix,Safeway,https://local.safeway.com/safeway/az/cottonwood/1635-e-cottonwood-ln.html,1635 E Cottonwood Ln,Cottonwood,AZ,86326,34.7274175064061,-112.00774224134875
558,1055,America/Phoenix,Safeway,https://local.safeway.com/safeway/az/prescott-valley/7720-e-hwy-69.html,7720 E Hwy 69,Prescott Valley,AZ,86314,34.58734696669183,-112.32988760636545
559,1747,America/Phoenix,Safeway,https://local.safeway.com/safeway/az/chino-valley/1031-n-us-hwy-89.html,1031 N US Hwy 89,Chino Valley,AZ,86323,34.7611574,-112.4518564
560,245,America/Phoenix,Safeway,https://local.safeway.com/safeway/az/prescott/1044-willow-creek-rd.html,1044 Willow Creek Rd,Prescott,AZ,86301,34.5614943,-112.4844373
561,274,America/Phoenix,Safeway,https://local.safeway.com/safeway/az/prescott/450-white-spar-rd.html,450 White Spar Rd,Prescott,AZ,86303,34.531131586805174,-112.4748033285141
562,1639,America/Phoenix,Safeway,https://local.safeway.com/safeway/az/williams/637-w-route-66.html,637 W Route 66,Williams,AZ,86046,35.2481612,-112.1943061
563,249,America/Phoenix,Safeway,https://local.safeway.com/safeway/az/page/650-elm-st.html,650 Elm St,Page,AZ,86040,36.9158505,-111.457642
564,3189,America/Phoenix,Safeway,https://local.safeway.com/safeway/az/holbrook/702-w-hopi-dr.html,702 W Hopi Dr,Holbrook,AZ,86025,34.9032296,-110.167096
565,270,America/Phoenix,Safeway,https://local.safeway.com/safeway/az/flagstaff/4910-n-hwy-89.html,4910 N Hwy 89,Flagstaff,AZ,86004,35.22591258418969,-111.57858343454791
566,1225,America/Phoenix,Safeway,https://local.safeway.com/safeway/az/flagstaff/1500-e-cedar-ave.html,1500 E Cedar Ave,Flagstaff,AZ,86004,35.21989059783979,-111.62197786829483
567,2028,America/Phoenix,Safeway,https://local.safeway.com/safeway/az/flagstaff/1201-s-plaza-way.html,1201 S Plaza Way,Flagstaff,AZ,86001,35.1894482,-111.6635973
568,2069,America/Phoenix,Safeway,https://local.safeway.com/safeway/az/pinetop-lakeside/20-w-white-mountain-blvd.html,20 W White Mountain Blvd,Pinetop-Lakeside,AZ,85935,34.14305412688772,-109.95433220370482
569,1733,America/Phoenix,Safeway,https://local.safeway.com/safeway/az/show-low/900-w-deuce-of-clubs.html,900 W Deuce Of Clubs,Show Low,AZ,85901,34.2466621,-110.0521621
570,267,America/Phoenix,Safeway,https://local.safeway.com/safeway/az/tucson/2940-w-valencia-rd.html,2940 W Valencia Rd,Tucson,AZ,85746,32.1351974959871,-111.02990002962542
571,255,America/Phoenix,Safeway,https://local.safeway.com/safeway/az/tucson/1551-w-st-marys-rd.html,1551 W St Marys Rd,Tucson,AZ,85745,32.2275776,-110.9979842
572,1983,America/Phoenix,Safeway,https://local.safeway.com/safeway/az/tucson/2140-w-grant-rd.html,2140 W Grant Rd,Tucson,AZ,85745,32.2523408,-111.0124587
573,1684,America/Phoenix,Safeway,https://local.safeway.com/safeway/az/tucson/1940-e-broadway-blvd.html,1940 E Broadway Blvd,Tucson,AZ,85719,32.2200633462495,-110.94295554662705
574,1771,America/Phoenix,Safeway,https://local.safeway.com/safeway/az/sahuarita/1305-w-duval-mine-rd.html,1305 W Duval Mine Rd,Sahuarita,AZ,85614,31.900868969371462,-110.99268168210983
575,2060,America/Phoenix,Safeway,https://local.safeway.com/safeway/az/tucson/1767-e-prince-rd.html,1767 E Prince Rd,Tucson,AZ,85719,32.27364476233235,-110.94526206309183
576,1874,America/Phoenix,Safeway,https://local.safeway.com/safeway/az/tucson/6360-e-golf-links-rd.html,6360 E Golf Links Rd,Tucson,AZ,85730,32.1902082,-110.8560089
577,2044,America/Phoenix,Safeway,https://local.safeway.com/safeway/az/green-valley/260-w-continental-rd.html,260 W Continental Rd,Green Valley,AZ,85614,31.852782781101087,-110.9966129958957
578,1986,America/Phoenix,Safeway,https://local.safeway.com/safeway/az/tucson/9050-e-valencia-rd.html,9050 E Valencia Rd,Tucson,AZ,85747,32.1179095,-110.7989389
579,1255,America/Phoenix,Safeway,https://local.safeway.com/safeway/az/tucson/7110-n-oracle-rd.html,7110 N Oracle Rd,Tucson,AZ,85704,32.33583204813368,-110.97474843263626
580,1749,America/Phoenix,Safeway,https://local.safeway.com/safeway/az/tucson/9100-n-silverbell-rd.html,9100 N Silverbell Rd,Tucson,AZ,85743,32.3724399,-111.1368243
581,1988,America/Phoenix,Safeway,https://local.safeway.com/safeway/az/tucson/7177-e-tanque-verde-rd.html,7177 E Tanque Verde Rd,Tucson,AZ,85715,32.25196251037697,-110.83906755612588
582,1989,America/Phoenix,Safeway,https://local.safeway.com/safeway/az/tucson/9460-e-golf-links-rd.html,9460 E Golf Links Rd,Tucson,AZ,85730,32.1902766,-110.791055
583,2809,America/Phoenix,Safeway,https://local.safeway.com/safeway/az/vail/13380-e-mary-ann-cleveland-way.html,13380 E Mary Ann Cleveland Way,Vail,AZ,85641,32.05008367324403,-110.70874867301637
584,3322,America/Phoenix,Safeway,https://local.safeway.com/safeway/az/tucson/10380-e-broadway-blvd.html,10380 E Broadway Blvd,Tucson,AZ,85748,32.2195745,-110.7713201
585,1984,America/Phoenix,Safeway,https://local.safeway.com/safeway/az/tucson/9125-e-tanque-verde.html,9125 E Tanque Verde,Tucson,AZ,85749,32.2590199,-110.7970223
586,250,America/Phoenix,Safeway,https://local.safeway.com/safeway/az/tucson/4752-e-sunrise-dr.html,4752 E Sunrise Dr,Tucson,AZ,85718,32.30723397664501,-110.89134782552719
587,1521,America/Phoenix,Safeway,https://local.safeway.com/safeway/az/oro-valley/12122-n-rancho-vistoso-blvd.html,12122 N Rancho Vistoso Blvd,Oro Valley,AZ,85755,32.4268018,-110.9594661
588,2083,America/Phoenix,Safeway,https://local.safeway.com/safeway/az/sierra-vista/2190-e-fry-blvd.html,2190 E Fry Blvd,Sierra Vista,AZ,85635,31.5531021,-110.2756957
589,261,America/Phoenix,Safeway,https://local.safeway.com/safeway/az/bisbee/101-naco-hwy.html,101 Naco Hwy,Bisbee,AZ,85603,31.401251151082597,-109.91726618212222
590,1229,America/Phoenix,Safeway,https://local.safeway.com/safeway/az/nogales/465-w-mariposa-rd.html,465 W Mariposa Rd,Nogales,AZ,85621,31.364376795390786,-110.94044355767213
591,272,America/Phoenix,Safeway,https://local.safeway.com/safeway/az/willcox/650-n-bisbee-ave.html,650 N Bisbee Ave,Willcox,AZ,85643,32.263180568334974,-109.84233053060962
592,1275,America/Phoenix,Safeway,https://local.safeway.com/safeway/az/benson/599-w-4th-st.html,599 W 4th St,Benson,AZ,85602,31.969117,-110.3067618
593,2648,America/Phoenix,Safeway,https://local.safeway.com/safeway/az/thatcher/2125-w-hwy-70.html,2125 W Hwy 70,Thatcher,AZ,85552,32.8353838,-109.7343432
594,1536,America/Phoenix,Safeway,https://local.safeway.com/safeway/az/payson/401-state-route-260.html,401 State Route 260,Payson,AZ,85541,34.23962981658288,-111.3176887259227
595,3187,America/Phoenix,Safeway,https://local.safeway.com/safeway/az/globe/240-s-hill-st.html,240 S Hill St,Globe,AZ,85501,33.39477654891589,-110.78570465644874
596,48,America/Phoenix,Safeway,https://local.safeway.com/safeway/az/surprise/17230-w-peoria.html,17230 W Peoria,Surprise,AZ,85388,33.5827852,-112.4299481
597,1997,America/Phoenix,Safeway,https://local.safeway.com/safeway/az/surprise/17049-w-bell-rd.html,17049 W Bell Rd,Surprise,AZ,85374,33.63735505569853,-112.425367617791
598,2618,America/Phoenix,Safeway,https://local.safeway.com/safeway/az/goodyear/440-n-estrella-pkwy.html,440 N Estrella Pkwy,Goodyear,AZ,85338,33.451463396726986,-112.39452285833586
599,3151,America/Phoenix,Safeway,https://local.safeway.com/safeway/az/goodyear/9890-s-estrella-pkwy.html,9890 S Estrella Pkwy,Goodyear,AZ,85338,33.357712122685776,-112.42843866348261
600,1511,America/Phoenix,Safeway,https://local.safeway.com/safeway/az/goodyear/14175-w-indian-school-rd.html,14175 W Indian School Rd,Goodyear,AZ,85395,33.48386556916229,-112.36406564712524
601,1662,America/Phoenix,Safeway,https://local.safeway.com/safeway/az/peoria/10641-w-olive-ave.html,10641 W Olive Ave,Peoria,AZ,85345,33.5638918,-112.2885427
602,1654,America/Phoenix,Safeway,https://local.safeway.com/safeway/az/phoenix/4811-n-83rd-ave.html,4811 N 83rd Ave,Phoenix,AZ,85033,33.5075978,-112.235956
603,2699,America/Phoenix,Safeway,https://local.safeway.com/safeway/az/surprise/13828-w-waddell-rd.html,13828 W Waddell Rd,Surprise,AZ,85379,33.61054380664198,-112.35733161045074
604,1841,America/Phoenix,Safeway,https://local.safeway.com/safeway/az/peoria/12320-n-83rd-ave.html,12320 N 83rd Ave,Peoria,AZ,85381,33.5964741,-112.2398278
605,2054,America/Phoenix,Safeway,https://local.safeway.com/safeway/az/sun-city-west/13503-camino-del-sol.html,13503 Camino Del Sol,Sun City West,AZ,85375,33.65496981242139,-112.35022929814758
606,236,America/Phoenix,Safeway,https://local.safeway.com/safeway/az/sun-city/10926-w-bell-rd.html,10926 W Bell Rd,Sun City,AZ,85351,33.6387498,-112.2920544
607,2709,America/Phoenix,Safeway,https://local.safeway.com/safeway/az/laveen/5035-w-baseline-rd.html,5035 W Baseline Rd,Laveen,AZ,85339,33.3762559,-112.1661856
608,1510,America/Phoenix,Safeway,https://local.safeway.com/safeway/az/glendale/20205-n-67th-ave--100.html,20205 N 67th Ave #100,Glendale,AZ,85308,33.66934964305926,-112.20031142234802
609,174,America/Phoenix,Safeway,https://local.safeway.com/safeway/az/phoenix/520-w-osborn-rd.html,520 W Osborn Rd,Phoenix,AZ,85013,33.4885441,-112.0816908
610,2651,America/Phoenix,Safeway,https://local.safeway.com/safeway/az/phoenix/340-e-mcdowell-rd.html,340 E Mcdowell Rd,Phoenix,AZ,85004,33.4662267,-112.0672072
611,1515,America/Phoenix,Safeway,https://local.safeway.com/safeway/az/phoenix/810-e-glendale-ave.html,810 E Glendale Ave,Phoenix,AZ,85020,33.5393924,-112.0624304
612,1584,America/Phoenix,Safeway,https://local.safeway.com/safeway/az/wickenburg/1999-w-wickenburg-way.html,1999 W Wickenburg Way,Wickenburg,AZ,85390,33.96104042914126,-112.7709197576721
613,2799,America/Phoenix,Safeway,https://local.safeway.com/safeway/az/peoria/28455-n-vistancia-blvd.html,28455 N Vistancia Blvd,Peoria,AZ,85383,33.74076634270369,-112.3205468210835
614,240,America/Phoenix,Safeway,https://local.safeway.com/safeway/az/phoenix/3450-w-bell-rd.html,3450 W Bell Rd,Phoenix,AZ,85053,33.6407219,-112.1336532
615,2821,America/Phoenix,Safeway,https://local.safeway.com/safeway/az/glendale/3800-w-happy-valley-rd.html,3800 W Happy Valley Rd,Glendale,AZ,85310,33.71440466834217,-112.14109006137699
616,3334,America/Phoenix,Safeway,https://local.safeway.com/safeway/az/anthem/3655-w-anthem-way.html,3655 W Anthem Way,Anthem,AZ,85086,33.86517528916469,-112.13895414113922
617,413,America/Phoenix,Safeway,https://local.safeway.com/safeway/az/phoenix/550-e-bell-rd.html,550 E Bell Rd,Phoenix,AZ,85022,33.6415421,-112.0669963
618,1543,America/Phoenix,Safeway,https://local.safeway.com/safeway/az/cave-creek/29834-n-cave-creek-rd.html,29834 N Cave Creek Rd,Cave Creek,AZ,85331,33.75780997805064,-111.99162950185243
619,1979,America/Phoenix,Safeway,https://local.safeway.com/safeway/az/phoenix/13440-n-7th-st.html,13440 N 7th St,Phoenix,AZ,85022,33.608899548778545,-112.06695333884454
620,1591,America/Phoenix,Safeway,https://local.safeway.com/safeway/az/phoenix/6202-s-16th-st.html,6202 S 16th St,Phoenix,AZ,85042,33.390437289494045,-112.04936072991592
621,1980,America/Phoenix,Safeway,https://local.safeway.com/safeway/az/phoenix/1334-e-chandler-blvd.html,1334 E Chandler Blvd,Phoenix,AZ,85048,33.3069853,-112.0537421
622,2042,America/Phoenix,Safeway,https://local.safeway.com/safeway/az/phoenix/3132-e-camelback-rd.html,3132 E Camelback Rd,Phoenix,AZ,85016,33.5115084,-112.0146458
623,2075,America/Phoenix,Safeway,https://local.safeway.com/safeway/az/parker/121-w-riverside-dr.html,121 W Riverside Dr,Parker,AZ,85344,34.1546322,-114.2756929
624,1201,America/Phoenix,Safeway,https://local.safeway.com/safeway/az/phoenix/4005-e-chandler-blvd.html,4005 E Chandler Blvd,Phoenix,AZ,85048,33.3030388,-111.9963435
625,752,America/Phoenix,Safeway,https://local.safeway.com/safeway/az/phoenix/4747-e-elliot-rd.html,4747 E Elliot Rd,Phoenix,AZ,85044,33.3479247,-111.9819723
626,1849,America/Phoenix,Safeway,https://local.safeway.com/safeway/az/scottsdale/32551-n-scottsdale-rd.html,32551 N Scottsdale Rd,Scottsdale,AZ,85266,33.78112257191418,-111.92228436470026
627,1253,America/Phoenix,Safeway,https://local.safeway.com/safeway/az/scottsdale/23565-n-scottsdale-rd.html,23565 N Scottsdale Rd,Scottsdale,AZ,85255,33.69998433155652,-111.92299622303835
628,1663,America/Phoenix,Safeway,https://local.safeway.com/safeway/az/scottsdale/20901-n-pima-rd.html,20901 N Pima Rd,Scottsdale,AZ,85255,33.6757719,-111.8881996
629,1750,America/Phoenix,Safeway,https://local.safeway.com/safeway/az/scottsdale/6501-e-greenway-pkwy-bldg-4.html,6501 E Greenway Pkwy Bldg 4,Scottsdale,AZ,85254,33.6241041,-111.9416231
630,2097,America/Phoenix,Safeway,https://local.safeway.com/safeway/az/phoenix/4747-e-greenway-rd.html,4747 E Greenway Rd,Phoenix,AZ,85032,33.62444682132005,-111.97906512883607
631,1549,America/Phoenix,Safeway,https://local.safeway.com/safeway/az/scottsdale/14696-n-frank-lloyd-wright-blvd.html,14696 N Frank Lloyd Wright Blvd,Scottsdale,AZ,85260,33.619372453704706,-111.87515258789057
632,1819,America/Phoenix,Safeway,https://local.safeway.com/safeway/az/queen-creek/18495-e-queen-creek-rd.html,18495 E Queen Creek Rd,Queen Creek,AZ,85142,33.2648329,-111.6839415
633,1534,America/Phoenix,Safeway,https://local.safeway.com/safeway/az/gilbert/90-s-val-vista-dr.html,90 S Val Vista Dr,Gilbert,AZ,85296,33.3487111,-111.7570976
634,1566,America/Phoenix,Safeway,https://local.safeway.com/safeway/az/chandler/4970-s-alma-school-rd.html,4970 S Alma School Rd,Chandler,AZ,85248,33.233711558973006,-111.86043798923492
635,1605,America/Phoenix,Safeway,https://local.safeway.com/safeway/az/chandler/1060-e-ray-rd.html,1060 E Ray Rd,Chandler,AZ,85225,33.3222516,-111.8219876
636,1604,America/Phoenix,Safeway,https://local.safeway.com/safeway/az/chandler/1159-w-chandler-blvd.html,1159 W Chandler Blvd,Chandler,AZ,85224,33.3040668,-111.8630172
637,3173,America/Phoenix,Safeway,https://local.safeway.com/safeway/az/queen-creek/40950-n-ironwood-rd.html,40950 N Ironwood Rd,Queen Creek,AZ,85140,33.25109855932851,-111.56517482579498
638,1748,America/Phoenix,Safeway,https://local.safeway.com/safeway/az/gilbert/5137-e-baseline-rd.html,5137 E Baseline Rd,Gilbert,AZ,85234,33.3777118,-111.7239269
639,2922,America/Phoenix,Safeway,https://local.safeway.com/safeway/az/mesa/4316-s-signal-butte-rd.html,4316 S Signal Butte Rd,Mesa,AZ,85212,33.33709657834996,-111.60271903624573
640,1637,America/Phoenix,Safeway,https://local.safeway.com/safeway/az/mesa/3622-e-southern-ave.html,3622 E Southern Ave,Mesa,AZ,85206,33.39520742249078,-111.75219745966388
641,247,America/Phoenix,Safeway,https://local.safeway.com/safeway/az/mesa/1225-w-guadalupe.html,1225 W Guadalupe,Mesa,AZ,85202,33.3630438,-111.8598293
642,1535,America/Phoenix,Safeway,https://local.safeway.com/safeway/az/tempe/1515-e-elliot-rd.html,1515 E Elliot Rd,Tempe,AZ,85284,33.3482025,-111.9136415
643,253,America/Phoenix,Safeway,https://local.safeway.com/safeway/az/apache-junction/3185-w-apache-trail.html,3185 W Apache Trail,Apache Junction,AZ,85120,33.4137583,-111.5796708
644,2644,America/Phoenix,Safeway,https://local.safeway.com/safeway/az/mesa/1855-n-power-rd.html,1855 N Power Rd,Mesa,AZ,85205,33.449862154846855,-111.68231511408615
645,1717,America/Phoenix,Safeway,https://local.safeway.com/safeway/az/mesa/1902-w-main-st.html,1902 W Main St,Mesa,AZ,85201,33.41646434952021,-111.87315934157886
646,1487,America/Phoenix,Safeway,https://local.safeway.com/safeway/az/tempe/926-e-broadway-rd.html,926 E Broadway Rd,Tempe,AZ,85282,33.40901629270651,-111.92516152912958
647,2716,America/Phoenix,Safeway,https://local.safeway.com/safeway/az/phoenix/4750-e-indian-school-rd.html,4750 E Indian School Rd,Phoenix,AZ,85018,33.4959552,-111.9792697
648,1491,America/Phoenix,Safeway,https://local.safeway.com/safeway/az/scottsdale/7920-e-chaparral-rd.html,7920 E Chaparral Rd,Scottsdale,AZ,85250,33.5105038,-111.9104323
649,2032,America/Phoenix,Safeway,https://local.safeway.com/safeway/az/scottsdale/10773-n-scottsdale-rd.html,10773 N Scottsdale Rd,Scottsdale,AZ,85254,33.5843321,-111.9245641
650,1291,America/Phoenix,Safeway,https://local.safeway.com/safeway/az/fountain-hills/13733-fountain-hills-blvd.html,13733 Fountain Hills Blvd,Fountain Hills,AZ,85268,33.6097092,-111.7277407
651,1706,America/Phoenix,Safeway,https://local.safeway.com/safeway/az/casa-grande/1637-n-trekell-rd.html,1637 N Trekell Rd,Casa Grande,AZ,85122,32.8954328,-111.7415593
652,1732,America/Phoenix,Safeway,https://local.safeway.com/safeway/az/coolidge/1449-n-arizona-blvd.html,1449 N Arizona Blvd,Coolidge,AZ,85128,32.9939378,-111.5215426
653,2835,America/Phoenix,Safeway,https://local.safeway.com/safeway/az/florence/3325-n-hunt-hwy.html,3325 N Hunt Hwy,Florence,AZ,85132,33.0625793,-111.4835732
654,631,America/Denver,Safeway,https://local.safeway.com/safeway/co/vail/2131-n-frontage-rd-w.html,2131 N Frontage Rd W,Vail,CO,81657,39.6309556,-106.4178721
655,836,America/Denver,Safeway,https://local.safeway.com/safeway/co/frisco/1008-summit-blvd.html,1008 Summit Blvd,Frisco,CO,80443,39.5899043,-106.0967793
656,897,America/Denver,Safeway,https://local.safeway.com/safeway/co/grand-junction/2512-broadway.html,2512 Broadway,Grand Junction,CO,81507,39.066816552641136,-108.58868209134016
657,2625,America/Denver,Safeway,https://local.safeway.com/safeway/co/grand-junction/681-horizon-dr.html,681 Horizon Dr,Grand Junction,CO,81506,39.1041113,-108.5513177
658,1533,America/Denver,Safeway,https://local.safeway.com/safeway/co/grand-junction/2901-f-rd.html,2901 F Rd,Grand Junction,CO,81504,39.09046244857038,-108.5137055558197
659,1863,America/Denver,Safeway,https://local.safeway.com/safeway/co/delta/1550-hwy-92.html,1550 Hwy 92,Delta,CO,81416,38.750884251730156,-108.05179277116395
660,1131,America/Denver,Safeway,https://local.safeway.com/safeway/co/montrose/1329-s-townsend-ave.html,1329 S Townsend Ave,Montrose,CO,81401,38.4693379,-107.8654164
661,1892,America/Denver,Safeway,https://local.safeway.com/safeway/co/cortez/1580-e-main-st.html,1580 E Main St,Cortez,CO,81321,37.3500992,-108.5656188
662,617,America/Denver,Safeway,https://local.safeway.com/safeway/co/gunnison/112-s-spruce-st.html,112 S Spruce St,Gunnison,CO,81230,38.543712,-106.9301024
663,3728,America/Denver,Safeway,https://local.safeway.com/safeway/co/canon-city/1414-main-st.html,1414 Main St,Canon City,CO,81212,38.44591350277613,-105.22811482645874
664,1760,America/Denver,Safeway,https://local.safeway.com/safeway/co/pueblo/1017-n-market-plaza.html,1017 N Market Plaza,Pueblo,CO,81007,38.3257226,-104.6972744
665,2817,America/Denver,Safeway,https://local.safeway.com/safeway/co/salida/232-g-st.html,232 G St,Salida,CO,81201,38.53613279747375,-105.99445090459085
666,2810,America/Denver,Safeway,https://local.safeway.com/safeway/co/monte-vista/1200-2nd-ave.html,1200 2nd Ave,Monte Vista,CO,81144,37.5783959,-106.1421343
667,1681,America/Denver,Safeway,https://local.safeway.com/safeway/co/alamosa/1301-main-st.html,1301 Main St,Alamosa,CO,81101,37.4693137,-105.8763895
668,722,America/Denver,Safeway,https://local.safeway.com/safeway/co/trinidad/457-w-main-st.html,457 W Main St,Trinidad,CO,81082,37.167316445878754,-104.5094664772461
669,1721,America/Denver,Safeway,https://local.safeway.com/safeway/co/lamar/906-e-olive-st.html,906 E Olive St,Lamar,CO,81052,38.0876772,-102.6081498
670,3723,America/Denver,Safeway,https://local.safeway.com/safeway/co/la-junta/315-w-2nd-st.html,315 W 2nd St,La Junta,CO,81050,37.9871888,-103.5478341
671,1975,America/Denver,Safeway,https://local.safeway.com/safeway/co/fountain/6925-mesa-ridge-pkwy.html,6925 Mesa Ridge Pkwy,Fountain,CO,80817,38.716246231483446,-104.69903732479906
672,3729,America/Denver,Safeway,https://local.safeway.com/safeway/co/pueblo/1231-s-prairie-ave.html,1231 S Prairie Ave,Pueblo,CO,81005,38.2449518,-104.6442216
673,803,America/Denver,Safeway,https://local.safeway.com/safeway/co/colorado-springs/7055-austin-bluffs-pkwy.html,7055 Austin Bluffs Pkwy,Colorado Springs,CO,80923,38.932616,-104.7387941
674,1499,America/Denver,Safeway,https://local.safeway.com/safeway/co/colorado-springs/2890-n-powers.html,2890 N Powers,Colorado Springs,CO,80922,38.8740272,-104.7220866
675,840,America/Denver,Safeway,https://local.safeway.com/safeway/co/colorado-springs/8750-n-union-blvd.html,8750 N Union Blvd,Colorado Springs,CO,80920,38.9587517,-104.7670256
676,835,America/Denver,Safeway,https://local.safeway.com/safeway/co/colorado-springs/5060-n-academy-blvd.html,5060 N Academy Blvd,Colorado Springs,CO,80918,38.903781,-104.7773364
677,1644,America/Denver,Safeway,https://local.safeway.com/safeway/co/falcon/7655-mclaughlin-rd.html,7655 Mclaughlin Rd,Falcon,CO,80831,38.94170377976243,-104.6016813289043
678,1466,America/Denver,Safeway,https://local.safeway.com/safeway/co/colorado-springs/1121-n-circle-dr.html,1121 N Circle Dr,Colorado Springs,CO,80909,38.8485399,-104.7724144
679,812,America/Denver,Safeway,https://local.safeway.com/safeway/co/colorado-springs/2210-n-wahsatch-ave.html,2210 N Wahsatch Ave,Colorado Springs,CO,80907,38.8644506,-104.8171112
680,2839,America/Denver,Safeway,https://local.safeway.com/safeway/co/colorado-springs/840-village-ctr-dr.html,840 Village Ctr Dr,Colorado Springs,CO,80919,38.923760094986044,-104.84415650185241
681,879,America/Denver,Safeway,https://local.safeway.com/safeway/co/colorado-springs/4405-centennial-blvd.html,4405 Centennial Blvd,Colorado Springs,CO,80907,38.89483423484888,-104.84991995617747
682,1792,America/Denver,Safeway,https://local.safeway.com/safeway/co/colorado-springs/1425-s-murray-blvd.html,1425 S Murray Blvd,Colorado Springs,CO,80916,38.8125105,-104.7463599
683,1286,America/Denver,Safeway,https://local.safeway.com/safeway/co/colorado-springs/3275-w-colorado-ave.html,3275 W Colorado Ave,Colorado Springs,CO,80904,38.854877944744224,-104.87698765131427
684,2816,America/Denver,Safeway,https://local.safeway.com/safeway/co/colorado-springs/1920-s-nevada-ave.html,1920 S Nevada Ave,Colorado Springs,CO,80905,38.80613623110853,-104.82361332275389
685,1577,America/Denver,Safeway,https://local.safeway.com/safeway/co/colorado-springs/6520-s-academy-blvd.html,6520 S Academy Blvd,Colorado Springs,CO,80906,38.7673968,-104.8149995
686,1440,America/Denver,Safeway,https://local.safeway.com/safeway/co/monument/624-hwy-105.html,624 Hwy 105,Monument,CO,80132,39.0989466,-104.8655165
687,1578,America/Denver,Safeway,https://local.safeway.com/safeway/co/woodland-park/1101-e-us-hwy-24.html,1101 E US Hwy 24,Woodland Park,CO,80863,38.9825683,-105.0468964
688,2341,America/Denver,Safeway,https://local.safeway.com/safeway/co/fort-morgan/620-w-platte-ave.html,620 W Platte Ave,Fort Morgan,CO,80701,40.2532626,-103.8101461
689,892,America/Denver,Safeway,https://local.safeway.com/safeway/co/thornton/3840-e-104th-ave.html,3840 E 104th Ave,Thornton,CO,80233,39.88322792183813,-104.94245061982838
690,1873,America/Denver,Safeway,https://local.safeway.com/safeway/co/thornton/771-thornton-pkwy.html,771 Thornton Pkwy,Thornton,CO,80229,39.8721305,-104.9759589
691,881,America/Denver,Safeway,https://local.safeway.com/safeway/co/northglenn/500-e-120th-ave.html,500 E 120th Ave,Northglenn,CO,80233,39.9122923,-104.9809468
692,1635,America/Denver,Safeway,https://local.safeway.com/safeway/co/federal-heights/10300-federal-blvd.html,10300 Federal Blvd,Federal Heights,CO,80260,39.88351923268652,-105.02264657600233
693,2917,America/Denver,Safeway,https://local.safeway.com/safeway/co/brighton/1605-bridge-st.html,1605 Bridge St,Brighton,CO,80601,39.9879453,-104.801487
694,2714,America/Denver,Safeway,https://local.safeway.com/safeway/co/denver/6220-e-14th-ave.html,6220 E 14th Ave,Denver,CO,80220,39.7372303,-104.9155637
695,2624,America/Denver,Safeway,https://local.safeway.com/safeway/co/broomfield/3602-w-144th-ave.html,3602 W 144th Ave,Broomfield,CO,80023,39.956522091369344,-105.0354659557342
696,2246,America/Denver,Safeway,https://local.safeway.com/safeway/co/denver/757-e-20th-ave.html,757 E 20th Ave,Denver,CO,80205,39.7486925,-104.9775013
697,3836,America/Denver,Safeway,https://local.safeway.com/safeway/co/denver/200-quebec-st--400.html,200 Quebec St #400,Denver,CO,80230,39.7202348,-104.9009919
698,244,America/Denver,Safeway,https://local.safeway.com/safeway/co/denver/3800-w-44th-ave.html,3800 W 44th Ave,Denver,CO,80211,39.7761908,-105.0367947
699,1998,America/Denver,Safeway,https://local.safeway.com/safeway/co/arvada/7561-w-80th-ave.html,7561 W 80th Ave,Arvada,CO,80003,39.8435016,-105.0807886
700,1248,America/Denver,Safeway,https://local.safeway.com/safeway/co/denver/2660-n-federal-blvd.html,2660 N Federal Blvd,Denver,CO,80211,39.755634,-105.0242664
701,1614,America/Denver,Safeway,https://local.safeway.com/safeway/co/denver/560-corona-st.html,560 Corona St,Denver,CO,80218,39.725025159317745,-104.97327893972397
702,137,America/Denver,Safeway,https://local.safeway.com/safeway/co/aurora/12200-e-mississippi-ave.html,12200 E Mississippi Ave,Aurora,CO,80012,39.6959277207943,-104.84539220441548
703,885,America/Denver,Safeway,https://local.safeway.com/safeway/co/denver/323-s-broadway.html,323 S Broadway,Denver,CO,80209,39.7106325,-104.9887838
704,1479,America/Denver,Safeway,https://local.safeway.com/safeway/co/wheat-ridge/3900-wadsworth-blvd.html,3900 Wadsworth Blvd,Wheat Ridge,CO,80033,39.7710634,-105.0799306
705,2612,America/Denver,Safeway,https://local.safeway.com/safeway/co/aurora/1677-s-havana-st.html,1677 S Havana St,Aurora,CO,80012,39.6862742,-104.8683021
706,841,America/Denver,Safeway,https://local.safeway.com/safeway/co/aurora/1200-s-buckley-rd.html,1200 S Buckley Rd,Aurora,CO,80017,39.6946083,-104.788971
707,1038,America/Denver,Safeway,https://local.safeway.com/safeway/co/denver/1653-s-colorado-blvd.html,1653 S Colorado Blvd,Denver,CO,80222,39.6872572,-104.9423608
708,1045,America/Denver,Safeway,https://local.safeway.com/safeway/co/fort-lupton/1300-dexter-st.html,1300 Dexter St,Fort Lupton,CO,80621,40.07886773077312,-104.80241417884827
709,2666,America/Denver,Safeway,https://local.safeway.com/safeway/co/greeley/4548-centerplace-dr.html,4548 Centerplace Dr,Greeley,CO,80634,40.3943551,-104.7526409
710,2918,America/Denver,Safeway,https://local.safeway.com/safeway/co/greeley/3526-w-10th-st.html,3526 W 10th St,Greeley,CO,80634,40.42120710558968,-104.73630137168885
711,1791,America/Denver,Safeway,https://local.safeway.com/safeway/co/windsor/1535-main-st.html,1535 Main St,Windsor,CO,80550,40.4781455,-104.9280548
712,2915,America/Denver,Safeway,https://local.safeway.com/safeway/co/loveland/860-cleveland-ave.html,860 Cleveland Ave,Loveland,CO,80537,40.40077485951207,-105.07383093999124
713,804,America/Denver,Safeway,https://local.safeway.com/safeway/co/loveland/1451-w-eisenhower-blvd.html,1451 W Eisenhower Blvd,Loveland,CO,80537,40.4084936,-105.0981197
714,1552,America/Denver,Safeway,https://local.safeway.com/safeway/co/fort-collins/1426-e-harmony-rd.html,1426 E Harmony Rd,Fort Collins,CO,80525,40.5249065,-105.0519397
715,914,America/Denver,Safeway,https://local.safeway.com/safeway/co/loveland/2321-w-eisenhower-blvd.html,2321 W Eisenhower Blvd,Loveland,CO,80537,40.4086322,-105.1099575
716,862,America/Denver,Safeway,https://local.safeway.com/safeway/co/fort-collins/3657-s-college-ave.html,3657 S College Ave,Fort Collins,CO,80525,40.5369359,-105.0780505
717,876,America/Denver,Safeway,https://local.safeway.com/safeway/co/fort-collins/731-s-lemay-ave.html,731 S Lemay Ave,Fort Collins,CO,80524,40.5773226,-105.0595757
718,1828,America/Denver,Safeway,https://local.safeway.com/safeway/co/firestone/8134-colorado-blvd.html,8134 Colorado Blvd,Firestone,CO,80504,40.11905474934837,-104.93973867479971
719,1116,America/Denver,Safeway,https://local.safeway.com/safeway/co/longmont/1050-ken-pratt-blvd.html,1050 Ken Pratt Blvd,Longmont,CO,80501,40.15363197422866,-105.1093708452301
720,1667,America/Denver,Safeway,https://local.safeway.com/safeway/co/erie/3333-arapahoe-rd-n--b.html,3333 Arapahoe Rd N #B,Erie,CO,80516,40.016944051707355,-105.10085127502538
721,2910,America/Denver,Safeway,https://local.safeway.com/safeway/co/longmont/1632-hover-rd.html,1632 Hover Rd,Longmont,CO,80501,40.1879263,-105.1294348
722,1656,America/Denver,Safeway,https://local.safeway.com/safeway/co/superior/1601-coalton-rd.html,1601 Coalton Rd,Superior,CO,80027,39.9302879,-105.1489606
723,2812,America/Denver,Safeway,https://local.safeway.com/safeway/co/louisville/910-w-cherry-st.html,910 W Cherry St,Louisville,CO,80027,39.9634406,-105.1604104
724,2919,America/Denver,Safeway,https://local.safeway.com/safeway/co/boulder/4800-e-baseline-rd.html,4800 E Baseline Rd,Boulder,CO,80303,39.998087948135456,-105.23446977138519
725,2913,America/Denver,Safeway,https://local.safeway.com/safeway/co/fort-collins/2160-w-drake-rd-unit-6.html,2160 W Drake Rd Unit 6,Fort Collins,CO,80526,40.5542956,-105.1167739
726,920,America/Denver,Safeway,https://local.safeway.com/safeway/co/estes-park/451-e-wonderview-ave.html,451 E Wonderview Ave,Estes Park,CO,80517,40.3801333,-105.5166529
727,1615,America/Denver,Safeway,https://local.safeway.com/safeway/co/boulder/3325-28th-st.html,3325 28th St,Boulder,CO,80301,40.0348885,-105.2598411
728,2911,America/Denver,Safeway,https://local.safeway.com/safeway/co/boulder/2798-arapahoe-ave.html,2798 Arapahoe Ave,Boulder,CO,80302,40.013365,-105.259586
729,637,America/Denver,Safeway,https://local.safeway.com/safeway/co/steamboat-springs/37500-us-40.html,37500 US-40,Steamboat Springs,CO,80487,40.465817137510975,-106.82414822503254
730,1599,America/Denver,Safeway,https://local.safeway.com/safeway/co/littleton/12442-w-ken-caryl-ave.html,12442 W Ken Caryl Ave,Littleton,CO,80127,39.5790166,-105.1347198
731,27,America/Denver,Safeway,https://local.safeway.com/safeway/co/littleton/5025-s-kipling-pkwy.html,5025 S Kipling Pkwy,Littleton,CO,80127,39.625582990812696,-105.11120204222034
732,839,America/Denver,Safeway,https://local.safeway.com/safeway/co/littleton/8434-s-kipling-pkwy.html,8434 S Kipling Pkwy,Littleton,CO,80127,39.5635115,-105.1078257
733,2792,America/Denver,Safeway,https://local.safeway.com/safeway/co/conifer/27152-main-st.html,27152 Main St,Conifer,CO,80433,39.5272894,-105.3033215
734,2342,America/Denver,Safeway,https://local.safeway.com/safeway/co/lakewood/11088-w-jewell.html,11088 W Jewell,Lakewood,CO,80232,39.6812823,-105.1226393
735,41,America/Denver,Safeway,https://local.safeway.com/safeway/co/lakewood/13111-w-alameda-pkwy.html,13111 W Alameda Pkwy,Lakewood,CO,80228,39.69836267139225,-105.14587640762329
736,10,America/Denver,Safeway,https://local.safeway.com/safeway/co/evergreen/3851-s-hwy-74.html,3851 S Hwy 74,Evergreen,CO,80439,39.6456695,-105.3398855
737,2722,America/Denver,Safeway,https://local.safeway.com/safeway/co/littleton/8355-n-rampart-range-rd.html,8355 N Rampart Range Rd,Littleton,CO,80125,39.48333810304173,-105.07542550563812
738,322,America/Denver,Safeway,https://local.safeway.com/safeway/co/golden/1701-jackson-st.html,1701 Jackson St,Golden,CO,80401,39.7520984,-105.2158477
739,344,America/Denver,Safeway,https://local.safeway.com/safeway/co/lakewood/9160-w-colfax-ave.html,9160 W Colfax Ave,Lakewood,CO,80215,39.7391878984505,-105.09879084047544
740,2791,America/Denver,Safeway,https://local.safeway.com/safeway/co/littleton/181-w-mineral-ave.html,181 W Mineral Ave,Littleton,CO,80120,39.5745224,-104.9914882
741,1480,America/Denver,Safeway,https://local.safeway.com/safeway/co/highlands-ranch/9255-s-broadway.html,9255 S Broadway,Highlands Ranch,CO,80129,39.547747,-104.9939082
742,17,America/Denver,Safeway,https://local.safeway.com/safeway/co/englewood/201-e-jefferson-ave.html,201 E Jefferson Ave,Englewood,CO,80113,39.65185262708615,-104.98463230484981
743,1463,America/Denver,Safeway,https://local.safeway.com/safeway/co/denver/2150-s-downing-st.html,2150 S Downing St,Denver,CO,80210,39.6775624,-104.9722724
744,2824,America/Denver,Safeway,https://local.safeway.com/safeway/co/leadville/1900-n-poplar-way.html,1900 N Poplar Way,Leadville,CO,80461,39.2600209,-106.292825
745,1568,America/Denver,Safeway,https://local.safeway.com/safeway/co/fraser/40-county-rd-804.html,40 County Rd 804,Fraser,CO,80442,39.9456402,-105.8111218
746,390,America/Denver,Safeway,https://local.safeway.com/safeway/co/idaho-springs/2425-miner-st.html,2425 Miner St,Idaho Springs,CO,80452,39.7410168,-105.5062157
747,1928,America/Denver,Safeway,https://local.safeway.com/safeway/co/aurora/18730-e-hampden-ave.html,18730 E Hampden Ave,Aurora,CO,80013,39.651310903677484,-104.76966172456747
748,899,America/Denver,Safeway,https://local.safeway.com/safeway/co/aurora/6100-s-gun-club-rd.html,6100 S Gun Club Rd,Aurora,CO,80016,39.604721,-104.714835
749,1267,America/Denver,Safeway,https://local.safeway.com/safeway/co/denver/6460-e-yale-ave.html,6460 E Yale Ave,Denver,CO,80222,39.66639875631342,-104.9149169191185
750,8,America/Denver,Safeway,https://local.safeway.com/safeway/co/englewood/7375-e-arapahoe-rd.html,7375 E Arapahoe Rd,Englewood,CO,80112,39.596367600856205,-104.90346908569336
751,1548,America/Denver,Safeway,https://local.safeway.com/safeway/co/lone-tree/9229-e-lincoln-ave.html,9229 E Lincoln Ave,Lone Tree,CO,80124,39.5376429,-104.8832633
752,1446,America/Denver,Safeway,https://local.safeway.com/safeway/co/parker/11051-s-parker-rd.html,11051 S Parker Rd,Parker,CO,80134,39.5160731,-104.7664971
753,1532,America/Denver,Safeway,https://local.safeway.com/safeway/co/elizabeth/220-s-elizabeth-st.html,220 S Elizabeth St,Elizabeth,CO,80107,39.359918,-104.6098299
754,1877,America/Denver,Safeway,https://local.safeway.com/safeway/co/castle-rock/880-s-perry-st.html,880 S Perry St,Castle Rock,CO,80104,39.3620687,-104.8610534
755,1538,America/New_York,Safeway,https://local.safeway.com/safeway/va/culpeper/309-southgate-shopping-ctr.html,309 Southgate Shopping Ctr,Culpeper,VA,22701,38.462270747080204,-78.00252717063904
756,1801,America/New_York,Safeway,https://local.safeway.com/safeway/va/warrenton/189-w-lee-hwy.html,189 W Lee Hwy,Warrenton,VA,20186,38.7305403,-77.7973042
757,2635,America/New_York,Safeway,https://local.safeway.com/safeway/va/bristow/12821-braemar-village-plaza.html,12821 Braemar Village Plaza,Bristow,VA,20136,38.749735,-77.5714499
758,942,America/New_York,Safeway,https://local.safeway.com/safeway/va/middleburg/12-w-washington-st.html,12 W Washington St,Middleburg,VA,20117,38.9690178,-77.7365929
759,1702,America/New_York,Safeway,https://local.safeway.com/safeway/va/dale-city/4215-cheshire-station-plaza.html,4215 Cheshire Station Plaza,Dale City,VA,22193,38.6452993,-77.3333381
760,1298,America/New_York,Safeway,https://local.safeway.com/safeway/va/woodbridge/4240-merchant-plaza.html,4240 Merchant Plaza,Woodbridge,VA,22192,38.6747661,-77.3349351
761,1331,America/New_York,Safeway,https://local.safeway.com/safeway/va/woodbridge/2205-old-bridge-rd.html,2205 Old Bridge Rd,Woodbridge,VA,22192,38.67737123400608,-77.28125904852732
762,1938,America/New_York,Safeway,https://local.safeway.com/safeway/md/la-plata/40-shining-willow-way.html,40 Shining Willow Way,La Plata,MD,20646,38.54224123392013,-76.98207020759588
763,1847,America/New_York,Safeway,https://local.safeway.com/safeway/va/alexandria/5980-kingstowne-towne-ctr.html,5980 Kingstowne Towne Ctr,Alexandria,VA,22315,38.7698447,-77.1413503
764,1285,America/New_York,Safeway,https://local.safeway.com/safeway/va/alexandria/6130-rose-hill-dr.html,6130 Rose Hill Dr,Alexandria,VA,22310,38.78411591990327,-77.12245837607043
765,1283,America/New_York,Safeway,https://local.safeway.com/safeway/va/alexandria/8646-richmond-hwy.html,8646 Richmond Hwy,Alexandria,VA,22309,38.7243402,-77.1214052
766,1428,America/New_York,Safeway,https://local.safeway.com/safeway/va/alexandria/299-s-van-dorn-st.html,299 S Van Dorn St,Alexandria,VA,22304,38.80997861355146,-77.13366866111755
767,1019,America/New_York,Safeway,https://local.safeway.com/safeway/va/alexandria/1624-belle-view.html,1624 Belle View,Alexandria,VA,22307,38.776452832323095,-77.06077964619908
768,878,America/New_York,Safeway,https://local.safeway.com/safeway/va/alexandria/7900-ft-hunt-rd.html,7900 Ft Hunt Rd,Alexandria,VA,22308,38.743683,-77.0574975
769,3250,America/New_York,Safeway,https://local.safeway.com/safeway/va/alexandria/3526-king-st.html,3526 King St,Alexandria,VA,22302,38.827819483426175,-77.0896187575272
770,866,America/New_York,Safeway,https://local.safeway.com/safeway/va/alexandria/500-s-royal-st.html,500 S Royal St,Alexandria,VA,22314,38.7997381,-77.0445131
771,1588,America/New_York,Safeway,https://local.safeway.com/safeway/va/annandale/7414-little-river-turnpike.html,7414 Little River Turnpike,Annandale,VA,22003,38.8322593,-77.2005659
772,2883,America/New_York,Safeway,https://local.safeway.com/safeway/va/falls-church/6118-arlington-blvd.html,6118 Arlington Blvd,Falls Church,VA,22044,38.869712028839295,-77.14451016501698
773,1882,America/New_York,Safeway,https://local.safeway.com/safeway/md/fort-washington/990-e-swan-creek-rd.html,990 E Swan Creek Rd,Fort Washington,MD,20744,38.727019999936246,-76.99190855026245
774,1606,America/New_York,Safeway,https://local.safeway.com/safeway/va/burke/9596-old-keene-mill-rd.html,9596 Old Keene Mill Rd,Burke,VA,22015,38.7784663,-77.2753049
775,1358,America/New_York,Safeway,https://local.safeway.com/safeway/va/arlington/5101-wilson-blvd.html,5101 Wilson Blvd,Arlington,VA,22205,38.878008,-77.1233071
776,4872,America/New_York,Safeway,https://local.safeway.com/safeway/md/oxon-hill/6235-oxon-hill-rd.html,6235 Oxon Hill Rd,Oxon Hill,MD,20745,38.8046303,-76.9853922
777,1365,America/New_York,Safeway,https://local.safeway.com/safeway/va/fairfax/9525-braddock-rd.html,9525 Braddock Rd,Fairfax,VA,22032,38.8166007,-77.2753919
778,1304,America/New_York,Safeway,https://local.safeway.com/safeway/va/falls-church/7397-lee-hwy.html,7397 Lee Hwy,Falls Church,VA,22042,38.87502621581196,-77.19865009191386
779,764,America/New_York,Safeway,https://local.safeway.com/safeway/va/arlington/2500-n-harrison-st.html,2500 N Harrison St,Arlington,VA,22207,38.8970708,-77.1393101
780,4007,America/New_York,Safeway,https://local.safeway.com/safeway/va/arlington/3713-langston-blvd.html,3713 Langston Blvd,Arlington,VA,22207,38.89672689174161,-77.10583416514203
781,75,America/New_York,Safeway,https://local.safeway.com/safeway/va/fairfax/9622-main-st.html,9622 Main St,Fairfax,VA,22031,38.8448214,-77.27364899999999
782,2892,America/New_York,Safeway,https://local.safeway.com/safeway/dc/washington/1100-4th-st-sw.html,1100 4th St SW,Washington,DC,20024,38.87760812028538,-77.01715619910829
783,1445,America/New_York,Safeway,https://local.safeway.com/safeway/dc/washington/2845-alabama-ave-se.html,2845 Alabama Ave SE,Washington,DC,20020,38.8590817,-76.966745
784,1048,America/New_York,Safeway,https://local.safeway.com/safeway/va/arlington/1525-wilson-blvd.html,1525 Wilson Blvd,Arlington,VA,22209,38.89515119957539,-77.07473133617631
785,3217,America/New_York,Safeway,https://local.safeway.com/safeway/dc/washington/415-14th-st-se.html,415 14th St SE,Washington,DC,20003,38.88355626368258,-76.98651781349182
786,2737,America/New_York,Safeway,https://local.safeway.com/safeway/dc/washington/490-l-st-nw.html,490 L St NW,Washington,DC,20001,38.9035684,-77.0186955
787,923,America/New_York,Safeway,https://local.safeway.com/safeway/dc/washington/1701-corcoran-st-nw.html,1701 Corcoran St NW,Washington,DC,20009,38.9119596,-77.0386738
788,2616,America/New_York,Safeway,https://local.safeway.com/safeway/va/fairfax/3043-nutley-st.html,3043 Nutley St,Fairfax,VA,22031,38.87136869663907,-77.2609436392122
789,4933,America/New_York,Safeway,https://local.safeway.com/safeway/va/mclean/6244-old-dominion-dr.html,6244 Old Dominion Dr,Mclean,VA,22101,38.9208477,-77.1503367
790,2912,America/New_York,Safeway,https://local.safeway.com/safeway/dc/washington/1855-wisconsin-ave-nw.html,1855 Wisconsin Ave NW,Washington,DC,20007,38.91612814457494,-77.06728132101489
791,1443,America/New_York,Safeway,https://local.safeway.com/safeway/md/clinton/8785-branch-ave.html,8785 Branch Ave,Clinton,MD,20735,38.7688992,-76.8897308
792,2661,America/New_York,Safeway,https://local.safeway.com/safeway/md/waldorf/3051-waldorf-market-pl.html,3051 Waldorf Market Pl,Waldorf,MD,20603,38.62699652183416,-76.91712687123982
793,2853,America/New_York,Safeway,https://local.safeway.com/safeway/md/brandywine/15916-s-crain-hwy.html,15916 S Crain Hwy,Brandywine,MD,20613,38.6744115,-76.8724136
794,4202,America/New_York,Safeway,https://local.safeway.com/safeway/dc/washington/1747-columbia-rd-nw.html,1747 Columbia Rd NW,Washington,DC,20009,38.9240982,-77.0409888
795,2808,America/New_York,Safeway,https://local.safeway.com/safeway/dc/washington/3830-georgia-ave-nw.html,3830 Georgia Ave NW,Washington,DC,20011,38.9384858,-77.0249913
796,1716,America/New_York,Safeway,https://local.safeway.com/safeway/md/bethesda/4701-sangamore-rd.html,4701 Sangamore Rd,Bethesda,MD,20816,38.9500112,-77.1192327
797,4270,America/New_York,Safeway,https://local.safeway.com/safeway/dc/washington/1601-maryland-ave-ne.html,1601 Maryland Ave NE,Washington,DC,20002,38.9004524053576,-76.97985473372682
798,4832,America/New_York,Safeway,https://local.safeway.com/safeway/dc/washington/5545-connecticut-ave-nw.html,5545 Connecticut Ave NW,Washington,DC,20015,38.9645225,-77.0749237
799,1276,America/New_York,Safeway,https://local.safeway.com/safeway/dc/washington/6500-piney-branch-rd-nw.html,6500 Piney Branch Rd NW,Washington,DC,20012,38.96959474743706,-77.02658148142291
800,2848,America/New_York,Safeway,https://local.safeway.com/safeway/md/bethesda/5000-bradley-blvd.html,5000 Bradley Blvd,Bethesda,MD,20815,38.9775639,-77.0989436
801,1920,America/New_York,Safeway,https://local.safeway.com/safeway/va/mclean/1688-anderson-rd.html,1688 Anderson Rd,Mclean,VA,22102,38.9223553,-77.202503
802,1177,America/New_York,Safeway,https://local.safeway.com/safeway/dc/washington/322-40th-st-ne.html,322 40th St NE,Washington,DC,20019,38.893274047842326,-76.94773195026245
803,4002,America/New_York,Safeway,https://local.safeway.com/safeway/va/burke/5727-burke-centre-pkwy.html,5727 Burke Centre Pkwy,Burke,VA,22015,38.7998451,-77.3212126
804,4001,America/New_York,Safeway,https://local.safeway.com/safeway/va/fairfax/10350-willard-way.html,10350 Willard Way,Fairfax,VA,22030,38.8486331,-77.3024865
805,1431,America/New_York,Safeway,https://local.safeway.com/safeway/va/fairfax/12200-fairfax-towne-center.html,12200 Fairfax Towne Center,Fairfax,VA,22033,38.8663426226795,-77.36882704502932
806,5,America/New_York,Safeway,https://local.safeway.com/safeway/va/reston/11120-s-lakes-dr.html,11120 S Lakes Dr,Reston,VA,20191,38.9396256,-77.3299031
807,1570,America/New_York,Safeway,https://local.safeway.com/safeway/va/reston/2304-hunter-s-woods-plaza.html,2304 Hunter's Woods Plaza,Reston,VA,20191,38.9357728,-77.3622989
808,1417,America/New_York,Safeway,https://local.safeway.com/safeway/va/great-falls/9881-georgetown-pike.html,9881 Georgetown Pike,Great Falls,VA,22066,38.9961484,-77.2876296
809,1689,America/New_York,Safeway,https://local.safeway.com/safeway/va/herndon/413-elden-st.html,413 Elden St,Herndon,VA,20170,38.96683784341528,-77.37673947919575
810,945,America/New_York,Safeway,https://local.safeway.com/safeway/md/potomac/10104-river-rd.html,10104 River Rd,Potomac,MD,20854,39.0166532,-77.2084417
811,1759,America/New_York,Safeway,https://local.safeway.com/safeway/va/sterling/22350-s-sterling-blvd.html,22350 S Sterling Blvd,Sterling,VA,20164,38.99752862708507,-77.40896522998804
812,1089,America/New_York,Safeway,https://local.safeway.com/safeway/md/gaithersburg/12251-darnestown-rd.html,12251 Darnestown Rd,Gaithersburg,MD,20878,39.1193206,-77.255379
813,1956,America/New_York,Safeway,https://local.safeway.com/safeway/md/rockville/14939-shady-grove-rd.html,14939 Shady Grove Rd,Rockville,MD,20850,39.0979657509453,-77.19214449045467
814,1715,America/New_York,Safeway,https://local.safeway.com/safeway/md/rockville/403-redland-blvd.html,403 Redland Blvd,Rockville,MD,20850,39.1128672,-77.1716547
815,3257,America/New_York,Safeway,https://local.safeway.com/safeway/md/rockville/1800-rockville-pike.html,1800 Rockville Pike,Rockville,MD,20852,39.06044541789241,-77.12190985679626
816,1579,America/New_York,Safeway,https://local.safeway.com/safeway/md/germantown/19718-germantown-rd.html,19718 Germantown Rd,Germantown,MD,20874,39.1807089,-77.2667868
817,4030,America/New_York,Safeway,https://local.safeway.com/safeway/de/newark/2400-peoples-plaza.html,2400 Peoples Plaza,Newark,DE,19702,39.6003422,-75.7491211
818,1652,America/New_York,Safeway,https://local.safeway.com/safeway/md/bel-air/225-brierhill-dr.html,225 Brierhill Dr,Bel Air,MD,21015,39.5418277,-76.3241515
819,1815,America/New_York,Safeway,https://local.safeway.com/safeway/md/mount-airy/337-e-ridgeville-blvd.html,337 E Ridgeville Blvd,Mount Airy,MD,21771,39.3660487,-77.1605502
820,2794,America/New_York,Safeway,https://local.safeway.com/safeway/md/damascus/9807-main-st.html,9807 Main St,Damascus,MD,20872,39.2900917,-77.2022372
821,1678,America/New_York,Safeway,https://local.safeway.com/safeway/md/eldersburg/1313-londontown-blvd.html,1313 Londontown Blvd,Eldersburg,MD,21784,39.40713987612318,-76.94891641248432
822,1620,America/New_York,Safeway,https://local.safeway.com/safeway/md/gaithersburg/20211-goshen-rd.html,20211 Goshen Rd,Gaithersburg,MD,20879,39.1885718,-77.1851082
823,1281,America/New_York,Safeway,https://local.safeway.com/safeway/md/ellicott-city/10000-baltimore-national-pike.html,10000 Baltimore National Pike,Ellicott City,MD,21042,39.2799687,-76.8555914
824,1553,America/New_York,Safeway,https://local.safeway.com/safeway/md/columbia/5485-harpers-farm-rd.html,5485 Harpers Farm Rd,Columbia,MD,21044,39.2233337,-76.8894453
825,2797,America/New_York,Safeway,https://local.safeway.com/safeway/md/olney/3333-spartan-rd.html,3333 Spartan Rd,Olney,MD,20832,39.150485220656975,-77.06472785803271
826,1459,America/New_York,Safeway,https://local.safeway.com/safeway/md/ellicott-city/4370-montgomery-rd.html,4370 Montgomery Rd,Ellicott City,MD,21043,39.251079626853425,-76.8187210116048
827,1565,America/New_York,Safeway,https://local.safeway.com/safeway/md/silver-spring/15411-new-hampshire-ave.html,15411 New Hampshire Ave,Silver Spring,MD,20905,39.1080372,-76.996241
828,1668,America/New_York,Safeway,https://local.safeway.com/safeway/md/rockville/5510-norbeck-rd.html,5510 Norbeck Rd,Rockville,MD,20853,39.0944276,-77.1100387
829,1657,America/New_York,Safeway,https://local.safeway.com/safeway/md/owings-mills/10335-reisterstown-rd.html,10335 Reisterstown Rd,Owings Mills,MD,21117,39.4181623,-76.7763496
830,1616,America/New_York,Safeway,https://local.safeway.com/safeway/md/westminster/444-wmc-dr--116.html,444 WMC Dr #116,Westminster,MD,21158,39.58597168389368,-77.01328410540827
831,128,America/New_York,Safeway,https://local.safeway.com/safeway/md/walkersville/151-walkers-village-way.html,151 Walkers Village Way,Walkersville,MD,21793,39.4851073,-77.341715
832,1469,America/New_York,Safeway,https://local.safeway.com/safeway/md/baltimore/5660-baltimore-national-pike.html,5660 Baltimore National Pike,Baltimore,MD,21228,39.289750384604375,-76.73028503710611
833,1559,America/New_York,Safeway,https://local.safeway.com/safeway/md/middletown/815-e-main-st.html,815 E Main St,Middletown,MD,21769,39.43863739381571,-77.52540367848269
834,73,America/New_York,Safeway,https://local.safeway.com/safeway/md/baltimore/2801-smith-ave.html,2801 Smith Ave,Baltimore,MD,21209,39.3745931739421,-76.69017910912322
835,4218,America/New_York,Safeway,https://local.safeway.com/safeway/va/leesburg/437-s-king-st.html,437 S King St,Leesburg,VA,20175,39.1090089,-77.5687386
836,1939,America/New_York,Safeway,https://local.safeway.com/safeway/md/chester/1925-main-st.html,1925 Main St,Chester,MD,21619,38.9741057,-76.2750833
837,1460,America/New_York,Safeway,https://local.safeway.com/safeway/md/annapolis/1781-forest-dr.html,1781 Forest Dr,Annapolis,MD,21401,38.9699172,-76.5227122
838,2764,America/New_York,Safeway,https://local.safeway.com/safeway/md/arnold/1451-s-ritchie-hwy.html,1451 S Ritchie Hwy,Arnold,MD,21012,39.030256,-76.5039722
839,2629,America/New_York,Safeway,https://local.safeway.com/safeway/md/annapolis/2635-housley-rd.html,2635 Housley Rd,Annapolis,MD,21401,38.987263912140904,-76.55494331123009
840,2608,America/New_York,Safeway,https://local.safeway.com/safeway/md/edgewater/52-w-central-ave.html,52 W Central Ave,Edgewater,MD,21037,38.9282324,-76.5723358
841,1539,America/New_York,Safeway,https://local.safeway.com/safeway/md/pasadena/4211-mountain-rd.html,4211 Mountain Rd,Pasadena,MD,21122,39.1203968,-76.5143898
842,1351,America/New_York,Safeway,https://local.safeway.com/safeway/md/severna-park/540-benfield-rd.html,540 Benfield Rd,Severna Park,MD,21146,39.0830559,-76.5833335
843,1596,America/New_York,Safeway,https://local.safeway.com/safeway/md/gambrills/2644-chapel-lake-dr.html,2644 Chapel Lake Dr,Gambrills,MD,21054,39.0403765,-76.6803053
844,1804,America/New_York,Safeway,https://local.safeway.com/safeway/md/bowie/4101-northview-dr.html,4101 Northview Dr,Bowie,MD,20716,38.9460856,-76.7368743
845,1926,America/New_York,Safeway,https://local.safeway.com/safeway/md/hanover/7643-arundel-mills-blvd.html,7643 Arundel Mills Blvd,Hanover,MD,21076,39.1518713,-76.7222446
846,2713,America/New_York,Safeway,https://local.safeway.com/safeway/md/bowie/12410-fairwood-pkwy.html,12410 Fairwood Pkwy,Bowie,MD,20720,38.9653774,-76.7892527
847,1481,America/New_York,Safeway,https://local.safeway.com/safeway/md/baltimore/2610-boston-st.html,2610 Boston St,Baltimore,MD,21224,39.280628417037065,-76.57880277964068
848,1129,America/New_York,Safeway,https://local.safeway.com/safeway/md/dunkirk/10276-southern-maryland-blvd.html,10276 Southern Maryland Blvd,Dunkirk,MD,20754,38.7187224,-76.6627365
849,2795,America/New_York,Safeway,https://local.safeway.com/safeway/md/upper-marlboro/7605-crain-hwy.html,7605 Crain Hwy,Upper Marlboro,MD,20772,38.7866276,-76.7942915
850,2979,America/New_York,Safeway,https://local.safeway.com/safeway/md/towson/1017-york-rd.html,1017 York Rd,Towson,MD,21204,39.411698746721505,-76.60879790782928
851,1880,America/New_York,Safeway,https://local.safeway.com/safeway/md/parkville/8858-waltham-woods-rd.html,8858 Waltham Woods Rd,Parkville,MD,21234,39.4002438,-76.5441038
852,1513,America/New_York,Safeway,https://local.safeway.com/safeway/md/baltimore/4401-harford-rd.html,4401 Harford Rd,Baltimore,MD,21214,39.33945258066025,-76.57148838043213
853,1758,America/New_York,Safeway,https://local.safeway.com/safeway/md/perry-hall/9645-belair-rd.html,9645 Belair Rd,Perry Hall,MD,21128,39.4136586,-76.4608235
854,1482,America/New_York,Safeway,https://local.safeway.com/safeway/md/baltimore/2401-n-charles-st.html,2401 N Charles St,Baltimore,MD,21218,39.316898111519556,-76.61670239302111
855,1399,America/New_York,Safeway,https://local.safeway.com/safeway/md/phoenix/3499-sweet-air-rd.html,3499 Sweet Air Rd,Phoenix,MD,21131,39.5154911,-76.5575683
856,107,America/New_York,Safeway,https://local.safeway.com/safeway/md/greenbelt/7595-greenbelt-rd.html,7595 Greenbelt Rd,Greenbelt,MD,20770,38.992872474553415,-76.87666878865457
857,3274,America/New_York,Safeway,https://local.safeway.com/safeway/md/hyattsville/3702-east-west-hwy.html,3702 East-West Hwy,Hyattsville,MD,20782,38.96705406577766,-76.951313332047
858,870,America/New_York,Safeway,https://local.safeway.com/safeway/md/silver-spring/10101-new-hampshire-ave.html,10101 New Hampshire Ave,Silver Spring,MD,20903,39.0206676,-76.9760494
859,4817,America/New_York,Safeway,https://local.safeway.com/safeway/md/silver-spring/116-university-w-blvd.html,116 University W Blvd,Silver Spring,MD,20901,39.02068408426065,-77.01526522636414
860,2781,America/New_York,Safeway,https://local.safeway.com/safeway/md/wheaton/11201-georgia-ave.html,11201 Georgia Ave,Wheaton,MD,20902,39.03916996641919,-77.05015809866376
861,1369,America/New_York,Safeway,https://local.safeway.com/safeway/md/silver-spring/909-thayer-ave.html,909 Thayer Ave,Silver Spring,MD,20910,38.9933906,-77.0246461
862,2753,America/New_York,Safeway,https://local.safeway.com/safeway/md/kensington/10541-connecticut-ave.html,10541 Connecticut Ave,Kensington,MD,20895,39.0279918,-77.0753271
863,105,America/New_York,Safeway,https://local.safeway.com/safeway/md/waldorf/10-king-st.html,10 King St,Waldorf,MD,20602,38.60266915709837,-76.9012767377717
864,1731,America/New_York,Safeway,https://local.safeway.com/safeway/md/prince-frederick/80-w-dares-beach-rd.html,80 W Dares Beach Rd,Prince Frederick,MD,20678,38.54538410997413,-76.59022508861199
