store_name,store_id,url,phone,address,city,state,zip,latitude,longitude
Riverchase Galleria Outparcel,2525,/store/2525-HOOVER,(205) 733-2171,3460 Galleria Circle,Hoover,Alabama,35244-2366,33.38026,-86.80618
Bridge Street Town Centre,2574,/store/2574-HUNTSVILLE,(256) 971-2879,200 The Bridge Street Nw,Huntsville,Alabama,35806-0042,34.713782,-86.672555
Mcgowin Park,2572,/store/2572-MOBILE,(251) 470-9844,3085 Government Blvd.,Mobile,Alabama,36606-2610,30.65408,-88.11765
Chase Corner,2565,/store/2565-MONTGOMERY,(334) 273-3255,1490 Taylor Rd.,Montgomery,Alabama,36117-3745,32.35769,-86.17203
Casa Paloma Shopping Center,473,/store/473-CHANDLER,(480) 961-1919,7181 W Ray Rd.,Chandler,Arizona,85226-1519,33.31925,-111.96713
Arrowhead Towne Center - Outparcel,469,/store/469-GLENDALE,(623) 334-3033,7520 W Bell Rd.,Glendale,Arizona,85308-8620,33.63878,-112.22149
Dana Park,2414,/store/2414-MESA,(480) 813-2091,1750 S Valvista Dr.,Mesa,Arizona,85204-7304,33.38289,-111.75456
Paradise Valley - Outparcel,480,/store/480-PHOENIX,(602) 569-6200,12656 N Tatum Blvd.,Phoenix,Arizona,85032-7721,33.60218,-111.97937
Broadway Blvd.,413,/store/413-TUCSON,(520) 514-9800,5955 E. Broadway Blvd.,Tucson,Arizona,85711-3903,32.22196,-110.86525
Sec Oracle & Wetmore,2413,/store/2413-TUCSON,(520) 292-6265,4240 N Oracle Rd.,Tucson,Arizona,85705-1632,32.28387,-110.97752
Park Avenue,2524,/store/2524-LITTLE ROCK,(501) 280-9030,310 South University Ave.,Little Rock,Arkansas,72205-5205,34.75017,-92.34163
Shops At River Walk,2564,/store/2564-BAKERSFIELD,(661) 664-1004,10600 Stockdale Hwy.,Bakersfield,California,93311-3658,35.35139,-119.12018
Brea Plaza,2516,/store/2516-BREA,(714) 257-1184,1631 East Imperial Hwy.,Brea,California,92821-5809,33.91083,-117.881012
Los Cerritos Center,2541,/store/2541-CERRITOS,(562) 865-1860,18711 Gridley Rd.,Cerritos,California,90703-5409,33.86114,-118.09132
The Shoppes At Chino Hills,2507,/store/2507-CHINO HILLS,(909) 548-4636,3585 Grand Ave.,Chino Hills,California,91709-5412,34.00183,-117.72863
Metro Pointe At South Coast,2563,/store/2563-COSTA MESA,(714) 549-2137,901 South Coast Dr.,Costa Mesa,California,92626,33.69035,-117.8934
Jared Vault Gilroy Premium Outlets,4031,/store/4031-GILROY,(408) 846-5633,8325 Arroyo Circle,Gilroy,California,95020-7325,37.02261,-121.56368
College Center,2498,/store/2498-MISSION VIEJO,(949) 989-8170,28241 Marguerite Pkwy,Mission Viejo,California,92692-3703,33.55255,-117.67109
Village At San Antonio Center,2540,/store/2540-MOUNTAIN VIEW,(650) 917-9378,685 San Antonio Rd.,Mountain View,California,94040-1357,37.40147,-122.11218
Westfield Plaza Bonita,2427,/store/2427-NATIONAL CITY,(619) 267-1323,2960 Plaza Bonita Rd.,National City,California,91950-8015,32.65785,-117.06809
Jared Vault Ontario Mills,4053,/store/4053-ONTARIO,(909) 476-9777,1 East Mills Circle,Ontario,California,91764-5211,34.07274,-117.5513
Sierra Commons,2462,/store/2462-PALMDALE,(661) 947-6141,849 West Rancho Vista Blvd.,Palmdale,California,93551-3717,34.605697,-118.165952
Victoria Gardens - Outparcel,2453,/store/2453-RANCHO CUCAMONGA,(909) 463-6161,12430 Foothill Blvd.,Rancho Cucamonga,California,91739-9319,34.1069,-117.534
Ridge At Creekside,453,/store/453-ROSEVILLE,(916) 787-1701,1128 Galleria Blvd.,Roseville,California,95678-1992,38.76976,-121.26519
Arden Way Aka Point West Crp Cnt,454,/store/454-SACRAMENTO,(916) 567-0930,1620 Arden Way,Sacramento,California,95815-4005,38.59904,-121.42724
Westfield Mission Valley,2472,/store/2472-SAN DIEGO,(619) 278-0060,1025 Camino De La Reina,San Diego,California,92108-1310,32.76804,-117.15287
Carmel Mountain Road,2558,/store/2558-SAN DIEGO,(858) 487-2599,11998 Carmel Mountain Rd.,San Diego,California,92128-4603,32.98302,-117.07668
Simi Valley Town Center,2460,/store/2460-SIMI VALLEY,(805) 583-9704,1115 Simi Town Center Way,Simi Valley,California,93065-0512,34.28481,-118.77819
Winchester Marketplace,2585,/store/2585-TEMECULA,(951) 296-6142,40825 Winchester Road,Temecula,California,92591-5508,33.52742,-117.15736
The Market Place,2551,/store/2551-TUSTIN,(714) 508-1033,3017 El Camino Real,Tustin,California,92782-8905,33.72369,-117.79187
Aurora City Place,441,/store/441-AURORA,(303) 364-0800,235 S Abilene St.,Aurora,Colorado,80012-1404,39.71224,-104.82465
Woodmen Commons,486,/store/486-COLORADO SPRINGS,(719) 262-0701,1720 E Woodmen Rd.,Colorado Springs,Colorado,80920-3325,38.93383,-104.79608
Centennial Promenade,482,/store/482-ENGLEWOOD,(303) 799-4739,9535 E County Line Rd.,Englewood,Colorado,80112-3501,39.5676,-104.87886
Colorado Mills - Outparcel,422,/store/422-LAKEWOOD,(720) 497-0400,14145 W Colfax Ave.,Lakewood,Colorado,80401-3281,39.73637,-105.157976
Promenade Shops At Centerra - Out,2473,/store/2473-LOVELAND,(970) 461-5925,5802 Sky Pond Dr.,Loveland,Colorado,80538-9073,40.41053,-104.99193
Westminster City Center,483,/store/483-WESTMINSTER,(303) 426-4405,9210 Sheridan Blvd.,Westminster,Colorado,80031-6303,39.86393,-105.05233
Corbin's Corner,2534,/store/2534-W. Hartford,(203) 694-0429,1505 New Britain Ave.,W. Hartford,Connecticut,06110-2014,41.72242,-72.76051
One Dayton Place,2506,/store/2506-WATERFORD,(860) 442-4470,1 Dayton Place,Waterford,Connecticut,06385-4204,41.37467,-72.13949
Christiana Fashion Center,2566,/store/2566-NEWARK,(302) 266-7589,2110 Fashion Center Blvd.,Newark,Delaware,19702-3245,39.67273,-75.65012
Route 202 Shopping Center,2463,/store/2463-WILMINGTON,(302) 478-4240,5327 Concord Pike,Wilmington,Delaware,19803-1418,39.83118,-75.54301
Uptown Altamonte,2418,/store/2418-ALTAMONTE SPRINGS,(407) 339-0556,229 E Altamonte Dr.,Altamonte Springs,Florida,32701-4347,28.66247,-81.38468
Executive Center,2515,/store/2515-BOCA RATON,(561) 988-1491,"2050, Nw Executive Center Cir.",Boca Raton,Florida,33431-7375,26.36889,-80.12402
Boynton Commons,472,/store/472-BOYNTON BEACH,(561) 742-9082,367 N Congress Ave.,Boynton Beach,Florida,33426-3415,26.53056,-80.09106
Regency Square At Brandon,444,/store/444-BRANDON,(813) 657-5913,2206 W Brandon Blvd.,Brandon,Florida,33511-4713,27.93886,-82.32102
Clearwater Mall,445,/store/445-CLEARWATER,(727) 797-4803,2705 Gulf To Bay Blvd.,Clearwater,Florida,33759-3945,27.96003,-82.72559
Coconut Point,2496,/store/2496-ESTERO,(239) 495-1633,23160 Via Villagio,Estero,Florida,33928-8301,26.40212,-81.80993
Bal Harbour Square - Outparcel,432,/store/432-FT. LAUDERDALE,(954) 630-0799,1630 N Federal Hwy.,Ft. Lauderdale,Florida,33305-2553,26.1498,-80.11871
Bell Tower Shops - Outparcel,2454,/store/2454-FT. MYERS,(239) 432-2663,5050 Bell Tower Shops Ave.,Ft. Myers,Florida,33907-3838,26.54771,-81.87017
St. John's Town Center,2420,/store/2420-JACKSONVILLE,(904) 997-8122,4647 Town Center Pkwy.,Jacksonville,Florida,32246-7400,30.2592,-81.52851
Loop West,2500,/store/2500-KISSIMMEE,(407) 932-0265,2411 W Osceola Pkwy.,Kissimmee,Florida,34741-0767,28.34273,-81.42691
Kendall Village Cnt./sw 88th St.,431,/store/431-MIAMI,(305) 630-3997,12355 Sw 88Th St.,Miami,Florida,33186-1924,25.6867,-80.39252
Mall At Millenia,485,/store/485-ORLANDO,(407) 248-9446,4095 Millenia Blvd.,Orlando,Florida,32839-2425,28.49064,-81.42911
Oviedo Marketplace - Outparcel,489,/store/489-OVIEDO,(407) 366-0086,8275 Red Bug Lake Rd.,Oviedo,Florida,32765-6859,28.65594,-81.23706
Legacy Place - Outparcel,2430,/store/2430-PALM BEACH GARDENS,(561) 625-1012,11360 Legacy Ave.,Palm Beach Gardens,Florida,33410-3663,26.84433,-80.09014
Pembroke Lakes Square,2419,/store/2419-PEMBROKE PINES,(954) 437-0341,11077 Pines Blvd.,Pembroke Pines,Florida,33026-5217,26.007879,-80.295057
Cordova Mall,2571,/store/2571-PENSACOLA,(850) 473-9331,5410 N 9Th Ave.,Pensacola,Florida,32504-8728,30.477956,-87.208828
Plantation,2415,/store/2415-PLANTATION,(954) 476-7306,12260 W Sunrise Blvd.,Plantation,Florida,33323-2233,26.14527,-80.31225
University Town Center- Outparcel,3307,/store/3307-SARASOTA,(941) 259-6289,67 North Cattlemen Road,Sarasota,Florida,34243-4762,27.38669,-82.45627
Federal Highway,2532,/store/2532-STUART,(772) 692-9692,2646 Nw Federal Hwy.,Stuart,Florida,34994-9318,27.2373,-80.26979
Jared Vault Palm Beach Outlets,4214,/store/4214-WEST PALM BEACH,(561) 687-9503,1781 Palm Beach Lakes Blvd,West Palm Beach,Florida,33401-2053,26.72324,-80.08596
North Point Marketcenter,2557,/store/2557-ALPHARETTA,(770) 753-0705,6250 North Point Pkwy.,Alpharetta,Georgia,30022-4885,34.046984,-84.289862
Park Place,467,/store/467-ATLANTA,(770) 393-4599,4503 Ashford-Dunwoody Rd. Ne,Atlanta,Georgia,30346-1509,33.92463,-84.33753
Augusta Mall,2499,/store/2499-AUGUSTA,(706) 736-1018,3450 Wrightsboro Rd.,Augusta,Georgia,30909-2566,33.46309,-82.07841
Marketplace Mill Creek,460,/store/460-BUFORD,(678) 546-0003,1720 Mall Of Georgia Blvd.,Buford,Georgia,30519-8705,34.062343,-83.992457
Landings At Arbor Place,468,/store/468-DOUGLASVILLE,(770) 577-0864,9310 The Landings Dr.,Douglasville,Georgia,30135-7118,33.73015,-84.73969
Gwinnett Place/pleasant Hill Rd.,436,/store/436-DULUTH,(770) 497-9433,2150 Pleasant Hill Rd.,Duluth,Georgia,30096-4630,33.95868,-84.13374
Town Center At Cobb-outparcel,459,/store/459-KENNESAW,(678) 355-6585,605 W Barret Pkwy.,Kennesaw,Georgia,30144-4922,34.032735,-84.611463
Marketplace At Stonecrest,435,/store/435-LITHONIA,(678) 526-8398,3001 Turner Hill Rd.,Lithonia,Georgia,30038-2529,33.69425,-84.08945
Jared Vault Tanger Outlets Locust Grove,4125,/store/4125-LOCUST GROVE,(770) 914-6969,1000 Tanger Dr.,Locust Grove,Georgia,30248-3667,33.3475,-84.1221
Ashley Park,2543,/store/2543-NEWNAN,(678) 423-5539,336 Newnan Crossing Bypass,Newnan,Georgia,30265-1082,33.38989,-84.76412
Jared Vault Tanger Outlets Savannah,3151,/store/3151-POOLER,(912) 450-5252,200 Tanger Outlet Blvd.,Pooler,Georgia,31322-3503,32.114031,-81.252678
Chatham Plaza,2548,/store/2548-SAVANNAH,(912) 356-1883,7805 Abercorn St.,Savannah,Georgia,31406-2442,32.00678,-81.11742
Jared Vault The Outlet Shoppes At Atlanta,4210,/store/4210-WOODSTOCK,(770) 591-8169,915 Ridgewalk Pkwy.,Woodstock,Georgia,30188-0010,34.11972,-84.52703
Westpark Towne Plaza,2428,/store/2428-BOISE,(208) 321-1999,247 N Milwaukee St.,Boise,Idaho,83704-9132,43.60704,-116.28249
Algonquin Commons,2412,/store/2412-ALGONQUIN,(847) 458-5247,1504 Randall Rd.,Algonquin,Illinois,60102-9754,42.15086,-88.33674
Meridian Square,463,/store/463-AURORA,(630) 236-8550,1016 N Rte. 59,Aurora,Illinois,60504-4920,41.77324,-88.20644
Promenade Pointe,2455,/store/2455-BOLINGBROOK,(630) 783-0214,693 E Boughton Rd.,Bolingbrook,Illinois,60440-2256,41.72183,-88.03972
St. Clair Square Mall,2436,/store/2436-FAIRVIEW HEIGHTS,(618) 628-0657,6530 N Illinois St.,Fairview Heights,Illinois,62208-2156,38.5937,-89.98473
Fountain Square Of Lombard,462,/store/462-LOMBARD,(630) 705-1720,2370 Fountain Square Dr.,Lombard,Illinois,60148-6010,41.84311,-87.9951
Orland Park Place - Outparcel,457,/store/457-ORLAND PARK,(708) 364-1680,15341 S Lagrange Rd.,Orland Park,Illinois,60462-3712,41.61113,-87.85281
Woodfield Road,2458,/store/2458-SCHAUMBURG,(847) 995-0212,1700 E Woodfield Rd.,Schaumburg,Illinois,60173-5153,42.04324,-88.03902
Vernon Hills,2437,/store/2437-VERNON HILLS,(847) 680-0394,567 E Townline Rd,Vernon Hills,Illinois,60061-1535,42.23998,-87.95072
Eastland Mall,2528,/store/2528-EVANSVILLE,(812) 471-2799,700 N. Green River Rd.,Evansville,Indiana,47715-2416,37.98403,-87.49316
Glenbrook Square,2527,/store/2527-FORT WAYNE,(260) 482-3380,4335 Coldwater Rd.,Fort Wayne,Indiana,46805-1111,41.11795,-85.1357
Greenwood Park Mall,2477,/store/2477-GREENWOOD,(317) 881-0879,729 West County Line Rd.,Greenwood,Indiana,46142-4362,39.63527,-86.12374
Keystone Crossing,2476,/store/2476-INDIANAPOLIS,(317) 466-0710,8520 Keystone Crossing,Indianapolis,Indiana,46240-2455,39.91156,-86.11058
Southlake Mall,2422,/store/2422-MERRILLVILLE,(219) 769-6238,2196 Southlake Mall,Merrillville,Indiana,46410-6439,41.47066,-87.30998
University Park Mall,2493,/store/2493-MISHAWAKA,(574) 243-4966,6501 N Grape Rd.,Mishawaka,Indiana,46545-1010,41.71973,-86.19192
Lindale Mall,2578,/store/2578-CEDAR RAPIDS,(319) 378-0404,159 Collins Rd. Ne,Cedar Rapids,Iowa,52402-3201,42.02726,-91.62522
Jordan Creek Town Center,2417,/store/2417-WEST DES MOINES,(515) 222-5351,101 Jordan Creek Pkwy.,West Des Moines,Iowa,50266-8131,41.56849,-93.8092
Orchard Corners,2449,/store/2449-LENEXA,(913) 894-5200,9510 Quivira Rd.,Lenexa,Kansas,66215-1670,38.95606,-94.7241
Corbin Park,2478,/store/2478-OVERLAND PARK,(913) 851-1500,6675 West 135Th Street,Overland Park,Kansas,66223-7898,38.88331,-94.66274
Crestview Hills Town Center,2450,/store/2450-CRESTVIEW HILLS,(859) 344-1060,2935 Dixie Hwy.,Crestview Hills,Kentucky,41017-2402,39.02514,-84.58152
Target Center,2432,/store/2432-LEXINGTON,(859) 271-0138,111 W Reynolds Rd.,Lexington,Kentucky,40503-3685,37.99238,-84.52425
Mall St. Matthews,2517,/store/2517-LOUISVILLE,(502) 891-6374,4972 Shelbyville Rd.,Louisville,Kentucky,40207-3306,38.24995,-85.62484
Mall Of Louisiana - Outparcel,2519,/store/2519-BATON ROUGE,(225) 761-7300,6071 Bluebonnet Blvd.,Baton Rouge,Louisiana,70836-6000,30.39297,-91.08779
Ambassador Row Courtyards,2552,/store/2552-LAFAYETTE,(337) 993-9220,3601 Ambassador Caffery Pkwy.,Lafayette,Louisiana,70503-5132,30.17576,-92.0711
Metairie,2416,/store/2416-METAIRIE,(504) 885-2221,3400 Veterans Memorial Blvd.,Metairie,Louisiana,70002-4807,30.00323,-90.15845
Maine Mall,2448,/store/2448-SOUTH PORTLAND,(207) 773-5080,7 Philbrook Ave.,South Portland,Maine,04106-3208,43.63224,-70.33895
Westfield Annapolis,2470,/store/2470-ANNAPOLIS,(410) 573-0160,180 Jennifer Rd.,Annapolis,Maryland,21401-3269,38.98784,-76.54376
Spectrum Drive,2594,/store/2594-FREDERICK,(240) 549-5483,5617 Spectrum Dr.,Frederick,Maryland,21703-8301,39.38342,-77.40195
Arundel Mills - Outparcel,470,/store/470-HANOVER,(410) 579-8595,7684 Arundel Mills Blvd.,Hanover,Maryland,21076-1385,39.15323,-76.7296
White Marsh Mall,2471,/store/2471-NOTTINGHAM,(410) 931-5380,8332 Honeygo Blvd.,Nottingham,Maryland,21236-5906,39.37296,-76.46342
Waldorf Marketplace,2431,/store/2431-WALDORF,(301) 638-0692,3088 Waldorf Market Place,Waldorf,Maryland,20603-4872,38.62765,-76.91468
Braintree,2518,/store/2518-BRAINTREE,(781) 848-3254,20 Forbes Rd.,Braintree,Massachusetts,02184-2602,42.22015,-71.02975
Wayside Commons,2445,/store/2445-BURLINGTON,(781) 270-2373,8 Wayside Rd.,Burlington,Massachusetts,01803-4603,42.48502,-71.19307
Legacy Place,2570,/store/2570-DEDHAM,(781) 320-8312,404 Legacy Place,Dedham,Massachusetts,02026-6830,42.23142,-71.17926
Marketplace Square,2584,/store/2584-NORTH ATTLEBORO,(508) 316-9034,1174 South Washington St.,North Attleboro,Massachusetts,02760-4446,41.94272,-71.34813
Colony Place At Plymouth,2446,/store/2446-PLYMOUTH,(508) 747-5281,260 Colony Place Rd.,Plymouth,Massachusetts,02360-7234,41.953902,-70.715729
Great Lakes Crossing - Outparcel,474,/store/474-AUBURN HILLS,(248) 253-0488,3960 Baldwin Rd.,Auburn Hills,Michigan,48326-1219,42.70161,-83.3049
Woodland Corner Shops,2489,/store/2489-GRAND RAPIDS,(616) 956-6173,3450 28Th St. Se,Grand Rapids,Michigan,49512-1602,42.91201,-85.58204
Rivertown Crossings,433,/store/433-GRANDVILLE,(616) 249-8229,3610 Rivertown Pkwy. Sw,Grandville,Michigan,49418-3007,42.88179,-85.75337
West Oaks Ii,492,/store/492-NOVI,(248) 449-6613,27795 Novi Rd.,Novi,Michigan,48377-3462,42.49376,-83.47679
South Westnedge Ave.,2560,/store/2560-PORTAGE,(269) 321-3016,6307 S. Westnedge Ave.,Portage,Michigan,49002-3545,42.22557,-85.5891
Utica Park Place,481,/store/481-UTICA,(586) 997-9500,45011 Utica Park Blvd.,Utica,Michigan,48315-5951,42.627,-83.00802
Burnsville Center,2440,/store/2440-BURNSVILLE,(952) 898-1414,801 County Rd. 42 W,Burnsville,Minnesota,55306-4413,44.7461,-93.28748
Southdale Square Shopping Center,2404,/store/2404-EDINA,(612) 861-1800,6569 York Ave S,Edina,Minnesota,55435-2356,44.88368,-93.31967
Shoppes At Arbor Lakes,2402,/store/2402-MAPLE GROVE,(763) 424-3872,11905 Elm Creek Blvd. N,Maple Grove,Minnesota,55369-7095,45.09356,-93.43219
Maplewood Mall - Outparcel,2403,/store/2403-MAPLEWOOD,(651) 748-0246,3081 White Bear Ave. N,Maplewood,Minnesota,55109-1309,45.03458,-93.01817
Jared Vault St. Louis Premium Outlets,4213,/store/4213-CHESTERFIELD,(636) 778-2306,18527 Outlet Blvd.,Chesterfield,Missouri,63005-0019,38.67795,-90.66191
Independence Center,2490,/store/2490-INDEPENDENCE,(816) 795-7880,18813 East 39Th St. S,Independence,Missouri,64057,39.04773,-94.35519
Eastgate Power Center,465,/store/465-HENDERSON,(702) 898-7392,1071 W Sunset Rd.,Henderson,Nevada,89014-6603,36.06316,-115.03457
Best In The West,484,/store/484-LAS VEGAS,(702) 647-6722,2110 N Rainbow,Las Vegas,Nevada,89108-7351,36.19796,-115.24136
Summit Sierra,2424,/store/2424-RENO,(775) 850-2020,13957 S Virginia St.,Reno,Nevada,89511-8917,39.40156,-119.75026
Patriot's Place Shopping Center,2443,/store/2443-CONCORD,(603) 223-6847,297 Loudon Rd.,Concord,New Hampshire,03301-6056,43.22773,-71.48495
Mall Of New Hampshire,2468,/store/2468-MANCHESTER,(603) 623-4089,1571 South Willow St.,Manchester,New Hampshire,03103-3212,42.9535,-71.43725
Jared Vault Merrimack Premium Outlets,4203,/store/4203-MERRIMACK,(603) 424-7573,80 Premium Outlets Blvd.,Merrimack,New Hampshire,03054-4770,42.8265,-71.49895
Crossings At Fox Run,2444,/store/2444-NEWINGTON,(603) 431-0297,65 Gosling Rd.,Newington,New Hampshire,03801-3144,43.09399,-70.7962
Monmouth Mall,2483,/store/2483-EATONTOWN,(732) 542-0998,184 Highway 35,Eatontown,New Jersey,07724-2012,40.290687,-74.058225
Freehold Raceway Mall,2497,/store/2497-FREEHOLD,(732) 625-1022,3710 Route 9,Freehold,New Jersey,07728,40.2585,-74.276063
Outlets At Bergen Town Center,2482,/store/2482-PARAMUS,(201) 226-0850,1500 Bergen Town Center,Paramus,New Jersey,07652-5024,40.91716,-74.06075
West Borough Of Watchung,2481,/store/2481-WATCHUNG,(908) 222-8738,1529 Rt. 22 West,Watchung,New Jersey,07069-6507,40.638477,-74.445085
Wayne Towne Center,2579,/store/2579-WAYNE,(973) 837-8648,115 Route 23,Wayne,New Jersey,07470-6900,40.940348,-74.244973
Deptford Landing,2475,/store/2475-WOODBURY,(856) 251-6956,2000 Clements Bridge Rd.,Woodbury,New Jersey,08096-2016,39.84187,-75.09096
Abq Uptown,2425,/store/2425-ALBUQUERQUE,(505) 830-3075,2260 Louisiana Blvd. Ne,Albuquerque,New Mexico,87110-3585,35.10394,-106.56843
Boulevard Consumer Square,2513,/store/2513-AMHERST,(716) 833-4359,1591 Niagara Falls Blvd.,Amherst,New York,14228-2704,42.99914,-78.82177
Cabela's Crossing,2421,/store/2421-BUFFALO,(716) 685-0328,2009 Walden Ave.,Buffalo,New York,14225-5113,42.9081,-78.7637
Carle Place Common - Outparcel,2530,/store/2530-CARLE PLACE,(516) 747-0528,195 Old Country Rd.,Carle Place,New York,11514-1907,40.7438,-73.61363
Lake Grove Commons,2512,/store/2512-LAKE GROVE,(631) 580-4780,160 New Moriches Rd.,Lake Grove,New York,11755-1300,40.867848,-73.127036
Jay Scutti Plaza,446,/store/446-ROCHESTER,(585) 424-3950,300 Hylan Dr.,Rochester,New York,14623-4216,43.08576,-77.62776
Destiny Usa,2569,/store/2569-SYRACUSE,(315) 424-1091,10381 Destiny Usa Dr,Syracuse,New York,13204-9017,43.068347,-76.169966
Asheville Market,2561,/store/2561-ASHEVILLE,(828) 298-0518,4 S Tunnel Rd.,Asheville,North Carolina,28805-2463,35.58255,-82.52465
Cary Towne Center,427,/store/427-CARY,(919) 460-8998,1109 Walnut St.,Cary,North Carolina,27511-4734,35.77114,-78.76249
Northlake Village,2461,/store/2461-CHARLOTTE,(704) 921-0742,10331 Perimeter Pkwy.,Charlotte,North Carolina,28216-2412,35.34482,-80.853328
Pavilion At King's Grant,426,/store/426-CONCORD,(704) 979-6070,8030 Concord Mills Blvd.,Concord,North Carolina,28027-4417,35.37247,-80.71818
Renaissance Center,429,/store/429-DURHAM,(919) 572-9932,6813 Fayetteville Rd.,Durham,North Carolina,27713-1321,35.90469,-78.93725
Wendover Avenue,2504,/store/2504-GREENSBORO,(336) 855-0578,4405 West Wendover Ave.,Greensboro,North Carolina,27407-2632,36.05543,-79.89499
Jared Vault Tanger Outlets Mebane,4198,/store/4198-MEBANE,(919) 563-2471,4000 Arrowhead Blvd.,Mebane,North Carolina,27302-7645,36.07466,-79.26868
Carolina Place Parkway,425,/store/425-PINEVILLE,(704) 752-7800,9530 Pineville Matthews Rd.,Pineville,North Carolina,28134-8806,35.08703,-80.87914
Capital Boulevard,424,/store/424-RALEIGH,(919) 792-9280,6100 Capital Blvd.,Raleigh,North Carolina,27616-2942,35.86814,-78.581
Hanes Mall Blvd.,2521,/store/2521-WINSTON SALEM,(336) 765-7779,1976 S Stratford Rd.,Winston Salem,North Carolina,27103-2909,36.06419,-80.3108
Montrose Centre,477,/store/477-AKRON,(330) 665-1994,3900 Medina Rd.,Akron,Ohio,44333-4508,41.13525,-81.63873
Mall At Fairfield Commons,2439,/store/2439-BEAVERCREEK,(937) 426-7962,2711 Fairfield Commons Blvd.,Beavercreek,Ohio,45431-3776,39.7644,-84.0535
Fashion Square,2555,/store/2555-BOARDMAN,(330) 758-3004,7415 Market St.,Boardman,Ohio,44512-5614,41.02146,-80.66199
Belden Park Crossings,417,/store/417-CANTON,(330) 966-9709,4381 Everhard Road Nw,Canton,Ohio,44718-2403,40.85949,-81.4302
Sycamore Plaza At Kenwood,2451,/store/2451-CINCINNATI,(513) 791-7677,7500 Kenwood Rd.,Cincinnati,Ohio,45236-2812,39.19871,-84.37992
Polaris Towne Center,461,/store/461-COLUMBUS,(614) 433-0671,1499 Polaris Pkwy.,Columbus,Ohio,43240-2041,40.14075,-82.97887
Morse Crossing,2495,/store/2495-COLUMBUS,(614) 476-6532,4159 Morse Crossing,Columbus,Ohio,43219-6015,40.0552,-82.91902
Plaza At Chapel Hill,475,/store/475-CUYAHOGA FALLS,(330) 923-5200,380 Howe Ave.,Cuyahoga Falls,Ohio,44221-4910,41.11864,-81.48067
Dayton Mall,2438,/store/2438-DAYTON,(937) 432-9328,2760 Miamisburg Centerville Rd,Dayton,Ohio,45459-3730,39.63651,-84.21998
Tuttle Crossing - Outparcel,447,/store/447-DUBLIN,(614) 336-8576,5061 Tuttle Crossing Blvd.,Dublin,Ohio,43016-1533,40.07575,-83.1301
Great Northern Mall,491,/store/491-NORTH OLMSTED,(440) 686-0436,25851 Brookpark Rd.,North Olmsted,Ohio,44070-3346,41.41838,-81.91111
Tri-county Towne Center,2474,/store/2474-SPRINGDALE,(513) 671-2532,11681 Princeton Pike,Springdale,Ohio,45246-2503,39.28973,-84.46731
The Plaza At Southpark,2510,/store/2510-STRONGSVILLE,(440) 238-5682,16760 Royalton Rd.,Strongsville,Ohio,44136-4435,41.31354,-81.81695
Franklin Park,466,/store/466-TOLEDO,(419) 480-0072,5011 Monroe St.,Toledo,Ohio,43623-3603,41.69803,-83.64209
Jared Vault Outlet Shoppes At Oklahoma City,4199,/store/4199-OKLAHOMA CITY,(405) 787-2309,7638 W Reno Ave.,Oklahoma City,Oklahoma,73127-9747,35.46401,-97.65034
Southern Trails Shopping Center,2433,/store/2433-TULSA,(918) 307-0867,8522 East 71St St.,Tulsa,Oklahoma,74133-2909,36.0604,-95.88048
Tanasbourne,2467,/store/2467-HILLSBORO,(503) 645-0702,10200 Ne Cornell Rd.,Hillsboro,Oregon,97124-9213,45.53399,-122.87551
Pointe At Bridgeport,2459,/store/2459-TIGARD,(503) 598-7431,7162 Sw Hazelfern Rd.,Tigard,Oregon,97224-7762,45.39539,-122.74992
Millcreek Marketplace,2550,/store/2550-ERIE,(814) 868-8902,2081 Interchange Rd.,Erie,Pennsylvania,16509-8315,42.064645,-80.098007
Harrisburg Pike,2549,/store/2549-LANCASTER,(717) 207-0139,1476 Harrisburg Pike,Lancaster,Pennsylvania,17601-2630,40.06379,-76.34145
Oxford Valley Mall,2523,/store/2523-LANGHORNE,(215) 757-1476,750 Middletown Blvd.,Langhorne,Pennsylvania,19047-1854,40.18041,-74.87624
Holiday Centre,420,/store/420-MONROEVILLE,(412) 374-0956,3767 William Penn Hwy.,Monroeville,Pennsylvania,15146-2125,40.43714,-79.78598
Pointe At North Fayette,442,/store/442-PITTSBURGH,(412) 809-9050,100 Mcholme Dr.,Pittsburgh,Pennsylvania,15275-1209,40.44975,-80.17549
South Hills Village,2494,/store/2494-PITTSBURGH,(412) 831-6192,161 Fort Couch Rd.,Pittsburgh,Pennsylvania,15241-1007,40.34524,-80.05438
Ross Park/mcknight Rd.,419,/store/419-PITTSBURGH,(412) 369-6890,7381 Mcknight Rd.,Pittsburgh,Pennsylvania,15237-3511,40.53901,-80.01226
Willow Grove,2509,/store/2509-WILLOW GROVE,(215) 659-0128,10 Park Ave.,Willow Grove,Pennsylvania,19090-3218,40.14299,-75.11749
Warwick Mall,2568,/store/2568-WARWICK,(401) 738-0412,205 Lambert Lind Hwy.,Warwick,Rhode Island,02886-1164,41.72642,-71.47429
Columbiana Centre,2520,/store/2520-COLUMBIA,(803) 407-5105,343 Harbison Blvd.,Columbia,South Carolina,29212-2224,34.07581,-81.15509
Magnolia Park,2544,/store/2544-GREENVILLE,(864) 627-2126,1025 Woodruff Rd.,Greenville,South Carolina,29607-4132,34.83385,-82.30712
Jared Vault Tanger Outlets 17 N Myrtle Beach,4144,/store/4144-MYRTLE BEACH,(843) 449-3871,10835 Kings Rd Ste 225,Myrtle Beach,South Carolina,29572,33.68484,-78.961958
Hamilton Place,2429,/store/2429-CHATTANOOGA,(423) 499-5696,2001 Gunbarrel Rd.,Chattanooga,Tennessee,37421-2606,35.03072,-85.1559
Shops At Carriage Crossing - Out,2487,/store/2487-COLLIERVILLE,(901) 854-0965,4615 Merchants Park Circle,Collierville,Tennessee,38017-9112,35.02075,-89.71981
Countrywood Crossing,2486,/store/2486-CORDOVA,(901) 386-5805,2293 N Germantown Pkwy.,Cordova,Tennessee,38016-7409,35.18814,-89.79288
Thoroughbred Village Shopping Ctr,458,/store/458-FRANKLIN,(615) 771-3922,549 Cool Springs Blvd.,Franklin,Tennessee,37067-2680,35.947108,-86.82175
Rivergate Parkway,428,/store/428-GOODLETTSVILLE,(615) 855-2200,914 Rivergate Pkwy.,Goodlettsville,Tennessee,37072-2323,36.29915,-86.69969
Centre At Deane Hill,488,/store/488-KNOXVILLE,(865) 691-8018,222 Morrell Rd.,Knoxville,Tennessee,37919-5876,35.92558,-84.03362
Avenue At Murfreesboro - Outparcel,2502,/store/2502-MURFREESBORO,(615) 893-5523,2645 Medical Center Pkwy.,Murfreesboro,Tennessee,37129-2257,35.85924,-86.44468
Jared Vault Tanger Outlets Sevierville,4073,/store/4073-SEVIERVILLE,(865) 428-8090,1645 Pkwy.,Sevierville,Tennessee,37862-2898,35.83336,-83.57078
Parks At Arlington - Outparcel,448,/store/448-ARLINGTON,(817) 784-2744,3951 S Cooper St.,Arlington,Texas,76015-4124,32.68166,-97.13328
Shops At Arbor Trails,2457,/store/2457-AUSTIN,(512) 358-0277,4301 W Wm Cannon Dr.,Austin,Texas,78749-1473,30.210677,-97.863184
Jared Vault Outlet Shoppes At El Paso,4187,/store/4187-CANUTILLO,(915) 877-3699,7051 S Desert Blvd.,Canutillo,Texas,79835-8585,31.91136,-106.58562
Lakeline Mall-outparcel,2456,/store/2456-CEDAR PARK,(512) 331-5448,11047 Pecan Park,Cedar Park,Texas,78613-1527,30.46837,-97.80511
Tomball Town Center - La Palmera,2547,/store/2547-CORPUS CHRISTI,(361) 985-0179,4954 S Staples St.,Corpus Christi,Texas,78411-3802,27.70957,-97.36929
Fountains At Farah,2546,/store/2546-EL PASO,(915) 629-9554,8889 Gateway W Blvd.,El Paso,Texas,79925-6549,31.77144,-106.37366
Hulen Mall - Outparcel,2400,/store/2400-FORT WORTH,(817) 346-1410,4750 South Hulen St.,Fort Worth,Texas,76132-1404,32.67831,-97.39532
Frisco Village,2441,/store/2441-FRISCO,(214) 705-7354,3110 Preston Rd.,Frisco,Texas,75034-9422,33.10423,-96.80487
Jared Vault Grand Prairie Premium Outlets,4204,/store/4204-GRAND PRAIRIE,(972) 606-4817,2950 W Interstate 20,Grand Prairie,Texas,75052-8079,32.68002,-97.05287
Willowbrook,490,/store/490-HOUSTON,(281) 807-0316,7400 Farm To Market,Houston,Texas,77070-5804,29.975553,-95.494534
Memorial City,499,/store/499-HOUSTON,(713) 647-0934,9829 Katy Freeway,Houston,Texas,77024-1201,29.78322,-95.5374
Deerbrook Mall - Outparcel,2409,/store/2409-HUMBLE,(281) 446-8708,10027 Fm 1960 Bypass Rd. W,Humble,Texas,77338-3515,30.000253,-95.260709
Shops At North East Mall,494,/store/494-HURST,(817) 284-5476,1330 W Pipeline Rd.,Hurst,Texas,76053-4627,32.82413,-97.20148
Jared Vault Katy Mills,4098,/store/4098-KATY,(281) 644-2900,5000 Katy Mills Circle,Katy,Texas,77494-4792,29.77621,-95.80947
Vista Ridge Iii,493,/store/493-LEWISVILLE,(972) 459-6738,2425 S Stemmons,Lewisville,Texas,75067-8764,33.00463,-96.96911
Forum At Olympia Parkway,2434,/store/2434-LIVE OAK,(210) 945-0208,8152 Agora Pkwy.,Live Oak,Texas,78154-1317,29.56675,-98.32941
Canyon West,2536,/store/2536-LUBBOCK,(806) 797-1650,5013 Milwaukee Ave.,Lubbock,Texas,79407-3808,33.54619,-101.95667
La Plaza Mall,2531,/store/2531-MCALLEN,(956) 928-1212,2204 S 10Th St.,Mcallen,Texas,78503-5433,26.182923,-98.233562
Midland Park Mall,2542,/store/2542-MIDLAND,(432) 689-0512,4515 N. Midkiff Rd.,Midland,Texas,79705-3207,32.03199,-102.12929
Pearland Town Center,2492,/store/2492-PEARLAND,(713) 340-1655,11222 Broadway Street,Pearland,Texas,77584-9779,29.55524,-95.39345
Collin Creek Mall,498,/store/498-PLANO,(972) 578-9400,301 W Plano Pkwy.,Plano,Texas,75075-8927,33.00955,-96.71076
Rim,2435,/store/2435-SAN ANTONIO,(210) 561-7280,17327 Interstate Hwy. 10 W,San Antonio,Texas,78257-9524,29.605049,-98.601006
Park North,2559,/store/2559-SAN ANTONIO,(210) 340-0124,7427 San Pedro Ave.,San Antonio,Texas,78216-8308,29.51753,-98.49991
Southlake Town Square - Outparcel,2469,/store/2469-SOUTHLAKE,(817) 251-0286,1500 E Southlake Blvd.,Southlake,Texas,76092-6421,32.94138,-97.12877
Town Center Lakeside,439,/store/439-SUGAR LAND,(281) 240-6200,16010 Kensington Dr.,Sugar Land,Texas,77479-4092,29.59924,-95.62636
Jared Vault Tanger Outlets Houston,4205,/store/4205-TEXAS CITY,(281) 337-1912,5885 Gulf Freeway,Texas City,Texas,77591-7064,29.40683,-95.0341
The Woodlands - Outparcel,2529,/store/2529-THE WOODLANDS,(281) 419-4495,1475 Lake Woodlands Drive,The Woodlands,Texas,77380-3234,30.16733,-95.45749
French Quarter Shopping Center,2562,/store/2562-TYLER,(903) 939-0411,4574 South Broadway Ave.,Tyler,Texas,75703-1305,32.29994,-95.30024
Baybrook Gateway Shopping Center,497,/store/497-WEBSTER,(281) 557-2340,1045 W Bay Area Blvd.,Webster,Texas,77598-4047,29.54117,-95.1387
University Place,2501,/store/2501-OREM,(801) 225-4216,531 East University Pkwy,Orem,Utah,84097-7750,40.27408,-111.68444
59th & S. State,496,/store/496-SALT LAKE CITY,(801) 281-8989,5928 South State St.,Salt Lake City,Utah,84107-7223,40.64273,-111.88926
Shops At Stonefield,2583,/store/2583-CHARLOTTESVILLE,(434) 972-7211,3928 Lenox Ave.,Charlottesville,Virginia,22901-2660,38.06824,-78.48767
Dulles Town Center,452,/store/452-DULLES,(703) 433-2305,21115 Dulles Town Circle,Dulles,Virginia,20166-2473,39.03263,-77.4199
Fair Lakes Center,423,/store/423-FAIRFAX,(703) 818-8218,12960 Fair Lakes Shopping Ctr.,Fairfax,Virginia,22033-5176,38.85943,-77.38884
Spotsylvania Mall,2503,/store/2503-FREDERICKSBURG,(540) 548-2081,3102 Plank Rd.,Fredericksburg,Virginia,22407-4900,38.295958,-77.500485
Newport News,2406,/store/2406-NEWPORT NEWS,(757) 881-9212,12249 Jefferson Ave.,Newport News,Virginia,23602-6970,37.11158,-76.49969
Chesterfield Towne Center Outparcel,487,/store/487-RICHMOND,(804) 897-8380,11230 Midlothian Turnpike,North Chesterfield,Virginia,23235-4714,37.50655,-77.60455
Short Pump Town Center Outparcel,495,/store/495-RICHMOND,(804) 364-4915,11724 W Broad St.,Richmond,Virginia,23233-1005,37.564354,-77.470897
Lynnhaven Parkway,2407,/store/2407-VIRGINIA BEACH,(757) 340-5181,656 Phoenix Dr.,Virginia Beach,Virginia,23452-7317,36.82485,-76.06764
Jared Vault Potomac Mills,4054,/store/4054-WOODBRIDGE,(703) 497-0065,2700 Potomac Mills Circle,Woodbridge,Virginia,22192-4645,38.64389,-77.29561
Golde Creek Plaza Ii,414,/store/414-LYNNWOOD,(425) 774-6933,2925 196Th St. Sw,Lynnwood,Washington,98036-4826,47.82145,-122.27288
Lincoln Plaza Shopping Center,416,/store/416-TACOMA,(253) 472-2279,2501 South 38Th St.,Tacoma,Washington,98409-7373,47.22304,-122.46922
Parkway Square Shopping Center,415,/store/415-TUKWILA,(206) 575-2428,16840 Southcenter Pkwy.,Tukwila,Washington,98188-3309,47.45257,-122.26079
Shoppes At Fountain Square,2408,/store/2408-BROOKFIELD,(262) 786-4917,16070 W Bluemound Rd.,Brookfield,Wisconsin,53005-6009,43.0366,-88.11243
Fox River Mall - Outparcel,440,/store/440-GRAND CHUTE,(920) 731-3313,141 N Casaloma Dr.,Grand Chute,Wisconsin,54913-9676,44.26316,-88.47681
